{"type":"FeatureCollection","features":[{"type":"Feature","properties":{"name":"Alameda","population":1649060,"crime":{"homicide":8.2,"rape":25.1,"robbery":168.3,"aggAssault":312.5,"burglary":453.2,"mvTheft":712.4,"larceny":1823.1,"violentTotal":514.1,"propertyTotal":2988.7,"total":3502.8},"housing":{"homeValue":1057400,"rent":2318,"income":126240},"education":{"hsPlus":88.9,"bachPlus":51.5,"gradPlus":22.8}},"geometry":{"type":"Point","coordinates":[-122.0923,37.6899]}},{"type":"Feature","properties":{"name":"Alpine","population":1099,"crime":{"homicide":0,"rape":0,"robbery":0,"aggAssault":182,"burglary":91,"mvTheft":91,"larceny":273,"violentTotal":182,"propertyTotal":455,"total":637},"housing":{"homeValue":466100,"rent":null,"income":110781},"education":{"hsPlus":96.3,"bachPlus":42.1,"gradPlus":19.7}},"geometry":{"type":"Point","coordinates":[-119.7101,38.5876]}},{"type":"Feature","properties":{"name":"Amador","population":42026,"crime":{"homicide":2.4,"rape":23.8,"robbery":9.5,"aggAssault":166.7,"burglary":190.5,"mvTheft":95.2,"larceny":571.4,"violentTotal":202.4,"propertyTotal":857.1,"total":1059.5},"housing":{"homeValue":422800,"rent":1380,"income":81526},"education":{"hsPlus":91,"bachPlus":22.4,"gradPlus":7}},"geometry":{"type":"Point","coordinates":[-120.5653,38.4768]}},{"type":"Feature","properties":{"name":"Colusa","population":22074,"crime":{"homicide":4.5,"rape":18.2,"robbery":13.6,"aggAssault":254.6,"burglary":195.5,"mvTheft":172.7,"larceny":413.6,"violentTotal":290.9,"propertyTotal":781.8,"total":1072.7},"housing":{"homeValue":375100,"rent":1139,"income":75149},"education":{"hsPlus":73.2,"bachPlus":14.5,"gradPlus":3.2}},"geometry":{"type":"Point","coordinates":[-122.3003,39.1662]}},{"type":"Feature","properties":{"name":"El Dorado","population":192823,"crime":{"homicide":1.6,"rape":20.7,"robbery":14.5,"aggAssault":168.4,"burglary":207.3,"mvTheft":134.2,"larceny":808.3,"violentTotal":205.2,"propertyTotal":1149.8,"total":1355},"housing":{"homeValue":640500,"rent":1626,"income":106190},"education":{"hsPlus":94.9,"bachPlus":38.8,"gradPlus":13.1}},"geometry":{"type":"Point","coordinates":[-120.6059,38.7566]}},{"type":"Feature","properties":{"name":"Humboldt","population":132380,"crime":{"homicide":6,"rape":52.6,"robbery":60.2,"aggAssault":462.4,"burglary":421.1,"mvTheft":285.7,"larceny":1578.9,"violentTotal":581.2,"propertyTotal":2285.7,"total":2866.9},"housing":{"homeValue":418800,"rent":1249,"income":61135},"education":{"hsPlus":91.5,"bachPlus":32.1,"gradPlus":11.2}},"geometry":{"type":"Point","coordinates":[-123.9413,40.826]}},{"type":"Feature","properties":{"name":"Inyo","population":18485,"crime":{"homicide":0,"rape":21.7,"robbery":5.4,"aggAssault":206.5,"burglary":173.9,"mvTheft":76.1,"larceny":641.3,"violentTotal":233.6,"propertyTotal":891.3,"total":1124.9},"housing":{"homeValue":338400,"rent":1140,"income":72432},"education":{"hsPlus":92.8,"bachPlus":31.8,"gradPlus":12}},"geometry":{"type":"Point","coordinates":[-118.2617,36.636]}},{"type":"Feature","properties":{"name":"Kern","population":922529,"crime":{"homicide":10.3,"rape":36.8,"robbery":112.8,"aggAssault":447.5,"burglary":505.9,"mvTheft":693.7,"larceny":1521.2,"violentTotal":607.4,"propertyTotal":2720.8,"total":3328.2},"housing":{"homeValue":310600,"rent":1220,"income":67660},"education":{"hsPlus":77.1,"bachPlus":18.6,"gradPlus":6.2}},"geometry":{"type":"Point","coordinates":[-118.8137,35.2921]}},{"type":"Feature","properties":{"name":"Lake","population":67764,"crime":{"homicide":7.4,"rape":44.2,"robbery":29.5,"aggAssault":501.5,"burglary":383.2,"mvTheft":206.3,"larceny":1001.1,"violentTotal":582.6,"propertyTotal":1590.6,"total":2173.2},"housing":{"homeValue":316800,"rent":1292,"income":58738},"education":{"hsPlus":87.1,"bachPlus":17.7,"gradPlus":6}},"geometry":{"type":"Point","coordinates":[-122.6344,39.0434]}},{"type":"Feature","properties":{"name":"Lassen","population":28340,"crime":{"homicide":3.5,"rape":35.2,"robbery":7,"aggAssault":330.1,"burglary":204.9,"mvTheft":147.9,"larceny":584.5,"violentTotal":375.8,"propertyTotal":937.3,"total":1313.1},"housing":{"homeValue":259500,"rent":1043,"income":64395},"education":{"hsPlus":79.1,"bachPlus":13.2,"gradPlus":3.3}},"geometry":{"type":"Point","coordinates":[-120.535,40.2581]}},{"type":"Feature","properties":{"name":"Los Angeles","population":9757179,"crime":{"homicide":6.8,"rape":27.5,"robbery":175.6,"aggAssault":338.2,"burglary":410.3,"mvTheft":620.8,"larceny":1452.7,"violentTotal":548.1,"propertyTotal":2483.8,"total":3031.9},"housing":{"homeValue":783300,"rent":1893,"income":87760},"education":{"hsPlus":80.7,"bachPlus":35.5,"gradPlus":12.7}},"geometry":{"type":"Point","coordinates":[-118.3787,33.964]}},{"type":"Feature","properties":{"name":"Madera","population":165432,"crime":{"homicide":6.6,"rape":33.7,"robbery":66.3,"aggAssault":362.7,"burglary":380.7,"mvTheft":356.6,"larceny":1144.6,"violentTotal":469.3,"propertyTotal":1881.9,"total":2351.2},"housing":{"homeValue":367700,"rent":1307,"income":75496},"education":{"hsPlus":73,"bachPlus":17.1,"gradPlus":5.5}},"geometry":{"type":"Point","coordinates":[-119.8981,37.0909]}},{"type":"Feature","properties":{"name":"Mariposa","population":17048,"crime":{"homicide":0,"rape":17.6,"robbery":5.9,"aggAssault":211.8,"burglary":164.7,"mvTheft":70.6,"larceny":435.3,"violentTotal":235.3,"propertyTotal":670.6,"total":905.9},"housing":{"homeValue":358000,"rent":1268,"income":65378},"education":{"hsPlus":90.5,"bachPlus":30.9,"gradPlus":11.6}},"geometry":{"type":"Point","coordinates":[-119.9794,37.7226]}},{"type":"Feature","properties":{"name":"Modoc","population":8491,"crime":{"homicide":0,"rape":23.5,"robbery":0,"aggAssault":270.6,"burglary":176.5,"mvTheft":82.4,"larceny":329.4,"violentTotal":294.1,"propertyTotal":588.3,"total":882.4},"housing":{"homeValue":212000,"rent":818,"income":56648},"education":{"hsPlus":87.9,"bachPlus":23,"gradPlus":7}},"geometry":{"type":"Point","coordinates":[-120.8656,41.6523]}},{"type":"Feature","properties":{"name":"Mono","population":12991,"crime":{"homicide":0,"rape":15.4,"robbery":7.7,"aggAssault":138.5,"burglary":123.1,"mvTheft":53.8,"larceny":692.3,"violentTotal":161.6,"propertyTotal":869.2,"total":1030.8},"housing":{"homeValue":514300,"rent":1593,"income":86953},"education":{"hsPlus":89.6,"bachPlus":34.3,"gradPlus":15.5}},"geometry":{"type":"Point","coordinates":[-119.3082,38.0404]}},{"type":"Feature","properties":{"name":"Monterey","population":436251,"crime":{"homicide":5.5,"rape":27.5,"robbery":73.4,"aggAssault":312.8,"burglary":335.8,"mvTheft":316.5,"larceny":1100.9,"violentTotal":419.2,"propertyTotal":1753.2,"total":2172.4},"housing":{"homeValue":723100,"rent":1995,"income":94486},"education":{"hsPlus":73.3,"bachPlus":27.9,"gradPlus":11.4}},"geometry":{"type":"Point","coordinates":[-121.2771,36.3255]}},{"type":"Feature","properties":{"name":"Placer","population":433822,"crime":{"homicide":1.4,"rape":20.3,"robbery":18.5,"aggAssault":152.7,"burglary":218.4,"mvTheft":165.9,"larceny":988.7,"violentTotal":192.9,"propertyTotal":1373,"total":1565.9},"housing":{"homeValue":658800,"rent":1991,"income":114678},"education":{"hsPlus":94.9,"bachPlus":42.9,"gradPlus":15.2}},"geometry":{"type":"Point","coordinates":[-120.8884,39.0341]}},{"type":"Feature","properties":{"name":"Riverside","population":2529933,"crime":{"homicide":4.8,"rape":28.9,"robbery":80.5,"aggAssault":273.1,"burglary":345.6,"mvTheft":445.2,"larceny":1098.5,"violentTotal":387.3,"propertyTotal":1889.3,"total":2276.6},"housing":{"homeValue":510300,"rent":1814,"income":89672},"education":{"hsPlus":83.3,"bachPlus":25.1,"gradPlus":9.1}},"geometry":{"type":"Point","coordinates":[-115.4504,33.7659]}},{"type":"Feature","properties":{"name":"Sacramento","population":1611231,"crime":{"homicide":7.5,"rape":30.9,"robbery":142.8,"aggAssault":382.1,"burglary":454.3,"mvTheft":669.7,"larceny":1587.4,"violentTotal":563.3,"propertyTotal":2711.4,"total":3274.7},"housing":{"homeValue":498900,"rent":1702,"income":88724},"education":{"hsPlus":88.4,"bachPlus":33.3,"gradPlus":11.9}},"geometry":{"type":"Point","coordinates":[-121.4643,38.2854]}},{"type":"Feature","properties":{"name":"San Bernardino","population":2214281,"crime":{"homicide":7.9,"rape":32.7,"robbery":129.4,"aggAssault":388.6,"burglary":420.1,"mvTheft":567.3,"larceny":1156.8,"violentTotal":558.6,"propertyTotal":2144.2,"total":2702.8},"housing":{"homeValue":475000,"rent":1706,"income":82184},"education":{"hsPlus":82.1,"bachPlus":22.9,"gradPlus":8.2}},"geometry":{"type":"Point","coordinates":[-115.4578,34.5342]}},{"type":"Feature","properties":{"name":"San Diego","population":3298799,"crime":{"homicide":2.9,"rape":28.2,"robbery":76.4,"aggAssault":255.3,"burglary":279.8,"mvTheft":358.6,"larceny":1234.5,"violentTotal":362.8,"propertyTotal":1872.9,"total":2235.7},"housing":{"homeValue":791600,"rent":2154,"income":102285},"education":{"hsPlus":89,"bachPlus":42.1,"gradPlus":16.5}},"geometry":{"type":"Point","coordinates":[-117.1884,32.8093]}},{"type":"Feature","properties":{"name":"San Francisco","population":827526,"crime":{"homicide":5.7,"rape":22.8,"robbery":234.1,"aggAssault":266.4,"burglary":548.7,"mvTheft":658.3,"larceny":3412.8,"violentTotal":529,"propertyTotal":4619.8,"total":5148.8},"housing":{"homeValue":1380500,"rent":2419,"income":141446},"education":{"hsPlus":88.8,"bachPlus":60.1,"gradPlus":25.1}},"geometry":{"type":"Point","coordinates":[-122.401,37.7701]}},{"type":"Feature","properties":{"name":"San Joaquin","population":816108,"crime":{"homicide":11.7,"rape":35.8,"robbery":172.4,"aggAssault":528.6,"burglary":515.3,"mvTheft":782.4,"larceny":1534.6,"violentTotal":748.5,"propertyTotal":2832.3,"total":3580.8},"housing":{"homeValue":494500,"rent":1633,"income":88531},"education":{"hsPlus":80.4,"bachPlus":21.6,"gradPlus":7}},"geometry":{"type":"Point","coordinates":[-121.3215,37.9293]}},{"type":"Feature","properties":{"name":"San Luis Obispo","population":281843,"crime":{"homicide":1.4,"rape":28.4,"robbery":21.3,"aggAssault":205.7,"burglary":255.3,"mvTheft":170.2,"larceny":1127.7,"violentTotal":256.8,"propertyTotal":1553.2,"total":1810},"housing":{"homeValue":777200,"rent":1899,"income":93398},"education":{"hsPlus":91.8,"bachPlus":39.2,"gradPlus":14.9}},"geometry":{"type":"Point","coordinates":[-120.5909,35.2695]}},{"type":"Feature","properties":{"name":"Santa Cruz","population":262406,"crime":{"homicide":3.4,"rape":34.4,"robbery":42,"aggAssault":282.4,"burglary":339.7,"mvTheft":236.6,"larceny":1450.4,"violentTotal":362.2,"propertyTotal":2026.7,"total":2388.9},"housing":{"homeValue":1015200,"rent":2172,"income":109266},"education":{"hsPlus":88.5,"bachPlus":43.6,"gradPlus":18.3}},"geometry":{"type":"Point","coordinates":[-121.9288,37.0279]}},{"type":"Feature","properties":{"name":"Shasta","population":181121,"crime":{"homicide":5.5,"rape":49.7,"robbery":49.7,"aggAssault":464.1,"burglary":430.9,"mvTheft":370.2,"larceny":1535.9,"violentTotal":569,"propertyTotal":2337,"total":2906},"housing":{"homeValue":347200,"rent":1267,"income":71931},"education":{"hsPlus":92.1,"bachPlus":23.3,"gradPlus":7.4}},"geometry":{"type":"Point","coordinates":[-122.4989,40.5322]}},{"type":"Feature","properties":{"name":"Solano","population":455101,"crime":{"homicide":6.6,"rape":26.4,"robbery":101.1,"aggAssault":318.7,"burglary":345.1,"mvTheft":511,"larceny":1175.8,"violentTotal":452.8,"propertyTotal":2031.9,"total":2484.7},"housing":{"homeValue":589600,"rent":2088,"income":99994},"education":{"hsPlus":88.9,"bachPlus":28.4,"gradPlus":9}},"geometry":{"type":"Point","coordinates":[-122.0302,38.2763]}},{"type":"Feature","properties":{"name":"Sonoma","population":485375,"crime":{"homicide":2.1,"rape":24.7,"robbery":39.2,"aggAssault":222.7,"burglary":294.8,"mvTheft":237.1,"larceny":1195.9,"violentTotal":288.7,"propertyTotal":1727.8,"total":2016.5},"housing":{"homeValue":779000,"rent":2093,"income":102840},"education":{"hsPlus":88.9,"bachPlus":37.8,"gradPlus":14.3}},"geometry":{"type":"Point","coordinates":[-122.877,38.474]}},{"type":"Feature","properties":{"name":"Stanislaus","population":556972,"crime":{"homicide":7.2,"rape":37.8,"robbery":126.3,"aggAssault":440.5,"burglary":484.6,"mvTheft":646,"larceny":1515.2,"violentTotal":611.8,"propertyTotal":2645.8,"total":3257.6},"housing":{"homeValue":426600,"rent":1528,"income":79661},"education":{"hsPlus":80.1,"bachPlus":19.1,"gradPlus":6}},"geometry":{"type":"Point","coordinates":[-121.1969,37.51]}},{"type":"Feature","properties":{"name":"Trinity","population":15642,"crime":{"homicide":6.4,"rape":38.3,"robbery":6.4,"aggAssault":370.5,"burglary":281.5,"mvTheft":108.4,"larceny":524.6,"violentTotal":421.6,"propertyTotal":914.5,"total":1336.1},"housing":{"homeValue":329000,"rent":922,"income":53498},"education":{"hsPlus":94.8,"bachPlus":18,"gradPlus":8.6}},"geometry":{"type":"Point","coordinates":[-122.9809,40.8367]}},{"type":"Feature","properties":{"name":"Tulare","population":483546,"crime":{"homicide":8.3,"rape":33.1,"robbery":95.5,"aggAssault":427.2,"burglary":464.5,"mvTheft":541.3,"larceny":1361.7,"violentTotal":564.1,"propertyTotal":2367.5,"total":2931.6},"housing":{"homeValue":303000,"rent":1206,"income":69489},"education":{"hsPlus":74.4,"bachPlus":15.8,"gradPlus":5.7}},"geometry":{"type":"Point","coordinates":[-118.2572,36.2851]}},{"type":"Feature","properties":{"name":"Tuolumne","population":53893,"crime":{"homicide":1.9,"rape":33.4,"robbery":11.1,"aggAssault":274.6,"burglary":263.5,"mvTheft":148.3,"larceny":741.3,"violentTotal":321,"propertyTotal":1153.1,"total":1474.1},"housing":{"homeValue":406200,"rent":1247,"income":72259},"education":{"hsPlus":93.5,"bachPlus":23.9,"gradPlus":7.9}},"geometry":{"type":"Point","coordinates":[-119.8972,37.964]}},{"type":"Feature","properties":{"name":"Yuba","population":87469,"crime":{"homicide":5.7,"rape":39.1,"robbery":46,"aggAssault":406.9,"burglary":402.3,"mvTheft":350.6,"larceny":1034.5,"violentTotal":497.7,"propertyTotal":1787.4,"total":2285.1},"housing":{"homeValue":380000,"rent":1209,"income":73313},"education":{"hsPlus":84.7,"bachPlus":17.9,"gradPlus":6}},"geometry":{"type":"Point","coordinates":[-121.3777,39.2755]}},{"type":"Feature","properties":{"name":"Yolo","population":225251,"crime":{"homicide":4.4,"rape":26.7,"robbery":71.1,"aggAssault":266.7,"burglary":373.3,"mvTheft":351.1,"larceny":1413.3,"violentTotal":368.9,"propertyTotal":2137.7,"total":2506.6},"housing":{"homeValue":593800,"rent":1757,"income":88818},"education":{"hsPlus":88.4,"bachPlus":44.1,"gradPlus":21.2}},"geometry":{"type":"Point","coordinates":[-121.9363,38.6866]}},{"type":"Feature","properties":{"name":"Butte","population":208334,"crime":{"homicide":4.8,"rape":42.3,"robbery":56.7,"aggAssault":392.1,"burglary":402.9,"mvTheft":356.7,"larceny":1344.2,"violentTotal":495.9,"propertyTotal":2103.8,"total":2599.7},"housing":{"homeValue":408700,"rent":1369,"income":68574},"education":{"hsPlus":90.3,"bachPlus":31.7,"gradPlus":11}},"geometry":{"type":"Point","coordinates":[-121.6764,39.5894]}},{"type":"Feature","properties":{"name":"Calaveras","population":46505,"crime":{"homicide":2.2,"rape":28.5,"robbery":8.6,"aggAssault":193.6,"burglary":236.4,"mvTheft":107.3,"larceny":515,"violentTotal":232.9,"propertyTotal":858.7,"total":1091.6},"housing":{"homeValue":441800,"rent":1615,"income":79877},"education":{"hsPlus":93.3,"bachPlus":22.2,"gradPlus":7.5}},"geometry":{"type":"Point","coordinates":[-120.4581,38.2549]}},{"type":"Feature","properties":{"name":"Contra Costa","population":1172607,"crime":{"homicide":5.1,"rape":19.4,"robbery":104.5,"aggAssault":221.8,"burglary":321.9,"mvTheft":487.6,"larceny":1156.2,"violentTotal":350.8,"propertyTotal":1965.7,"total":2316.5},"housing":{"homeValue":830800,"rent":2322,"income":125727},"education":{"hsPlus":89.6,"bachPlus":44.9,"gradPlus":17.5}},"geometry":{"type":"Point","coordinates":[-121.9859,37.9499]}},{"type":"Feature","properties":{"name":"Del Norte","population":27009,"crime":{"homicide":3.7,"rape":51.9,"robbery":22.2,"aggAssault":433.3,"burglary":318.5,"mvTheft":170.4,"larceny":814.8,"violentTotal":511.1,"propertyTotal":1303.7,"total":1814.8},"housing":{"homeValue":319600,"rent":1182,"income":66780},"education":{"hsPlus":85.5,"bachPlus":21,"gradPlus":8.2}},"geometry":{"type":"Point","coordinates":[-123.8356,41.699]}},{"type":"Feature","properties":{"name":"Fresno","population":1024125,"crime":{"homicide":9.4,"rape":38.1,"robbery":128.6,"aggAssault":434.3,"burglary":491.2,"mvTheft":621.4,"larceny":1687.1,"violentTotal":610.4,"propertyTotal":2799.7,"total":3410.1},"housing":{"homeValue":362600,"rent":1300,"income":71434},"education":{"hsPlus":78.6,"bachPlus":23.9,"gradPlus":8.2}},"geometry":{"type":"Point","coordinates":[-119.7049,36.8147]}},{"type":"Feature","properties":{"name":"Glenn","population":28304,"crime":{"homicide":3.5,"rape":28.3,"robbery":10.6,"aggAssault":305.3,"burglary":237.1,"mvTheft":198.2,"larceny":565.4,"violentTotal":347.7,"propertyTotal":1000.7,"total":1348.4},"housing":{"homeValue":338400,"rent":1103,"income":70487},"education":{"hsPlus":80.3,"bachPlus":16.5,"gradPlus":4.1}},"geometry":{"type":"Point","coordinates":[-122.0709,39.5949]}},{"type":"Feature","properties":{"name":"Imperial","population":181724,"crime":{"homicide":5.5,"rape":30.4,"robbery":55.8,"aggAssault":295.6,"burglary":313.8,"mvTheft":426.5,"larceny":845.3,"violentTotal":387.3,"propertyTotal":1585.6,"total":1972.9},"housing":{"homeValue":279500,"rent":1012,"income":56393},"education":{"hsPlus":71.8,"bachPlus":16.1,"gradPlus":4.6}},"geometry":{"type":"Point","coordinates":[-114.7751,33.09]}},{"type":"Feature","properties":{"name":"Kings","population":154913,"crime":{"homicide":7.7,"rape":35.5,"robbery":58.1,"aggAssault":465.2,"burglary":374.2,"mvTheft":445.2,"larceny":1012.9,"violentTotal":566.5,"propertyTotal":1832.3,"total":2398.8},"housing":{"homeValue":305700,"rent":1228,"income":68750},"education":{"hsPlus":74.2,"bachPlus":13.9,"gradPlus":4.5}},"geometry":{"type":"Point","coordinates":[-119.9938,36.0603]}},{"type":"Feature","properties":{"name":"Marin","population":256400,"crime":{"homicide":1.6,"rape":11.7,"robbery":35.2,"aggAssault":109.4,"burglary":234.4,"mvTheft":175.8,"larceny":1320.3,"violentTotal":157.9,"propertyTotal":1730.5,"total":1888.4},"housing":{"homeValue":1390000,"rent":2584,"income":142785},"education":{"hsPlus":92.7,"bachPlus":60.5,"gradPlus":27.2}},"geometry":{"type":"Point","coordinates":[-122.7516,38.0506]}},{"type":"Feature","properties":{"name":"Mendocino","population":89175,"crime":{"homicide":5.6,"rape":44.8,"robbery":22.4,"aggAssault":385.6,"burglary":336,"mvTheft":201.6,"larceny":1008,"violentTotal":458.4,"propertyTotal":1545.6,"total":2004},"housing":{"homeValue":486000,"rent":1325,"income":64688},"education":{"hsPlus":86.2,"bachPlus":24.9,"gradPlus":9.8}},"geometry":{"type":"Point","coordinates":[-123.639,39.3286]}},{"type":"Feature","properties":{"name":"Merced","population":296774,"crime":{"homicide":8.1,"rape":37,"robbery":108.8,"aggAssault":497.3,"burglary":481.4,"mvTheft":614.8,"larceny":1222.1,"violentTotal":651.2,"propertyTotal":2318.3,"total":2969.5},"housing":{"homeValue":368400,"rent":1284,"income":65044},"education":{"hsPlus":71.9,"bachPlus":14.8,"gradPlus":4.4}},"geometry":{"type":"Point","coordinates":[-120.7158,37.146]}},{"type":"Feature","properties":{"name":"Napa","population":132727,"crime":{"homicide":2.3,"rape":18.8,"robbery":30.1,"aggAssault":150.4,"burglary":218,"mvTheft":195.5,"larceny":1075.2,"violentTotal":201.6,"propertyTotal":1488.7,"total":1690.3},"housing":{"homeValue":838800,"rent":2141,"income":108970},"education":{"hsPlus":84.7,"bachPlus":38.5,"gradPlus":14.1}},"geometry":{"type":"Point","coordinates":[-122.3405,38.48]}},{"type":"Feature","properties":{"name":"Nevada","population":102195,"crime":{"homicide":2,"rape":25.5,"robbery":13.7,"aggAssault":190.2,"burglary":231.4,"mvTheft":133.3,"larceny":882.4,"violentTotal":231.4,"propertyTotal":1247.1,"total":1478.5},"housing":{"homeValue":602800,"rent":1635,"income":84905},"education":{"hsPlus":95.1,"bachPlus":39.5,"gradPlus":14.5}},"geometry":{"type":"Point","coordinates":[-120.9017,39.2923]}},{"type":"Feature","properties":{"name":"Orange","population":3170435,"crime":{"homicide":1.9,"rape":16.8,"robbery":60.2,"aggAssault":164.5,"burglary":265.4,"mvTheft":325.1,"larceny":1189.7,"violentTotal":243.4,"propertyTotal":1780.2,"total":2023.6},"housing":{"homeValue":915500,"rent":2352,"income":113702},"education":{"hsPlus":86.9,"bachPlus":43.4,"gradPlus":16.1}},"geometry":{"type":"Point","coordinates":[-117.8359,33.6517]}},{"type":"Feature","properties":{"name":"Plumas","population":18834,"crime":{"homicide":0,"rape":26.6,"robbery":5.3,"aggAssault":244.7,"burglary":212.8,"mvTheft":90.4,"larceny":478.7,"violentTotal":276.6,"propertyTotal":781.9,"total":1058.5},"housing":{"homeValue":327400,"rent":1034,"income":64946},"education":{"hsPlus":94,"bachPlus":20.5,"gradPlus":7.1}},"geometry":{"type":"Point","coordinates":[-121.0075,39.9978]}},{"type":"Feature","properties":{"name":"San Benito","population":69159,"crime":{"homicide":2.9,"rape":20.3,"robbery":17.4,"aggAssault":202.9,"burglary":159.4,"mvTheft":156.5,"larceny":536.2,"violentTotal":243.5,"propertyTotal":852.1,"total":1095.6},"housing":{"homeValue":751500,"rent":1922,"income":108289},"education":{"hsPlus":83.2,"bachPlus":22.4,"gradPlus":6.3}},"geometry":{"type":"Point","coordinates":[-121.105,36.5141]}},{"type":"Feature","properties":{"name":"San Mateo","population":742893,"crime":{"homicide":2,"rape":14.8,"robbery":67.1,"aggAssault":149.7,"burglary":302.7,"mvTheft":370.5,"larceny":1575.8,"violentTotal":233.6,"propertyTotal":2249,"total":2482.6},"housing":{"homeValue":1494500,"rent":2893,"income":156000},"education":{"hsPlus":90.3,"bachPlus":53.1,"gradPlus":23.9}},"geometry":{"type":"Point","coordinates":[-122.3365,37.4223]}},{"type":"Feature","properties":{"name":"Santa Barbara","population":444500,"crime":{"homicide":2.9,"rape":27,"robbery":49.5,"aggAssault":244.1,"burglary":288.3,"mvTheft":265.8,"larceny":1332.4,"violentTotal":323.5,"propertyTotal":1886.5,"total":2210},"housing":{"homeValue":735700,"rent":2050,"income":95977},"education":{"hsPlus":82.1,"bachPlus":35.9,"gradPlus":14.2}},"geometry":{"type":"Point","coordinates":[-120.1756,34.7642]}},{"type":"Feature","properties":{"name":"Santa Clara","population":1926325,"crime":{"homicide":2.6,"rape":20.1,"robbery":70.5,"aggAssault":176.8,"burglary":308.6,"mvTheft":398.7,"larceny":1476.3,"violentTotal":270,"propertyTotal":2183.6,"total":2453.6},"housing":{"homeValue":1382800,"rent":2814,"income":159674},"education":{"hsPlus":89.3,"bachPlus":55.9,"gradPlus":27.7}},"geometry":{"type":"Point","coordinates":[-121.7122,37.214]}},{"type":"Feature","properties":{"name":"Tehama","population":64451,"crime":{"homicide":6.2,"rape":43.4,"robbery":18.6,"aggAssault":449.7,"burglary":387.6,"mvTheft":260.9,"larceny":906.2,"violentTotal":517.9,"propertyTotal":1554.7,"total":2072.6},"housing":{"homeValue":315600,"rent":1159,"income":61834},"education":{"hsPlus":86.3,"bachPlus":18.8,"gradPlus":5.6}},"geometry":{"type":"Point","coordinates":[-122.2974,40.2571]}},{"type":"Feature","properties":{"name":"Sierra","population":3113,"crime":{"homicide":0,"rape":0,"robbery":0,"aggAssault":96.8,"burglary":129,"mvTheft":32.3,"larceny":258.1,"violentTotal":96.8,"propertyTotal":419.4,"total":516.2},"housing":{"homeValue":334100,"rent":1181,"income":60000},"education":{"hsPlus":91.4,"bachPlus":24.4,"gradPlus":9.5}},"geometry":{"type":"Point","coordinates":[-120.7791,39.5642]}},{"type":"Feature","properties":{"name":"Siskiyou","population":42498,"crime":{"homicide":4.7,"rape":42.4,"robbery":14.1,"aggAssault":367.1,"burglary":329.4,"mvTheft":175.3,"larceny":894.1,"violentTotal":428.3,"propertyTotal":1398.8,"total":1827.1},"housing":{"homeValue":284500,"rent":1043,"income":55499},"education":{"hsPlus":91.1,"bachPlus":23.1,"gradPlus":7.3}},"geometry":{"type":"Point","coordinates":[-123.1705,41.3965]}},{"type":"Feature","properties":{"name":"Sutter","population":98545,"crime":{"homicide":5.1,"rape":30.5,"robbery":40.6,"aggAssault":345.7,"burglary":325.4,"mvTheft":330.5,"larceny":1016.8,"violentTotal":421.9,"propertyTotal":1672.7,"total":2094.6},"housing":{"homeValue":399400,"rent":1364,"income":75450},"education":{"hsPlus":78.8,"bachPlus":20.2,"gradPlus":6.6}},"geometry":{"type":"Point","coordinates":[-121.7269,39.018]}},{"type":"Feature","properties":{"name":"Ventura","population":835427,"crime":{"homicide":1.4,"rape":16.7,"robbery":36,"aggAssault":145.8,"burglary":227.4,"mvTheft":235.6,"larceny":963.1,"violentTotal":199.9,"propertyTotal":1426.1,"total":1626},"housing":{"homeValue":768400,"rent":2248,"income":107327},"education":{"hsPlus":85.3,"bachPlus":35.7,"gradPlus":13.5}},"geometry":{"type":"Point","coordinates":[-119.2173,34.2791]}}]}