{"type":"FeatureCollection","features":[{"type":"Feature","geometry":{"type":"Polygon","coordinates":[[[-117.74358,37.01635],[-117.51227,37.18356],[-117.57383,37.42018],[-117.86768,37.48923],[-118.09874,37.3217],[-118.03621,37.08543],[-117.74358,37.01635]]]},"properties":{"h3":"842981bffffffff","sunshine":[8.7,9.6,10.7,12.3,13.2,13.8,13.7,13,11.8,10.7,9.4,8.4]}},{"type":"Feature","geometry":{"type":"Polygon","coordinates":[[[-119.46473,36.30656],[-119.2395,36.47688],[-119.30396,36.71298],[-119.59457,36.77837],[-119.81946,36.60773],[-119.75409,36.37203],[-119.46473,36.30656]]]},"properties":{"h3":"8429a87ffffffff","sunshine":[7.7,9.3,10.1,11.7,13.3,13.8,13.9,12.9,11.8,10.6,9,7.3]}},{"type":"Feature","geometry":{"type":"Polygon","coordinates":[[[-123.73887,41.22143],[-123.51574,41.3938],[-123.59141,41.61371],[-123.89103,41.66083],[-124.11353,41.48822],[-124.03704,41.26874],[-123.73887,41.22143]]]},"properties":{"h3":"84281c9ffffffff","sunshine":[5.7,7,8.1,9.9,11.6,13.2,13.8,12.9,11.1,8.9,7,5.1]}},{"type":"Feature","geometry":{"type":"Polygon","coordinates":[[[-118.97834,37.52252],[-118.74918,37.69126],[-118.81346,37.92555],[-119.10783,37.99072],[-119.33666,37.82167],[-119.27146,37.58776],[-118.97834,37.52252]]]},"properties":{"h3":"84298cbffffffff","sunshine":[8.2,9.4,10.5,12,13.2,13.6,13.7,13,11.8,10.5,9.1,7.8]}},{"type":"Feature","geometry":{"type":"Polygon","coordinates":[[[-117.18743,33.72619],[-116.9616,33.89461],[-117.02028,34.13748],[-117.30572,34.21157],[-117.53134,34.0428],[-117.47173,33.80029],[-117.18743,33.72619]]]},"properties":{"h3":"8429a01ffffffff","sunshine":[8.3,9.3,10.3,11.3,12.3,13.5,13.7,12.7,11.4,10.4,9.5,8]}},{"type":"Feature","geometry":{"type":"Polygon","coordinates":[[[-121.35911,39.96409],[-121.13134,40.13431],[-121.20174,40.36043],[-121.5008,40.41593],[-121.72809,40.24544],[-121.6568,40.01972],[-121.35911,39.96409]]]},"properties":{"h3":"8428143ffffffff","sunshine":[6.3,7.9,8.4,10.8,12.5,13.6,14,13,11.6,9.6,7.5,5.7]}},{"type":"Feature","geometry":{"type":"Polygon","coordinates":[[[-122.92123,39.61151],[-122.6991,39.78423],[-122.7721,40.00912],[-123.06807,40.06085],[-123.28964,39.88786],[-123.21581,39.66341],[-122.92123,39.61151]]]},"properties":{"h3":"8428065ffffffff","sunshine":[6.4,8.2,8.8,11,12.6,13.9,14.1,13,11.7,9.7,7.9,5.9]}},{"type":"Feature","geometry":{"type":"Polygon","coordinates":[[[-115.46852,35.54581],[-115.23487,35.71043],[-115.29107,35.95193],[-115.58193,36.02849],[-115.81546,35.86352],[-115.75825,35.62233],[-115.46852,35.54581]]]},"properties":{"h3":"8429845ffffffff","sunshine":[8.7,9.7,10.8,12.4,13.1,13.8,13.3,12.6,11.7,10.7,9.6,8.2]}},{"type":"Feature","geometry":{"type":"Polygon","coordinates":[[[-119.65989,37.0135],[-119.4337,37.18363],[-119.49896,37.41816],[-119.79133,37.48216],[-120.01716,37.31172],[-119.95099,37.07759],[-119.65989,37.0135]]]},"properties":{"h3":"8429ab1ffffffff","sunshine":[7.8,8.8,9.7,11.5,13.1,13.6,13.9,13,11.7,10.5,8.8,7.4]}},{"type":"Feature","geometry":{"type":"Polygon","coordinates":[[[-121.09684,38.19232],[-120.87223,38.36366],[-120.94093,38.59405],[-121.23513,38.6527],[-121.45929,38.48107],[-121.38971,38.25109],[-121.09684,38.19232]]]},"properties":{"h3":"8428329ffffffff","sunshine":[6.6,8.5,9.3,11.2,13,13.6,13.8,13.1,11.6,9.9,8.1,6.2]}},{"type":"Feature","geometry":{"type":"Polygon","coordinates":[[[-121.78772,41.31208],[-121.55814,41.48159],[-121.63031,41.7039],[-121.93298,41.75631],[-122.16204,41.58653],[-122.08897,41.36462],[-121.78772,41.31208]]]},"properties":{"h3":"8428115ffffffff","sunshine":[6.2,8,8.4,11,12.4,13.7,14,13.1,11.5,9.5,7.3,5.6]}},{"type":"Feature","geometry":{"type":"Polygon","coordinates":[[[-116.50729,34.23018],[-116.2788,34.39732],[-116.33641,34.64007],[-116.62346,34.71534],[-116.85178,34.54785],[-116.79321,34.30545],[-116.50729,34.23018]]]},"properties":{"h3":"8429a2bffffffff","sunshine":[8.9,9.9,11.1,12.2,13.3,13.7,13.5,12.6,11.7,10.8,9.8,8.4]}},{"type":"Feature","geometry":{"type":"Polygon","coordinates":[[[-117.04677,37.51647],[-116.8126,37.68214],[-116.87306,37.91846],[-117.16869,37.98877],[-117.40265,37.82277],[-117.3412,37.58679],[-117.04677,37.51647]]]},"properties":{"h3":"8429817ffffffff","sunshine":[8.7,9.6,10.7,12.2,13,13.7,13.6,12.9,11.8,10.6,9.3,8.1]}},{"type":"Feature","geometry":{"type":"Polygon","coordinates":[[[-119.97768,36.20091],[-119.75409,36.37203],[-119.81946,36.60773],[-120.1093,36.67191],[-120.33252,36.50048],[-120.26627,36.26519],[-119.97768,36.20091]]]},"properties":{"h3":"8429a83ffffffff","sunshine":[7.7,9.4,10.2,11.7,13.2,13.8,13.9,13,11.8,10.6,9,7.4]}},{"type":"Feature","geometry":{"type":"Polygon","coordinates":[[[-123.06609,41.73711],[-122.83956,41.90803],[-122.91442,42.12758],[-123.21667,42.17579],[-123.44261,42.00463],[-123.36689,41.78549],[-123.06609,41.73711]]]},"properties":{"h3":"84281c5ffffffff","sunshine":[6,7.3,8.5,10.4,12,13.5,14.2,13.1,11.4,9,7,5.1]}},{"type":"Feature","geometry":{"type":"Polygon","coordinates":[[[-114.80766,32.61301],[-114.57861,32.77833],[-114.63205,33.0249],[-114.91552,33.10584],[-115.14449,32.94015],[-115.09008,32.69388],[-114.80766,32.61301]]]},"properties":{"h3":"84485b1ffffffff","sunshine":[9.1,9.9,11.1,12.4,13,13.5,13.1,12.6,11.5,10.8,9.8,8.6]}},{"type":"Feature","geometry":{"type":"Polygon","coordinates":[[[-118.2879,38.02727],[-118.05578,38.19452],[-118.11901,38.42851],[-118.41534,38.49491],[-118.64717,38.32735],[-118.58297,38.09371],[-118.2879,38.02727]]]},"properties":{"h3":"84298c7ffffffff","sunshine":[8.5,9.6,10.7,12.1,12.9,13.5,13.5,12.8,11.8,10.6,9.2,8]}},{"type":"Feature","geometry":{"type":"Polygon","coordinates":[[[-123.43602,39.48991],[-123.21581,39.66341],[-123.28964,39.88786],[-123.58449,39.93837],[-123.80411,39.76461],[-123.72948,39.54061],[-123.43602,39.48991]]]},"properties":{"h3":"8428061ffffffff","sunshine":[6,7.9,8.3,10.7,12.3,13.8,14.1,13,11.6,9.4,7.7,5.7]}},{"type":"Feature","geometry":{"type":"Polygon","coordinates":[[[-115.99051,35.45679],[-115.75825,35.62233],[-115.81546,35.86352],[-116.10593,35.93885],[-116.33804,35.77296],[-116.27983,35.53209],[-115.99051,35.45679]]]},"properties":{"h3":"8429841ffffffff","sunshine":[8.7,9.7,10.8,12.3,13.2,13.7,13.4,12.7,11.7,10.7,9.5,8.3]}},{"type":"Feature","geometry":{"type":"Polygon","coordinates":[[[-118.07889,36.20521],[-117.85018,36.37353],[-117.91193,36.61135],[-118.20334,36.68047],[-118.43178,36.51181],[-118.36909,36.27437],[-118.07889,36.20521]]]},"properties":{"h3":"8429aadffffffff","sunshine":[8.4,9.5,10.7,12.2,13.4,13.8,13.6,13,11.9,10.7,9.4,8.2]}},{"type":"Feature","geometry":{"type":"Polygon","coordinates":[[[-120.4199,38.70496],[-120.19218,38.87491],[-120.25996,39.10504],[-120.55636,39.16482],[-120.78366,38.99458],[-120.71498,38.76485],[-120.4199,38.70496]]]},"properties":{"h3":"8428325ffffffff","sunshine":[6.9,8,8.7,11,12.5,13.5,13.8,13.1,11.5,9.9,8,6.5]}},{"type":"Feature","geometry":{"type":"Polygon","coordinates":[[[-122.31662,41.19421],[-122.08897,41.36462],[-122.16204,41.58653],[-122.46365,41.63763],[-122.69075,41.46697],[-122.6168,41.24546],[-122.31662,41.19421]]]},"properties":{"h3":"8428111ffffffff","sunshine":[6.5,8.1,9,11.2,12.5,13.8,14.1,13.1,11.5,9.4,7.7,5.6]}},{"type":"Feature","geometry":{"type":"Polygon","coordinates":[[[-115.81918,34.73023],[-115.58806,34.89599],[-115.64455,35.13856],[-115.93316,35.21506],[-116.16415,35.04895],[-116.10667,34.8067],[-115.81918,34.73023]]]},"properties":{"h3":"8429a27ffffffff","sunshine":[8.8,9.8,10.9,12.2,13.1,13.7,13.4,12.7,11.7,10.7,9.7,8.3]}},{"type":"Feature","geometry":{"type":"Polygon","coordinates":[[[-114.45507,33.43588],[-114.22361,33.60022],[-114.27672,33.84592],[-114.5623,33.927],[-114.79371,33.76231],[-114.7396,33.5169],[-114.45507,33.43588]]]},"properties":{"h3":"8429b5dffffffff","sunshine":[9,9.8,10.9,12.5,13,13.5,13,12.6,11.6,10.7,9.6,8.3]}},{"type":"Feature","geometry":{"type":"Polygon","coordinates":[[[-119.93587,39.90132],[-119.70405,40.06944],[-119.7717,40.29744],[-120.07211,40.35694],[-120.30353,40.18853],[-120.23494,39.96091],[-119.93587,39.90132]]]},"properties":{"h3":"8428169ffffffff","sunshine":[7.5,9,9.8,11.8,12.8,13.6,13.8,13,11.5,10,8.4,6.8]}},{"type":"Feature","geometry":{"type":"Polygon","coordinates":[[[-117.57383,37.42018],[-117.3412,37.58679],[-117.40265,37.82277],[-117.69773,37.8918],[-117.93012,37.72487],[-117.86768,37.48923],[-117.57383,37.42018]]]},"properties":{"h3":"8429813ffffffff","sunshine":[8.8,9.7,10.8,12.2,13,13.7,13.6,12.9,11.8,10.6,9.4,8.4]}},{"type":"Feature","geometry":{"type":"Polygon","coordinates":[[[-123.59141,41.61371],[-123.36689,41.78549],[-123.44261,42.00463],[-123.74368,42.05157],[-123.96758,41.87955],[-123.89103,41.66083],[-123.59141,41.61371]]]},"properties":{"h3":"84281c1ffffffff","sunshine":[5.6,6.8,7.9,9.8,11.9,13.4,14.2,13.1,11.3,8.9,6.7,5]}},{"type":"Feature","geometry":{"type":"Polygon","coordinates":[[[-115.29107,35.95193],[-115.05615,36.11595],[-115.11219,36.35687],[-115.40418,36.43347],[-115.639,36.26911],[-115.58193,36.02849],[-115.29107,35.95193]]]},"properties":{"h3":"842986bffffffff","sunshine":[8.6,9.6,10.7,12.3,13.1,13.8,13.2,12.6,11.7,10.7,9.5,8.1]}},{"type":"Feature","geometry":{"type":"Polygon","coordinates":[[[-120.64257,35.68514],[-120.42192,35.85746],[-120.4882,36.0933],[-120.77598,36.1564],[-120.99622,35.98377],[-120.9291,35.74836],[-120.64257,35.68514]]]},"properties":{"h3":"8429ad7ffffffff","sunshine":[8,9.3,10.1,11.8,13.3,13.8,13.8,13,11.8,10.5,9.1,7.7]}},{"type":"Feature","geometry":{"type":"Polygon","coordinates":[[[-118.81346,37.92555],[-118.58297,38.09371],[-118.64717,38.32735],[-118.94281,38.39246],[-119.17298,38.22399],[-119.10783,37.99072],[-118.81346,37.92555]]]},"properties":{"h3":"84298c3ffffffff","sunshine":[8.5,9.6,10.8,12.2,13.1,13.5,13.6,12.9,11.7,10.5,9.1,8]}},{"type":"Feature","geometry":{"type":"Polygon","coordinates":[[[-124.17327,40.03678],[-123.95426,40.21078],[-124.02978,40.43293],[-124.3251,40.48062],[-124.54347,40.30638],[-124.46717,40.08468],[-124.17327,40.03678]]]},"properties":{"h3":"8428005ffffffff","sunshine":[5.9,7.6,8.3,10.5,11.9,13.4,13.6,12.7,11.3,9.1,7.4,5.4]}},{"type":"Feature","geometry":{"type":"Polygon","coordinates":[[[-121.63031,41.7039],[-121.39931,41.87275],[-121.47148,42.09427],[-121.77557,42.14655],[-122.00606,41.97744],[-121.93298,41.75631],[-121.63031,41.7039]]]},"properties":{"h3":"842813bffffffff","sunshine":[6.6,8.1,9,11.1,12.4,13.7,14,13.1,11.5,9.4,7.4,5.6]}},{"type":"Feature","geometry":{"type":"Polygon","coordinates":[[[-118.59623,36.10519],[-118.36909,36.27437],[-118.43178,36.51181],[-118.72256,36.5797],[-118.94941,36.4102],[-118.88579,36.17314],[-118.59623,36.10519]]]},"properties":{"h3":"8429aa9ffffffff","sunshine":[8.1,9,10.2,11.9,13.2,13.7,13.8,13,11.8,10.6,9.2,7.9]}},{"type":"Feature","geometry":{"type":"Polygon","coordinates":[[[-120.94093,38.59405],[-120.71498,38.76485],[-120.78366,38.99458],[-121.07919,39.05311],[-121.30469,38.88202],[-121.23513,38.6527],[-120.94093,38.59405]]]},"properties":{"h3":"8428321ffffffff","sunshine":[6.9,8.2,9,11,12.9,13.6,13.9,13.1,11.5,9.9,8,6.4]}},{"type":"Feature","geometry":{"type":"Polygon","coordinates":[[[-120.67257,40.47324],[-120.44157,40.64193],[-120.51103,40.86769],[-120.81241,40.92438],[-121.04297,40.75541],[-120.97258,40.53003],[-120.67257,40.47324]]]},"properties":{"h3":"842810dffffffff","sunshine":[7,8.7,9.3,11.5,12.6,13.7,13.9,13.1,11.6,9.8,7.9,6.1]}},{"type":"Feature","geometry":{"type":"Polygon","coordinates":[[[-116.87306,37.91846],[-116.63756,38.08348],[-116.69789,38.31914],[-116.99475,38.38945],[-117.23004,38.2241],[-117.16869,37.98877],[-116.87306,37.91846]]]},"properties":{"h3":"84298edffffffff","sunshine":[8.4,9.4,10.5,12.1,12.9,13.7,13.5,12.8,11.7,10.5,9.2,7.9]}},{"type":"Feature","geometry":{"type":"Polygon","coordinates":[[[-116.33641,34.64007],[-116.10667,34.8067],[-116.16415,35.04895],[-116.45234,35.12424],[-116.68191,34.95726],[-116.62346,34.71534],[-116.33641,34.64007]]]},"properties":{"h3":"8429a23ffffffff","sunshine":[8.8,9.8,10.9,12.2,13.2,13.7,13.5,12.7,11.7,10.7,9.7,8.4]}},{"type":"Feature","geometry":{"type":"Polygon","coordinates":[[[-114.96979,33.35169],[-114.7396,33.5169],[-114.79371,33.76231],[-115.079,33.84221],[-115.3091,33.67665],[-115.25401,33.43154],[-114.96979,33.35169]]]},"properties":{"h3":"8429b59ffffffff","sunshine":[9,9.8,11,12.4,13,13.5,13.2,12.6,11.5,10.8,9.7,8.4]}},{"type":"Feature","geometry":{"type":"Polygon","coordinates":[[[-121.14807,35.57532],[-120.9291,35.74836],[-120.99622,35.98377],[-121.28315,36.04571],[-121.50169,35.87236],[-121.43374,35.63739],[-121.14807,35.57532]]]},"properties":{"h3":"8429ad3ffffffff","sunshine":[7.9,9.1,9.8,11.7,13.2,13.7,13.7,12.8,11.7,10.4,9,7.5]}},{"type":"Feature","geometry":{"type":"Polygon","coordinates":[[[-116.16385,37.30039],[-115.928,37.46477],[-115.98655,37.70235],[-116.28197,37.77525],[-116.51765,37.61054],[-116.45809,37.37326],[-116.16385,37.30039]]]},"properties":{"h3":"8429839ffffffff","sunshine":[8.6,9.5,10.5,12.1,13,13.9,13.5,12.8,11.7,10.6,9.2,8]}},{"type":"Feature","geometry":{"type":"Polygon","coordinates":[[[-117.91193,36.61135],[-117.68192,36.77913],[-117.74358,37.01635],[-118.03621,37.08543],[-118.26596,36.91733],[-118.20334,36.68047],[-117.91193,36.61135]]]},"properties":{"h3":"8429aa5ffffffff","sunshine":[8.8,9.8,10.9,12.3,13.3,13.8,13.7,13,11.8,10.7,9.6,8.5]}},{"type":"Feature","geometry":{"type":"Polygon","coordinates":[[[-122.99764,38.13013],[-122.77897,38.30407],[-122.85105,38.5321],[-123.14261,38.58574],[-123.36073,38.41153],[-123.28785,38.18395],[-122.99764,38.13013]]]},"properties":{"h3":"842831dffffffff","sunshine":[6.8,8.6,9.2,11.3,12.5,13.2,13,12.2,11.2,9.4,8.3,6.2]}},{"type":"Feature","geometry":{"type":"Polygon","coordinates":[[[-121.50169,35.87236],[-121.28315,36.04571],[-121.35109,36.28014],[-121.6384,36.34078],[-121.85648,36.16713],[-121.78772,35.93314],[-121.50169,35.87236]]]},"properties":{"h3":"84291a5ffffffff","sunshine":[7.8,9.1,9.7,11.8,13.3,13.8,13.8,12.9,11.8,10.4,9.1,7.5]}},{"type":"Feature","geometry":{"type":"Polygon","coordinates":[[[-121.20174,40.36043],[-120.97258,40.53003],[-121.04297,40.75541],[-121.34341,40.8108],[-121.57209,40.64092],[-121.5008,40.41593],[-121.20174,40.36043]]]},"properties":{"h3":"8428109ffffffff","sunshine":[6.7,8.3,9,11.1,12.5,13.7,13.9,13,11.6,9.7,7.9,5.8]}},{"type":"Feature","geometry":{"type":"Polygon","coordinates":[[[-117.40265,37.82277],[-117.16869,37.98877],[-117.23004,38.2241],[-117.52635,38.29311],[-117.76007,38.1268],[-117.69773,37.8918],[-117.40265,37.82277]]]},"properties":{"h3":"84298e9ffffffff","sunshine":[8.7,9.6,10.7,12.1,12.9,13.7,13.6,12.9,11.8,10.6,9.3,8.2]}},{"type":"Feature","geometry":{"type":"Polygon","coordinates":[[[-114.27672,33.84592],[-114.04404,34.00972],[-114.09698,34.25495],[-114.38361,34.33611],[-114.61625,34.17196],[-114.5623,33.927],[-114.27672,33.84592]]]},"properties":{"h3":"8429b55ffffffff","sunshine":[8.9,9.8,10.9,12.5,12.9,13.5,13,12.6,11.6,10.7,9.6,8.3]}},{"type":"Feature","geometry":{"type":"Polygon","coordinates":[[[-124.02978,40.43293],[-123.80941,40.60641],[-123.88498,40.82783],[-124.18172,40.87532],[-124.40146,40.7016],[-124.3251,40.48062],[-124.02978,40.43293]]]},"properties":{"h3":"842802bffffffff","sunshine":[6,7.4,8.3,10.3,11.9,13.4,13.9,12.9,11.3,9.2,7.4,5.4]}},{"type":"Feature","geometry":{"type":"Polygon","coordinates":[[[-116.51413,36.49268],[-116.28089,36.65832],[-116.33971,36.89715],[-116.63276,36.97001],[-116.86582,36.80405],[-116.806,36.56554],[-116.51413,36.49268]]]},"properties":{"h3":"842980bffffffff","sunshine":[8.6,9.6,10.8,12.1,13.2,13.8,13.6,12.8,11.7,10.6,9.3,8.2]}},{"type":"Feature","geometry":{"type":"Polygon","coordinates":[[[-121.91508,37.27136],[-121.69488,37.44445],[-121.76447,37.67569],[-122.05508,37.7334],[-122.27479,37.56002],[-122.20438,37.32921],[-121.91508,37.27136]]]},"properties":{"h3":"8428347ffffffff","sunshine":[7.4,8.9,9.6,11.3,12.8,13.6,13.7,12.8,11.6,10.1,8.7,7.1]}},{"type":"Feature","geometry":{"type":"Polygon","coordinates":[[[-118.43178,36.51181],[-118.20334,36.68047],[-118.26596,36.91733],[-118.55796,36.98517],[-118.78611,36.81619],[-118.72256,36.5797],[-118.43178,36.51181]]]},"properties":{"h3":"8429aa1ffffffff","sunshine":[8.1,9,10.3,11.8,13.3,13.7,13.7,13,11.9,10.6,9.2,7.9]}},{"type":"Feature","geometry":{"type":"Polygon","coordinates":[[[-118.11901,38.42851],[-117.88555,38.59513],[-117.94869,38.82846],[-118.24627,38.89481],[-118.47946,38.72788],[-118.41534,38.49491],[-118.11901,38.42851]]]},"properties":{"h3":"842988dffffffff","sunshine":[8.4,9.4,10.5,11.8,12.7,13.5,13.5,12.9,11.7,10.5,9,7.9]}},{"type":"Feature","geometry":{"type":"Polygon","coordinates":[[[-120.51103,40.86769],[-120.27863,41.03573],[-120.34805,41.26072],[-120.65081,41.31732],[-120.88277,41.14901],[-120.81241,40.92438],[-120.51103,40.86769]]]},"properties":{"h3":"8428105ffffffff","sunshine":[6.9,8.4,9.1,11.1,12.4,13.6,13.9,13.1,11.6,9.7,7.8,5.9]}},{"type":"Feature","geometry":{"type":"Polygon","coordinates":[[[-118.89329,34.15916],[-118.67092,34.32982],[-118.73308,34.57026],[-119.01849,34.63963],[-119.24055,34.46862],[-119.17752,34.22859],[-118.89329,34.15916]]]},"properties":{"h3":"8429a1bffffffff","sunshine":[8.3,9.5,10.3,11.6,12.7,13.2,13.7,12.7,11.6,10.5,9.5,8.2]}},{"type":"Feature","geometry":{"type":"Polygon","coordinates":[[[-114.79371,33.76231],[-114.5623,33.927],[-114.61625,34.17196],[-114.90261,34.25192],[-115.13395,34.08687],[-115.079,33.84221],[-114.79371,33.76231]]]},"properties":{"h3":"8429b51ffffffff","sunshine":[9,9.8,11,12.4,13,13.6,13.2,12.6,11.5,10.7,9.7,8.4]}},{"type":"Feature","geometry":{"type":"Polygon","coordinates":[[[-123.36531,40.95203],[-123.14158,41.12416],[-123.21638,41.34525],[-123.51574,41.3938],[-123.73887,41.22143],[-123.66324,41.00076],[-123.36531,40.95203]]]},"properties":{"h3":"8428027ffffffff","sunshine":[5.8,7.3,8.2,10.2,12,13.6,14.1,13.1,11.4,9.2,7.2,5.2]}},{"type":"Feature","geometry":{"type":"Polygon","coordinates":[[[-121.88271,39.84864],[-121.6568,40.01972],[-121.72809,40.24544],[-122.02617,40.29967],[-122.25157,40.12832],[-122.17941,39.90302],[-121.88271,39.84864]]]},"properties":{"h3":"842815dffffffff","sunshine":[6.4,8.3,8.8,11.2,12.9,13.8,14,13,11.7,9.8,7.9,6]}},{"type":"Feature","geometry":{"type":"Polygon","coordinates":[[[-120.09448,34.67091],[-119.87434,34.84297],[-119.93901,35.08122],[-120.22467,35.14696],[-120.44444,34.97456],[-120.37892,34.73675],[-120.09448,34.67091]]]},"properties":{"h3":"8429acbffffffff","sunshine":[8.2,9.4,10.1,11.8,13.3,13.7,13.8,12.8,11.7,10.7,9.3,8.2]}},{"type":"Feature","geometry":{"type":"Polygon","coordinates":[[[-116.6718,32.67414],[-116.44683,32.84225],[-116.50397,33.08712],[-116.78701,33.16351],[-117.0118,32.99503],[-116.95374,32.75053],[-116.6718,32.67414]]]},"properties":{"h3":"8429a45ffffffff","sunshine":[8.5,9.2,10.1,11.6,12.4,13.6,13.5,12.7,11.4,10.5,9.5,8]}},{"type":"Feature","geometry":{"type":"Polygon","coordinates":[[[-120.4882,36.0933],[-120.26627,36.26519],[-120.33252,36.50048],[-120.62156,36.56347],[-120.84308,36.39127],[-120.77598,36.1564],[-120.4882,36.0933]]]},"properties":{"h3":"8429a9dffffffff","sunshine":[8,9.3,10,11.8,13.3,13.8,13.9,13.1,11.8,10.6,9.1,7.7]}},{"type":"Feature","geometry":{"type":"Polygon","coordinates":[[[-122.85105,38.5321],[-122.63106,38.70557],[-122.70317,38.93295],[-122.99608,38.98641],[-123.21553,38.81268],[-123.14261,38.58574],[-122.85105,38.5321]]]},"properties":{"h3":"8428315ffffffff","sunshine":[6.6,8.4,9,11.2,12.8,13.8,13.9,12.9,11.7,9.7,8.2,6.1]}},{"type":"Feature","geometry":{"type":"Polygon","coordinates":[[[-118.64717,38.32735],[-118.41534,38.49491],[-118.47946,38.72788],[-118.77637,38.79294],[-119.00789,38.62507],[-118.94281,38.39246],[-118.64717,38.32735]]]},"properties":{"h3":"8429889ffffffff","sunshine":[8.4,9.5,10.6,12,12.9,13.5,13.6,13,11.7,10.5,9.1,7.9]}},{"type":"Feature","geometry":{"type":"Polygon","coordinates":[[[-121.04297,40.75541],[-120.81241,40.92438],[-120.88277,41.14901],[-121.18461,41.20428],[-121.41469,41.03503],[-121.34341,40.8108],[-121.04297,40.75541]]]},"properties":{"h3":"8428101ffffffff","sunshine":[7,8.5,9.2,11.2,12.4,13.7,13.9,13.1,11.6,9.7,7.8,6.1]}},{"type":"Feature","geometry":{"type":"Polygon","coordinates":[[[-120.53286,37.20324],[-120.30873,37.3745],[-120.37575,37.60761],[-120.66778,37.66907],[-120.8915,37.49751],[-120.82361,37.2648],[-120.53286,37.20324]]]},"properties":{"h3":"842836dffffffff","sunshine":[7.1,8.8,9.5,11.3,13.1,13.7,13.8,13,11.7,10.3,8.5,6.7]}},{"type":"Feature","geometry":{"type":"Polygon","coordinates":[[[-117.23004,38.2241],[-116.99475,38.38945],[-117.05598,38.62411],[-117.35352,38.69311],[-117.58859,38.52745],[-117.52635,38.29311],[-117.23004,38.2241]]]},"properties":{"h3":"84298e1ffffffff","sunshine":[8.4,9.5,10.5,12,12.9,13.6,13.5,12.8,11.7,10.5,9.2,7.9]}},{"type":"Feature","geometry":{"type":"Polygon","coordinates":[[[-118.22341,34.66997],[-117.99827,34.83944],[-118.05944,35.07978],[-118.34667,35.15026],[-118.57155,34.98046],[-118.50946,34.7405],[-118.22341,34.66997]]]},"properties":{"h3":"8429a17ffffffff","sunshine":[8.5,9.6,10.6,12.1,13.4,13.8,13.8,12.9,11.8,10.8,9.6,8.1]}},{"type":"Feature","geometry":{"type":"Polygon","coordinates":[[[-123.88498,40.82783],[-123.66324,41.00076],[-123.73887,41.22143],[-124.03704,41.26874],[-124.25815,41.09556],[-124.18172,40.87532],[-123.88498,40.82783]]]},"properties":{"h3":"8428023ffffffff","sunshine":[5.8,7.2,8.1,10.2,11.7,13.3,13.7,12.8,11.2,9.1,7.2,5.3]}},{"type":"Feature","geometry":{"type":"Polygon","coordinates":[[[-122.40344,39.7311],[-122.17941,39.90302],[-122.25157,40.12832],[-122.54861,40.18129],[-122.7721,40.00912],[-122.6991,39.78423],[-122.40344,39.7311]]]},"properties":{"h3":"8428159ffffffff","sunshine":[6.3,8.4,8.9,11.3,12.9,13.9,14,13,11.7,9.7,8,5.9]}},{"type":"Feature","geometry":{"type":"Polygon","coordinates":[[[-116.33971,36.89715],[-116.10517,37.06217],[-116.16385,37.30039],[-116.45809,37.37326],[-116.69245,37.20791],[-116.63276,36.97001],[-116.33971,36.89715]]]},"properties":{"h3":"8429803ffffffff","sunshine":[8.5,9.4,10.6,12.2,13.1,13.9,13.6,12.8,11.8,10.6,9.3,8.1]}},{"type":"Feature","geometry":{"type":"Polygon","coordinates":[[[-117.72743,35.89641],[-117.49848,36.06441],[-117.55937,36.30315],[-117.85018,36.37353],[-118.07889,36.20521],[-118.01704,35.96683],[-117.72743,35.89641]]]},"properties":{"h3":"842985bffffffff","sunshine":[8.8,9.8,11.1,12.3,13.4,13.8,13.8,13,11.9,10.7,9.6,8.5]}},{"type":"Feature","geometry":{"type":"Polygon","coordinates":[[[-119.43119,35.18598],[-119.20819,35.3569],[-119.27193,35.59505],[-119.55957,35.66187],[-119.78224,35.49063],[-119.71761,35.25289],[-119.43119,35.18598]]]},"properties":{"h3":"8429ac7ffffffff","sunshine":[8,9.5,10.5,11.9,13.3,13.8,13.8,12.9,11.8,10.7,9.2,7.7]}},{"type":"Feature","geometry":{"type":"Polygon","coordinates":[[[-120.34805,41.26072],[-120.11423,41.42808],[-120.18361,41.6523],[-120.48777,41.7088],[-120.72115,41.54117],[-120.65081,41.31732],[-120.34805,41.26072]]]},"properties":{"h3":"842812bffffffff","sunshine":[6.8,8.2,9.1,11.1,12.4,13.6,13.8,13.1,11.4,9.5,7.5,5.8]}},{"type":"Feature","geometry":{"type":"Polygon","coordinates":[[[-117.17731,32.58165],[-116.95374,32.75053],[-117.0118,32.99503],[-117.29437,33.07029],[-117.51774,32.90105],[-117.45876,32.65692],[-117.17731,32.58165]]]},"properties":{"h3":"8429a41ffffffff","sunshine":[8.7,9.5,10.4,11.1,11.2,12.2,12.6,11.8,10.8,10.1,9.5,8.3]}},{"type":"Feature","geometry":{"type":"Polygon","coordinates":[[[-120.99622,35.98377],[-120.77598,36.1564],[-120.84308,36.39127],[-121.13127,36.45308],[-121.35109,36.28014],[-121.28315,36.04571],[-120.99622,35.98377]]]},"properties":{"h3":"8429a99ffffffff","sunshine":[7.9,9.3,10.1,11.8,13.3,13.8,13.8,13,11.8,10.5,9,7.6]}},{"type":"Feature","geometry":{"type":"Polygon","coordinates":[[[-123.36073,38.41153],[-123.14261,38.58574],[-123.21553,38.81268],[-123.50736,38.86495],[-123.72491,38.69047],[-123.6512,38.46399],[-123.36073,38.41153]]]},"properties":{"h3":"8428311ffffffff","sunshine":[6.5,8.4,9.1,11.2,12.6,13.7,13.8,12.8,11.6,9.5,8.1,6]}},{"type":"Feature","geometry":{"type":"Polygon","coordinates":[[[-121.04601,37.09276],[-120.82361,37.2648],[-120.8915,37.49751],[-121.18266,37.55775],[-121.40463,37.38541],[-121.33588,37.15313],[-121.04601,37.09276]]]},"properties":{"h3":"8428369ffffffff","sunshine":[7.5,9,9.8,11.5,13.3,13.7,13.8,13,11.8,10.4,8.8,7.2]}},{"type":"Feature","geometry":{"type":"Polygon","coordinates":[[[-119.33666,37.82167],[-119.10783,37.99072],[-119.17298,38.22399],[-119.46789,38.28784],[-119.69638,38.11848],[-119.6303,37.88559],[-119.33666,37.82167]]]},"properties":{"h3":"84298ddffffffff","sunshine":[7.7,8.6,9.6,11.4,12.9,13.5,13.7,13,11.7,10.3,8.6,7.3]}},{"type":"Feature","geometry":{"type":"Polygon","coordinates":[[[-118.73308,34.57026],[-118.50946,34.7405],[-118.57155,34.98046],[-118.85815,35.04977],[-119.08147,34.87918],[-119.01849,34.63963],[-118.73308,34.57026]]]},"properties":{"h3":"8429a13ffffffff","sunshine":[8.3,9.4,10.3,11.9,13.2,13.8,13.8,12.9,11.8,10.7,9.4,7.9]}},{"type":"Feature","geometry":{"type":"Polygon","coordinates":[[[-121.72809,40.24544],[-121.5008,40.41593],[-121.57209,40.64092],[-121.87155,40.69501],[-122.09834,40.52425],[-122.02617,40.29967],[-121.72809,40.24544]]]},"properties":{"h3":"8428155ffffffff","sunshine":[6.3,7.9,8.5,10.9,12.5,13.8,14,13.1,11.6,9.6,7.6,5.7]}},{"type":"Feature","geometry":{"type":"Polygon","coordinates":[[[-116.50397,33.08712],[-116.27779,33.25482],[-116.33481,33.49927],[-116.61896,33.57568],[-116.84497,33.40762],[-116.78701,33.16351],[-116.50397,33.08712]]]},"properties":{"h3":"8429a6bffffffff","sunshine":[8.9,9.7,10.9,12.1,13.2,13.7,13.5,12.7,11.6,10.7,9.7,8.4]}},{"type":"Feature","geometry":{"type":"Polygon","coordinates":[[[-117.03776,36.39899],[-116.806,36.56554],[-116.86582,36.80405],[-117.15837,36.87566],[-117.38992,36.70877],[-117.32912,36.47061],[-117.03776,36.39899]]]},"properties":{"h3":"8429857ffffffff","sunshine":[8.8,9.7,11,12.2,13.2,13.8,13.7,12.9,11.7,10.7,9.4,8.3]}},{"type":"Feature","geometry":{"type":"Polygon","coordinates":[[[-119.93901,35.08122],[-119.71761,35.25289],[-119.78224,35.49063],[-120.06913,35.55627],[-120.29016,35.38428],[-120.22467,35.14696],[-119.93901,35.08122]]]},"properties":{"h3":"8429ac3ffffffff","sunshine":[8,9.4,10.3,11.8,13.4,13.8,13.8,13,11.8,10.7,9.2,8]}},{"type":"Feature","geometry":{"type":"Polygon","coordinates":[[[-122.70317,38.93295],[-122.48184,39.10592],[-122.55397,39.33263],[-122.84825,39.38592],[-123.06903,39.21268],[-122.99608,38.98641],[-122.70317,38.93295]]]},"properties":{"h3":"842833bffffffff","sunshine":[6.4,8.3,8.8,11.2,12.8,13.9,14.1,13,11.7,9.7,8.1,6]}},{"type":"Feature","geometry":{"type":"Polygon","coordinates":[[[-115.30018,34.81832],[-115.06769,34.98318],[-115.12318,35.22605],[-115.41217,35.30376],[-115.64455,35.13856],[-115.58806,34.89599],[-115.30018,34.81832]]]},"properties":{"h3":"8429b1bffffffff","sunshine":[8.7,9.7,10.9,12.3,13.1,13.7,13.3,12.6,11.7,10.7,9.7,8.2]}},{"type":"Feature","geometry":{"type":"Polygon","coordinates":[[[-116.85178,34.54785],[-116.62346,34.71534],[-116.68191,34.95726],[-116.96963,35.03134],[-117.19776,34.86351],[-117.13836,34.62194],[-116.85178,34.54785]]]},"properties":{"h3":"8429a3dffffffff","sunshine":[8.8,9.9,11,12.1,13.3,13.8,13.6,12.7,11.7,10.7,9.7,8.4]}},{"type":"Feature","geometry":{"type":"Polygon","coordinates":[[[-120.33252,36.50048],[-120.1093,36.67191],[-120.17551,36.90664],[-120.46581,36.96952],[-120.68864,36.79778],[-120.62156,36.56347],[-120.33252,36.50048]]]},"properties":{"h3":"8429a95ffffffff","sunshine":[7.7,9.3,10.1,11.7,13.3,13.8,13.9,13,11.8,10.5,8.9,7.2]}},{"type":"Feature","geometry":{"type":"Polygon","coordinates":[[[-121.76447,37.67569],[-121.54296,37.84833],[-121.61254,38.07895],[-121.90447,38.1365],[-122.1255,37.96359],[-122.05508,37.7334],[-121.76447,37.67569]]]},"properties":{"h3":"842830dffffffff","sunshine":[7.2,8.8,9.4,11.3,13,13.6,13.7,12.9,11.7,10,8.4,6.6]}},{"type":"Feature","geometry":{"type":"Polygon","coordinates":[[[-118.47946,38.72788],[-118.24627,38.89481],[-118.31031,39.1271],[-118.60851,39.19211],[-118.84138,39.02487],[-118.77637,38.79294],[-118.47946,38.72788]]]},"properties":{"h3":"8429881ffffffff","sunshine":[8.3,9.4,10.4,11.9,12.7,13.4,13.6,13,11.7,10.4,8.9,7.7]}},{"type":"Feature","geometry":{"type":"Polygon","coordinates":[[[-118.05944,35.07978],[-117.83303,35.24878],[-117.89412,35.48861],[-118.18254,35.55906],[-118.40868,35.38972],[-118.34667,35.15026],[-118.05944,35.07978]]]},"properties":{"h3":"8429aedffffffff","sunshine":[8.5,9.7,10.9,12.1,13.4,13.9,13.8,12.9,11.8,10.8,9.6,8.3]}},{"type":"Feature","geometry":{"type":"Polygon","coordinates":[[[-120.37575,37.60761],[-120.15031,37.77836],[-120.21729,38.01086],[-120.51062,38.0722],[-120.73566,37.90116],[-120.66778,37.66907],[-120.37575,37.60761]]]},"properties":{"h3":"8428365ffffffff","sunshine":[7.4,8.6,9.3,11.3,13,13.6,13.8,13.1,11.7,10.2,8.6,7]}},{"type":"Feature","geometry":{"type":"Polygon","coordinates":[[[-119.85745,37.71568],[-119.6303,37.88559],[-119.69638,38.11848],[-119.99052,38.18107],[-120.21729,38.01086],[-120.15031,37.77836],[-119.85745,37.71568]]]},"properties":{"h3":"84298d9ffffffff","sunshine":[7.4,8.5,9.1,11.2,12.8,13.6,13.8,13.1,11.6,10.3,8.5,7]}},{"type":"Feature","geometry":{"type":"Polygon","coordinates":[[[-122.25157,40.12832],[-122.02617,40.29967],[-122.09834,40.52425],[-122.39677,40.57707],[-122.62164,40.40546],[-122.54861,40.18129],[-122.25157,40.12832]]]},"properties":{"h3":"8428151ffffffff","sunshine":[6.1,8.2,8.7,11.1,12.7,13.8,14,13,11.6,9.6,7.7,5.7]}},{"type":"Feature","geometry":{"type":"Polygon","coordinates":[[[-115.82283,33.58896],[-115.59406,33.75538],[-115.64999,33.99972],[-115.93566,34.07732],[-116.1643,33.91054],[-116.1074,33.66652],[-115.82283,33.58896]]]},"properties":{"h3":"8429a67ffffffff","sunshine":[9,10,11.1,12.3,13.2,13.7,13.4,12.7,11.6,10.8,9.8,8.3]}},{"type":"Feature","geometry":{"type":"Polygon","coordinates":[[[-117.55937,36.30315],[-117.32912,36.47061],[-117.38992,36.70877],[-117.68192,36.77913],[-117.91193,36.61135],[-117.85018,36.37353],[-117.55937,36.30315]]]},"properties":{"h3":"8429853ffffffff","sunshine":[8.8,9.8,10.9,12.3,13.4,13.8,13.7,13,11.8,10.7,9.5,8.4]}},{"type":"Feature","geometry":{"type":"Polygon","coordinates":[[[-122.03597,39.45057],[-121.81142,39.62221],[-121.88271,39.84864],[-122.17941,39.90302],[-122.40344,39.7311],[-122.33129,39.50509],[-122.03597,39.45057]]]},"properties":{"h3":"8428337ffffffff","sunshine":[6.6,8.5,9.1,11.4,13,13.8,14,13,11.7,9.8,8.1,6]}},{"type":"Feature","geometry":{"type":"Polygon","coordinates":[[[-120.18361,41.6523],[-119.94837,41.81895],[-120.0177,42.04238],[-120.32326,42.09879],[-120.55807,41.93187],[-120.48777,41.7088],[-120.18361,41.6523]]]},"properties":{"h3":"8428123ffffffff","sunshine":[6.4,7.9,9,11,12.3,13.5,13.9,13.1,11.3,9.4,7.2,5.5]}},{"type":"Feature","geometry":{"type":"Polygon","coordinates":[[[-117.36522,34.45362],[-117.13836,34.62194],[-117.19776,34.86351],[-117.48497,34.93639],[-117.71161,34.76773],[-117.65128,34.52653],[-117.36522,34.45362]]]},"properties":{"h3":"8429a39ffffffff","sunshine":[8.8,9.8,10.9,12.1,13.3,13.8,13.7,12.8,11.7,10.7,9.7,8.4]}},{"type":"Feature","geometry":{"type":"Polygon","coordinates":[[[-120.84308,36.39127],[-120.62156,36.56347],[-120.68864,36.79778],[-120.9781,36.85946],[-121.19921,36.68696],[-121.13127,36.45308],[-120.84308,36.39127]]]},"properties":{"h3":"8429a91ffffffff","sunshine":[7.9,9.2,9.9,11.7,13.3,13.8,13.8,13,11.8,10.4,9,7.5]}},{"type":"Feature","geometry":{"type":"Polygon","coordinates":[[[-122.27479,37.56002],[-122.05508,37.7334],[-122.1255,37.96359],[-122.41645,38.01995],[-122.63565,37.84628],[-122.56442,37.61654],[-122.27479,37.56002]]]},"properties":{"h3":"8428309ffffffff","sunshine":[7.2,8.8,9.4,11.4,12.8,13.3,13.2,12.4,11.6,9.8,8.5,6.7]}},{"type":"Feature","geometry":{"type":"Polygon","coordinates":[[[-118.57155,34.98046],[-118.34667,35.15026],[-118.40868,35.38972],[-118.69648,35.45897],[-118.92106,35.28883],[-118.85815,35.04977],[-118.57155,34.98046]]]},"properties":{"h3":"8429ae9ffffffff","sunshine":[8.2,9.4,10.4,11.8,13.2,13.8,13.8,12.9,11.8,10.6,9.4,7.9]}},{"type":"Feature","geometry":{"type":"Polygon","coordinates":[[[-120.8915,37.49751],[-120.66778,37.66907],[-120.73566,37.90116],[-121.02812,37.96127],[-121.2514,37.78942],[-121.18266,37.55775],[-120.8915,37.49751]]]},"properties":{"h3":"8428361ffffffff","sunshine":[6.9,8.8,9.6,11.4,13.2,13.7,13.9,13,11.7,10.2,8.3,6.5]}},{"type":"Feature","geometry":{"type":"Polygon","coordinates":[[[-119.17298,38.22399],[-118.94281,38.39246],[-119.00789,38.62507],[-119.30409,38.68885],[-119.53392,38.52007],[-119.46789,38.28784],[-119.17298,38.22399]]]},"properties":{"h3":"84298d5ffffffff","sunshine":[8.3,9.5,10.7,12.1,12.9,13.5,13.6,12.9,11.7,10.4,9,7.7]}},{"type":"Feature","geometry":{"type":"Polygon","coordinates":[[[-117.69611,33.63109],[-117.47173,33.80029],[-117.53134,34.0428],[-117.81624,34.11573],[-118.04039,33.94617],[-117.97987,33.70404],[-117.69611,33.63109]]]},"properties":{"h3":"8429a0bffffffff","sunshine":[8.5,9.4,10.4,11.4,12.1,13.2,13.6,12.5,11.4,10.3,9.5,8.1]}},{"type":"Feature","geometry":{"type":"Polygon","coordinates":[[[-120.62502,39.39387],[-120.39636,39.56352],[-120.46498,39.79186],[-120.76318,39.85016],[-120.99141,39.68023],[-120.92188,39.45228],[-120.62502,39.39387]]]},"properties":{"h3":"842814dffffffff","sunshine":[6.7,7.9,8.4,10.9,12.4,13.5,13.9,13.1,11.5,9.7,7.8,6.2]}},{"type":"Feature","geometry":{"type":"Polygon","coordinates":[[[-116.33481,33.49927],[-116.1074,33.66652],[-116.1643,33.91054],[-116.44956,33.98696],[-116.6768,33.81935],[-116.61896,33.57568],[-116.33481,33.49927]]]},"properties":{"h3":"8429a63ffffffff","sunshine":[8.8,9.9,11.1,12.2,13.3,13.7,13.5,12.7,11.6,10.8,9.8,8.3]}},{"type":"Feature","geometry":{"type":"Polygon","coordinates":[[[-120.17551,36.90664],[-119.95099,37.07759],[-120.01716,37.31172],[-120.30873,37.3745],[-120.53286,37.20324],[-120.46581,36.96952],[-120.17551,36.90664]]]},"properties":{"h3":"8429abbffffffff","sunshine":[7.5,9,9.9,11.6,13.2,13.7,13.9,13,11.7,10.5,8.8,7]}},{"type":"Feature","geometry":{"type":"Polygon","coordinates":[[[-122.55397,39.33263],[-122.33129,39.50509],[-122.40344,39.7311],[-122.6991,39.78423],[-122.92123,39.61151],[-122.84825,39.38592],[-122.55397,39.33263]]]},"properties":{"h3":"8428333ffffffff","sunshine":[6.7,8.5,9,11.3,12.9,13.9,14.1,13,11.8,9.8,8.2,6.1]}},{"type":"Feature","geometry":{"type":"Polygon","coordinates":[[[-115.12318,35.22605],[-114.88944,35.39033],[-114.94477,35.63267],[-115.23487,35.71043],[-115.46852,35.54581],[-115.41217,35.30376],[-115.12318,35.22605]]]},"properties":{"h3":"8429b13ffffffff","sunshine":[8.6,9.7,10.7,12.3,13,13.7,13.1,12.5,11.7,10.7,9.6,8.2]}},{"type":"Feature","geometry":{"type":"Polygon","coordinates":[[[-116.68191,34.95726],[-116.45234,35.12424],[-116.51067,35.36564],[-116.79954,35.43972],[-117.02893,35.2724],[-116.96963,35.03134],[-116.68191,34.95726]]]},"properties":{"h3":"8429a35ffffffff","sunshine":[8.8,9.7,10.9,12.2,13.2,13.7,13.6,12.7,11.7,10.7,9.6,8.3]}},{"type":"Feature","geometry":{"type":"Polygon","coordinates":[[[-119.27193,35.59505],[-119.04766,35.76552],[-119.11134,36.00314],[-119.4002,36.06989],[-119.62415,35.89909],[-119.55957,35.66187],[-119.27193,35.59505]]]},"properties":{"h3":"8429a8dffffffff","sunshine":[7.7,9.4,10.3,11.8,13.2,13.8,13.8,12.9,11.8,10.6,9.1,7.4]}},{"type":"Feature","geometry":{"type":"Polygon","coordinates":[[[-120.24866,34.25975],[-120.02977,34.43218],[-120.09448,34.67091],[-120.37892,34.73675],[-120.59744,34.56398],[-120.53189,34.3257],[-120.24866,34.25975]]]},"properties":{"h3":"8429135ffffffff","sunshine":[8.2,9.5,10.3,11.7,12.9,13.2,13.4,12.5,11.5,10.5,9.3,8.2]}},{"type":"Feature","geometry":{"type":"Polygon","coordinates":[[[-121.61254,38.07895],[-121.38971,38.25109],[-121.45929,38.48107],[-121.75255,38.53848],[-121.9749,38.36606],[-121.90447,38.1365],[-121.61254,38.07895]]]},"properties":{"h3":"8428305ffffffff","sunshine":[6.6,8.6,9.3,11.3,13,13.7,13.8,13,11.7,10,8.2,6.2]}},{"type":"Feature","geometry":{"type":"Polygon","coordinates":[[[-117.89412,35.48861],[-117.66644,35.65712],[-117.72743,35.89641],[-118.01704,35.96683],[-118.24447,35.79798],[-118.18254,35.55906],[-117.89412,35.48861]]]},"properties":{"h3":"8429ae5ffffffff","sunshine":[8.6,9.8,11,12.2,13.4,13.9,13.8,12.9,11.8,10.7,9.6,8.4]}},{"type":"Feature","geometry":{"type":"Polygon","coordinates":[[[-115.31785,32.52773],[-115.09008,32.69388],[-115.14449,32.94015],[-115.42765,33.01994],[-115.65532,32.85342],[-115.59994,32.60748],[-115.31785,32.52773]]]},"properties":{"h3":"84485bbffffffff","sunshine":[9.1,9.9,11.2,12.4,13,13.6,13.2,12.6,11.4,10.8,9.8,8.6]}},{"type":"Feature","geometry":{"type":"Polygon","coordinates":[[[-119.69638,38.11848],[-119.46789,38.28784],[-119.53392,38.52007],[-119.82935,38.58257],[-120.05746,38.41292],[-119.99052,38.18107],[-119.69638,38.11848]]]},"properties":{"h3":"84298d1ffffffff","sunshine":[7.5,8.5,9.4,11.4,12.7,13.5,13.8,13.1,11.6,10.3,8.6,7.1]}},{"type":"Feature","geometry":{"type":"Polygon","coordinates":[[[-117.02028,34.13748],[-116.79321,34.30545],[-116.85178,34.54785],[-117.13836,34.62194],[-117.36522,34.45362],[-117.30572,34.21157],[-117.02028,34.13748]]]},"properties":{"h3":"8429a07ffffffff","sunshine":[8.5,9.5,10.5,12,13.1,13.8,13.6,12.7,11.7,10.7,9.6,8.2]}},{"type":"Feature","geometry":{"type":"Polygon","coordinates":[[[-121.14874,39.28175],[-120.92188,39.45228],[-120.99141,39.68023],[-121.2887,39.73725],[-121.51509,39.56645],[-121.44467,39.3389],[-121.14874,39.28175]]]},"properties":{"h3":"8428149ffffffff","sunshine":[6.6,8,8.6,11,12.8,13.6,13.9,13.1,11.6,9.8,7.8,6.1]}},{"type":"Feature","geometry":{"type":"Polygon","coordinates":[[[-116.51067,35.36564],[-116.27983,35.53209],[-116.33804,35.77296],[-116.62806,35.84705],[-116.85872,35.68026],[-116.79954,35.43972],[-116.51067,35.36564]]]},"properties":{"h3":"842984bffffffff","sunshine":[8.7,9.7,10.9,12.1,13.2,13.7,13.5,12.7,11.7,10.7,9.6,8.2]}},{"type":"Feature","geometry":{"type":"Polygon","coordinates":[[[-119.49896,37.41816],[-119.27146,37.58776],[-119.33666,37.82167],[-119.6303,37.88559],[-119.85745,37.71568],[-119.79133,37.48216],[-119.49896,37.41816]]]},"properties":{"h3":"8429ab7ffffffff","sunshine":[7.7,8.7,9.5,11.5,12.8,13.5,13.8,13.1,11.7,10.4,8.7,7.4]}},{"type":"Feature","geometry":{"type":"Polygon","coordinates":[[[-122.84251,41.07418],[-122.6168,41.24546],[-122.69075,41.46697],[-122.99126,41.51679],[-123.21638,41.34525],[-123.14158,41.12416],[-122.84251,41.07418]]]},"properties":{"h3":"842811bffffffff","sunshine":[6,7.7,8.5,10.7,12.2,13.8,14.1,13.1,11.5,9.3,7.3,5.3]}},{"type":"Feature","geometry":{"type":"Polygon","coordinates":[[[-117.19776,34.86351],[-116.96963,35.03134],[-117.02893,35.2724],[-117.3173,35.34528],[-117.54521,35.1771],[-117.48497,34.93639],[-117.19776,34.86351]]]},"properties":{"h3":"8429a31ffffffff","sunshine":[8.8,9.8,10.9,12.2,13.3,13.8,13.7,12.7,11.8,10.8,9.7,8.4]}},{"type":"Feature","geometry":{"type":"Polygon","coordinates":[[[-116.86582,36.80405],[-116.63276,36.97001],[-116.69245,37.20791],[-116.9862,37.27952],[-117.21906,37.11322],[-117.15837,36.87566],[-116.86582,36.80405]]]},"properties":{"h3":"842981dffffffff","sunshine":[8.7,9.7,10.7,12.2,13.2,13.8,13.7,12.9,11.8,10.6,9.4,8.2]}},{"type":"Feature","geometry":{"type":"Polygon","coordinates":[[[-119.78224,35.49063],[-119.55957,35.66187],[-119.62415,35.89909],[-119.91227,35.96465],[-120.13458,35.79308],[-120.06913,35.55627],[-119.78224,35.49063]]]},"properties":{"h3":"8429a89ffffffff","sunshine":[8,9.5,10.6,11.9,13.3,13.8,13.8,12.9,11.8,10.7,9.2,7.7]}},{"type":"Feature","geometry":{"type":"Polygon","coordinates":[[[-124.11353,41.48822],[-123.89103,41.66083],[-123.96758,41.87955],[-124.26743,41.92522],[-124.48928,41.75238],[-124.41193,41.53409],[-124.11353,41.48822]]]},"properties":{"h3":"84281cbffffffff","sunshine":[5.5,6.8,7.8,9.8,11.3,12.7,13,12.2,10.8,8.4,6.6,5]}},{"type":"Feature","geometry":{"type":"Polygon","coordinates":[[[-122.1255,37.96359],[-121.90447,38.1365],[-121.9749,38.36606],[-122.26718,38.42226],[-122.4877,38.24906],[-122.41645,38.01995],[-122.1255,37.96359]]]},"properties":{"h3":"8428301ffffffff","sunshine":[6.8,8.6,9.2,11.3,12.8,13.6,13.6,12.7,11.6,9.8,8.3,6.2]}},{"type":"Feature","geometry":{"type":"Polygon","coordinates":[[[-118.40868,35.38972],[-118.18254,35.55906],[-118.24447,35.79798],[-118.53346,35.86719],[-118.75932,35.69752],[-118.69648,35.45897],[-118.40868,35.38972]]]},"properties":{"h3":"8429ae1ffffffff","sunshine":[8.2,9.3,10.4,11.9,13.2,13.8,13.8,12.9,11.8,10.7,9.4,7.9]}},{"type":"Feature","geometry":{"type":"Polygon","coordinates":[[[-114.63205,33.0249],[-114.4018,33.18974],[-114.45507,33.43588],[-114.7396,33.5169],[-114.96979,33.35169],[-114.91552,33.10584],[-114.63205,33.0249]]]},"properties":{"h3":"84485b7ffffffff","sunshine":[9.1,9.9,11,12.4,13,13.5,13.1,12.6,11.5,10.8,9.7,8.5]}},{"type":"Feature","geometry":{"type":"Polygon","coordinates":[[[-118.09874,37.3217],[-117.86768,37.48923],[-117.93012,37.72487],[-118.22458,37.79262],[-118.45537,37.62477],[-118.39197,37.38949],[-118.09874,37.3217]]]},"properties":{"h3":"84298cdffffffff","sunshine":[8.8,9.7,11,12.2,13.2,13.6,13.6,12.9,11.8,10.7,9.4,8.5]}},{"type":"Feature","geometry":{"type":"Polygon","coordinates":[[[-117.53134,34.0428],[-117.30572,34.21157],[-117.36522,34.45362],[-117.65128,34.52653],[-117.87667,34.35741],[-117.81624,34.11573],[-117.53134,34.0428]]]},"properties":{"h3":"8429a03ffffffff","sunshine":[8.5,9.5,10.5,12,13.1,13.8,13.8,12.8,11.8,10.7,9.6,8.2]}},{"type":"Feature","geometry":{"type":"Polygon","coordinates":[[[-120.46498,39.79186],[-120.23494,39.96091],[-120.30353,40.18853],[-120.60309,40.24673],[-120.83269,40.0774],[-120.76318,39.85016],[-120.46498,39.79186]]]},"properties":{"h3":"8428145ffffffff","sunshine":[7,8.5,9.2,11.4,12.7,13.6,13.9,13,11.6,9.9,8,6.4]}},{"type":"Feature","geometry":{"type":"Polygon","coordinates":[[[-123.28964,39.88786],[-123.06807,40.06085],[-123.14193,40.28459],[-123.43818,40.33491],[-123.65916,40.16168],[-123.58449,39.93837],[-123.28964,39.88786]]]},"properties":{"h3":"8428067ffffffff","sunshine":[6,7.8,8.4,10.8,12.3,13.9,14.1,13,11.5,9.5,7.6,5.7]}},{"type":"Feature","geometry":{"type":"Polygon","coordinates":[[[-115.81546,35.86352],[-115.58193,36.02849],[-115.639,36.26911],[-115.93061,36.34446],[-116.164,36.17916],[-116.10593,35.93885],[-115.81546,35.86352]]]},"properties":{"h3":"8429847ffffffff","sunshine":[8.6,9.6,10.6,12.2,13.1,13.8,13.4,12.7,11.7,10.7,9.4,8.1]}},{"type":"Feature","geometry":{"type":"Polygon","coordinates":[[[-120.01716,37.31172],[-119.79133,37.48216],[-119.85745,37.71568],[-120.15031,37.77836],[-120.37575,37.60761],[-120.30873,37.3745],[-120.01716,37.31172]]]},"properties":{"h3":"8429ab3ffffffff","sunshine":[7.6,8.7,9.5,11.4,13.1,13.6,13.8,13,11.7,10.3,8.7,7.2]}},{"type":"Feature","geometry":{"type":"Polygon","coordinates":[[[-121.45929,38.48107],[-121.23513,38.6527],[-121.30469,38.88202],[-121.59928,38.9393],[-121.82297,38.76739],[-121.75255,38.53848],[-121.45929,38.48107]]]},"properties":{"h3":"842832bffffffff","sunshine":[6.5,8.5,9.3,11.3,13,13.7,13.9,13.1,11.6,9.9,8.1,6.1]}},{"type":"Feature","geometry":{"type":"Polygon","coordinates":[[[-122.16204,41.58653],[-121.93298,41.75631],[-122.00606,41.97744],[-122.30909,42.0284],[-122.53762,41.85837],[-122.46365,41.63763],[-122.16204,41.58653]]]},"properties":{"h3":"8428117ffffffff","sunshine":[6.7,8.1,9.1,11.1,12.5,13.8,14.1,13.1,11.5,9.3,7.5,5.6]}},{"type":"Feature","geometry":{"type":"Polygon","coordinates":[[[-115.64999,33.99972],[-115.41999,34.16565],[-115.47578,34.40953],[-115.76255,34.48716],[-115.99243,34.32088],[-115.93566,34.07732],[-115.64999,33.99972]]]},"properties":{"h3":"8429a2dffffffff","sunshine":[9,9.9,11.1,12.3,13.2,13.7,13.3,12.6,11.6,10.7,9.8,8.3]}},{"type":"Feature","geometry":{"type":"Polygon","coordinates":[[[-117.38992,36.70877],[-117.15837,36.87566],[-117.21906,37.11322],[-117.51227,37.18356],[-117.74358,37.01635],[-117.68192,36.77913],[-117.38992,36.70877]]]},"properties":{"h3":"8429819ffffffff","sunshine":[8.7,9.6,10.7,12.2,13.2,13.8,13.7,12.9,11.7,10.6,9.4,8.3]}},{"type":"Feature","geometry":{"type":"Polygon","coordinates":[[[-119.11134,36.00314],[-118.88579,36.17314],[-118.94941,36.4102],[-119.2395,36.47688],[-119.46473,36.30656],[-119.4002,36.06989],[-119.11134,36.00314]]]},"properties":{"h3":"8429a85ffffffff","sunshine":[7.8,9.1,10.1,11.6,13.2,13.8,13.9,12.9,11.8,10.6,9.1,7.5]}},{"type":"Feature","geometry":{"type":"Polygon","coordinates":[[[-120.44444,34.97456],[-120.22467,35.14696],[-120.29016,35.38428],[-120.57627,35.44877],[-120.79565,35.27605],[-120.72932,35.03916],[-120.44444,34.97456]]]},"properties":{"h3":"8429addffffffff","sunshine":[8.1,9.3,10.1,11.7,13.1,13.6,13.7,12.8,11.7,10.6,9.2,7.9]}},{"type":"Feature","geometry":{"type":"Polygon","coordinates":[[[-115.14449,32.94015],[-114.91552,33.10584],[-114.96979,33.35169],[-115.25401,33.43154],[-115.48289,33.26548],[-115.42765,33.01994],[-115.14449,32.94015]]]},"properties":{"h3":"84485b3ffffffff","sunshine":[9.1,9.9,11.1,12.4,13,13.6,13.2,12.6,11.5,10.8,9.8,8.5]}},{"type":"Feature","geometry":{"type":"Polygon","coordinates":[[[-118.62143,37.22107],[-118.39197,37.38949],[-118.45537,37.62477],[-118.74918,37.69126],[-118.97834,37.52252],[-118.914,37.28761],[-118.62143,37.22107]]]},"properties":{"h3":"84298c9ffffffff","sunshine":[8.1,9.1,10.2,11.8,13,13.5,13.6,12.9,11.8,10.5,9,7.7]}},{"type":"Feature","geometry":{"type":"Polygon","coordinates":[[[-120.99141,39.68023],[-120.76318,39.85016],[-120.83269,40.0774],[-121.13134,40.13431],[-121.35911,39.96409],[-121.2887,39.73725],[-120.99141,39.68023]]]},"properties":{"h3":"8428141ffffffff","sunshine":[6.5,8.1,8.6,11,12.6,13.6,13.9,13.1,11.6,9.7,7.7,6]}},{"type":"Feature","geometry":{"type":"Polygon","coordinates":[[[-123.80411,39.76461],[-123.58449,39.93837],[-123.65916,40.16168],[-123.95426,40.21078],[-124.17327,40.03678],[-124.0978,39.81392],[-123.80411,39.76461]]]},"properties":{"h3":"8428063ffffffff","sunshine":[6.1,7.8,8.4,10.7,12.2,13.6,13.9,12.8,11.4,9.3,7.6,5.6]}},{"type":"Feature","geometry":{"type":"Polygon","coordinates":[[[-116.33804,35.77296],[-116.10593,35.93885],[-116.164,36.17916],[-116.45518,36.25326],[-116.68713,36.08704],[-116.62806,35.84705],[-116.33804,35.77296]]]},"properties":{"h3":"8429843ffffffff","sunshine":[8.7,9.7,10.8,12.2,13.2,13.7,13.6,12.8,11.7,10.7,9.5,8.2]}},{"type":"Feature","geometry":{"type":"Polygon","coordinates":[[[-120.78366,38.99458],[-120.55636,39.16482],[-120.62502,39.39387],[-120.92188,39.45228],[-121.14874,39.28175],[-121.07919,39.05311],[-120.78366,38.99458]]]},"properties":{"h3":"8428327ffffffff","sunshine":[6.7,7.9,8.5,10.9,12.5,13.5,13.8,13.1,11.5,9.7,7.8,6.2]}},{"type":"Feature","geometry":{"type":"Polygon","coordinates":[[[-120.25996,39.10504],[-120.03088,39.2744],[-120.09862,39.50384],[-120.39636,39.56352],[-120.62502,39.39387],[-120.55636,39.16482],[-120.25996,39.10504]]]},"properties":{"h3":"842989bffffffff","sunshine":[7.2,8.3,9.2,11.3,12.7,13.6,13.8,13.1,11.6,10,8.2,6.6]}},{"type":"Feature","geometry":{"type":"Polygon","coordinates":[[[-122.69075,41.46697],[-122.46365,41.63763],[-122.53762,41.85837],[-122.83956,41.90803],[-123.06609,41.73711],[-122.99126,41.51679],[-122.69075,41.46697]]]},"properties":{"h3":"8428113ffffffff","sunshine":[6.5,7.9,8.9,11,12.3,13.8,14.2,13.1,11.5,9.3,7.5,5.5]}},{"type":"Feature","geometry":{"type":"Polygon","coordinates":[[[-116.1643,33.91054],[-115.93566,34.07732],[-115.99243,34.32088],[-116.2788,34.39732],[-116.50729,34.23018],[-116.44956,33.98696],[-116.1643,33.91054]]]},"properties":{"h3":"8429a29ffffffff","sunshine":[8.9,9.9,11.1,12.2,13.2,13.7,13.5,12.7,11.7,10.8,9.8,8.4]}},{"type":"Feature","geometry":{"type":"Polygon","coordinates":[[[-124.25815,41.09556],[-124.03704,41.26874],[-124.11353,41.48822],[-124.41193,41.53409],[-124.63238,41.36068],[-124.5551,41.14163],[-124.25815,41.09556]]]},"properties":{"h3":"8428035ffffffff","sunshine":[6,7.4,8.5,10.3,11.7,12.8,12.9,11.7,10.6,8.5,7,5.3]}},{"type":"Feature","geometry":{"type":"Polygon","coordinates":[[[-120.30353,40.18853],[-120.07211,40.35694],[-120.14066,40.58383],[-120.44157,40.64193],[-120.67257,40.47324],[-120.60309,40.24673],[-120.30353,40.18853]]]},"properties":{"h3":"842816bffffffff","sunshine":[7.2,8.8,9.5,11.6,12.8,13.6,13.9,13.1,11.5,9.9,8.1,6.3]}},{"type":"Feature","geometry":{"type":"Polygon","coordinates":[[[-116.69245,37.20791],[-116.45809,37.37326],[-116.51765,37.61054],[-116.8126,37.68214],[-117.04677,37.51647],[-116.9862,37.27952],[-116.69245,37.20791]]]},"properties":{"h3":"8429815ffffffff","sunshine":[8.6,9.4,10.5,12.1,13,13.8,13.6,12.8,11.7,10.5,9.3,8.1]}},{"type":"Feature","geometry":{"type":"Polygon","coordinates":[[[-119.62415,35.89909],[-119.4002,36.06989],[-119.46473,36.30656],[-119.75409,36.37203],[-119.97768,36.20091],[-119.91227,35.96465],[-119.62415,35.89909]]]},"properties":{"h3":"8429a81ffffffff","sunshine":[7.7,9.4,10.3,11.8,13.3,13.8,13.9,12.9,11.8,10.6,9.1,7.4]}},{"type":"Feature","geometry":{"type":"Polygon","coordinates":[[[-117.93012,37.72487],[-117.69773,37.8918],[-117.76007,38.1268],[-118.05578,38.19452],[-118.2879,38.02727],[-118.22458,37.79262],[-117.93012,37.72487]]]},"properties":{"h3":"84298c5ffffffff","sunshine":[8.8,9.7,10.9,12.2,13.1,13.6,13.5,12.9,11.8,10.7,9.4,8.4]}},{"type":"Feature","geometry":{"type":"Polygon","coordinates":[[[-120.72115,41.54117],[-120.48777,41.7088],[-120.55807,41.93187],[-120.86271,41.98693],[-121.09563,41.81903],[-121.02438,41.59633],[-120.72115,41.54117]]]},"properties":{"h3":"842813dffffffff","sunshine":[6.5,8,8.9,11,12.3,13.6,13.9,13.1,11.4,9.4,7.3,5.5]}},{"type":"Feature","geometry":{"type":"Polygon","coordinates":[[[-118.94941,36.4102],[-118.72256,36.5797],[-118.78611,36.81619],[-119.07743,36.8828],[-119.30396,36.71298],[-119.2395,36.47688],[-118.94941,36.4102]]]},"properties":{"h3":"8429aabffffffff","sunshine":[7.9,9,9.9,11.6,13.1,13.7,13.8,13,11.8,10.6,9.1,7.7]}},{"type":"Feature","geometry":{"type":"Polygon","coordinates":[[[-121.30469,38.88202],[-121.07919,39.05311],[-121.14874,39.28175],[-121.44467,39.3389],[-121.66971,39.16753],[-121.59928,38.9393],[-121.30469,38.88202]]]},"properties":{"h3":"8428323ffffffff","sunshine":[6.8,8.3,9.1,11.2,12.9,13.7,13.9,13.1,11.6,9.9,8.1,6.3]}},{"type":"Feature","geometry":{"type":"Polygon","coordinates":[[[-115.47578,34.40953],[-115.24454,34.57493],[-115.30018,34.81832],[-115.58806,34.89599],[-115.81918,34.73023],[-115.76255,34.48716],[-115.47578,34.40953]]]},"properties":{"h3":"8429a25ffffffff","sunshine":[8.9,9.8,11,12.3,13.1,13.7,13.3,12.7,11.6,10.7,9.7,8.2]}},{"type":"Feature","geometry":{"type":"Polygon","coordinates":[[[-115.3091,33.67665],[-115.079,33.84221],[-115.13395,34.08687],[-115.41999,34.16565],[-115.64999,33.99972],[-115.59406,33.75538],[-115.3091,33.67665]]]},"properties":{"h3":"8429b5bffffffff","sunshine":[9,9.9,11.1,12.4,13.1,13.6,13.2,12.6,11.6,10.8,9.8,8.4]}},{"type":"Feature","geometry":{"type":"Polygon","coordinates":[[[-117.21906,37.11322],[-116.9862,37.27952],[-117.04677,37.51647],[-117.3412,37.58679],[-117.57383,37.42018],[-117.51227,37.18356],[-117.21906,37.11322]]]},"properties":{"h3":"8429811ffffffff","sunshine":[8.8,9.7,10.9,12.3,13.2,13.8,13.7,12.9,11.8,10.7,9.4,8.3]}},{"type":"Feature","geometry":{"type":"Polygon","coordinates":[[[-120.29016,35.38428],[-120.06913,35.55627],[-120.13458,35.79308],[-120.42192,35.85746],[-120.64257,35.68514],[-120.57627,35.44877],[-120.29016,35.38428]]]},"properties":{"h3":"8429ad5ffffffff","sunshine":[8,9.4,10.1,11.8,13.2,13.7,13.8,12.9,11.7,10.6,9.2,7.9]}},{"type":"Feature","geometry":{"type":"Polygon","coordinates":[[[-121.70716,36.57422],[-121.48779,36.74746],[-121.55654,36.98033],[-121.8455,37.03951],[-122.0644,36.86598],[-121.99482,36.63355],[-121.70716,36.57422]]]},"properties":{"h3":"842834dffffffff","sunshine":[7.7,9.1,9.6,11.1,12.1,12.5,12.2,11.6,11.1,9.8,8.9,7.4]}},{"type":"Feature","geometry":{"type":"Polygon","coordinates":[[[-118.45537,37.62477],[-118.22458,37.79262],[-118.2879,38.02727],[-118.58297,38.09371],[-118.81346,37.92555],[-118.74918,37.69126],[-118.45537,37.62477]]]},"properties":{"h3":"84298c1ffffffff","sunshine":[8.6,9.7,10.9,12.1,13.1,13.5,13.5,12.9,11.8,10.6,9.3,8.2]}},{"type":"Feature","geometry":{"type":"Polygon","coordinates":[[[-121.25588,41.42775],[-121.02438,41.59633],[-121.09563,41.81903],[-121.39931,41.87275],[-121.63031,41.7039],[-121.55814,41.48159],[-121.25588,41.42775]]]},"properties":{"h3":"8428139ffffffff","sunshine":[6.6,8.2,9,11.2,12.5,13.7,14,13.1,11.5,9.5,7.6,5.8]}},{"type":"Feature","geometry":{"type":"Polygon","coordinates":[[[-116.51765,37.61054],[-116.28197,37.77525],[-116.34141,38.01188],[-116.63756,38.08348],[-116.87306,37.91846],[-116.8126,37.68214],[-116.51765,37.61054]]]},"properties":{"h3":"842983bffffffff","sunshine":[8.5,9.4,10.4,12.1,13,13.8,13.5,12.8,11.7,10.6,9.2,8]}},{"type":"Feature","geometry":{"type":"Polygon","coordinates":[[[-118.26596,36.91733],[-118.03621,37.08543],[-118.09874,37.3217],[-118.39197,37.38949],[-118.62143,37.22107],[-118.55796,36.98517],[-118.26596,36.91733]]]},"properties":{"h3":"8429aa7ffffffff","sunshine":[8.6,9.6,10.8,12.2,13.3,13.6,13.7,13,11.9,10.7,9.4,8.3]}},{"type":"Feature","geometry":{"type":"Polygon","coordinates":[[[-120.09862,39.50384],[-119.86818,39.67259],[-119.93587,39.90132],[-120.23494,39.96091],[-120.46498,39.79186],[-120.39636,39.56352],[-120.09862,39.50384]]]},"properties":{"h3":"8429893ffffffff","sunshine":[7.6,8.8,9.7,11.7,12.8,13.6,13.8,13,11.6,10,8.4,6.8]}},{"type":"Feature","geometry":{"type":"Polygon","coordinates":[[[-121.57209,40.64092],[-121.34341,40.8108],[-121.41469,41.03503],[-121.71555,41.089],[-121.94373,40.91885],[-121.87155,40.69501],[-121.57209,40.64092]]]},"properties":{"h3":"842810bffffffff","sunshine":[6.5,8.2,8.9,11.1,12.7,13.8,14,13.1,11.6,9.6,7.8,5.8]}},{"type":"Feature","geometry":{"type":"Polygon","coordinates":[[[-117.76007,38.1268],[-117.52635,38.29311],[-117.58859,38.52745],[-117.88555,38.59513],[-118.11901,38.42851],[-118.05578,38.19452],[-117.76007,38.1268]]]},"properties":{"h3":"84298ebffffffff","sunshine":[8.5,9.5,10.6,12,12.8,13.5,13.4,12.8,11.7,10.6,9.2,8.1]}},{"type":"Feature","geometry":{"type":"Polygon","coordinates":[[[-115.99243,34.32088],[-115.76255,34.48716],[-115.81918,34.73023],[-116.10667,34.8067],[-116.33641,34.64007],[-116.2788,34.39732],[-115.99243,34.32088]]]},"properties":{"h3":"8429a21ffffffff","sunshine":[8.9,9.9,11.1,12.2,13.2,13.7,13.4,12.7,11.6,10.7,9.7,8.3]}},{"type":"Feature","geometry":{"type":"Polygon","coordinates":[[[-114.61625,34.17196],[-114.38361,34.33611],[-114.4374,34.58058],[-114.72483,34.66061],[-114.95741,34.4961],[-114.90261,34.25192],[-114.61625,34.17196]]]},"properties":{"h3":"8429b57ffffffff","sunshine":[8.9,9.8,10.9,12.4,13,13.6,13.1,12.7,11.6,10.7,9.7,8.3]}},{"type":"Feature","geometry":{"type":"Polygon","coordinates":[[[-123.14193,40.28459],[-122.919,40.45702],[-122.99289,40.68004],[-123.29055,40.73019],[-123.5129,40.5575],[-123.43818,40.33491],[-123.14193,40.28459]]]},"properties":{"h3":"842802dffffffff","sunshine":[6,7.9,8.5,10.8,12.3,13.9,14.2,13.1,11.5,9.4,7.5,5.4]}},{"type":"Feature","geometry":{"type":"Polygon","coordinates":[[[-120.14066,40.58383],[-119.90784,40.75158],[-119.97635,40.97771],[-120.27863,41.03573],[-120.51103,40.86769],[-120.44157,40.64193],[-120.14066,40.58383]]]},"properties":{"h3":"8428163ffffffff","sunshine":[7.1,8.7,9.4,11.5,12.6,13.5,13.8,13,11.5,9.7,8,6.1]}},{"type":"Feature","geometry":{"type":"Polygon","coordinates":[[[-115.639,36.26911],[-115.40418,36.43347],[-115.4611,36.67351],[-115.75386,36.74889],[-115.98855,36.5842],[-115.93061,36.34446],[-115.639,36.26911]]]},"properties":{"h3":"842980dffffffff","sunshine":[8.7,9.7,10.7,12.2,13.1,13.8,13.4,12.7,11.7,10.6,9.4,8.2]}},{"type":"Feature","geometry":{"type":"Polygon","coordinates":[[[-120.79565,35.27605],[-120.57627,35.44877],[-120.64257,35.68514],[-120.9291,35.74836],[-121.14807,35.57532],[-121.08093,35.33939],[-120.79565,35.27605]]]},"properties":{"h3":"8429ad1ffffffff","sunshine":[8.1,9.3,10.1,11.7,13.3,13.6,13.7,12.8,11.7,10.5,9.2,7.8]}},{"type":"Feature","geometry":{"type":"Polygon","coordinates":[[[-118.78611,36.81619],[-118.55796,36.98517],[-118.62143,37.22107],[-118.914,37.28761],[-119.14184,37.11832],[-119.07743,36.8828],[-118.78611,36.81619]]]},"properties":{"h3":"8429aa3ffffffff","sunshine":[8,8.8,9.9,11.6,13.1,13.6,13.7,13,11.8,10.6,9,7.7]}},{"type":"Feature","geometry":{"type":"Polygon","coordinates":[[[-120.88277,41.14901],[-120.65081,41.31732],[-120.72115,41.54117],[-121.02438,41.59633],[-121.25588,41.42775],[-121.18461,41.20428],[-120.88277,41.14901]]]},"properties":{"h3":"8428107ffffffff","sunshine":[6.7,8.3,9.1,11.1,12.4,13.6,13.9,13.1,11.6,9.6,7.7,6]}},{"type":"Feature","geometry":{"type":"Polygon","coordinates":[[[-117.05598,38.62411],[-116.81934,38.78879],[-116.88045,39.02277],[-117.17924,39.09175],[-117.41566,38.92676],[-117.35352,38.69311],[-117.05598,38.62411]]]},"properties":{"h3":"84298e7ffffffff","sunshine":[8.3,9.3,10.4,11.8,12.8,13.7,13.4,12.8,11.7,10.4,9,7.7]}},{"type":"Feature","geometry":{"type":"Polygon","coordinates":[[[-118.04039,33.94617],[-117.81624,34.11573],[-117.87667,34.35741],[-118.16215,34.42914],[-118.38605,34.25924],[-118.32471,34.01795],[-118.04039,33.94617]]]},"properties":{"h3":"8429a1dffffffff","sunshine":[8.5,9.4,10.2,11.6,12.7,13.6,13.8,12.8,11.6,10.5,9.6,8.2]}},{"type":"Feature","geometry":{"type":"Polygon","coordinates":[[[-115.13395,34.08687],[-114.90261,34.25192],[-114.95741,34.4961],[-115.24454,34.57493],[-115.47578,34.40953],[-115.41999,34.16565],[-115.13395,34.08687]]]},"properties":{"h3":"8429b53ffffffff","sunshine":[9.1,9.9,11,12.4,13.1,13.7,13.2,12.7,11.6,10.7,9.7,8.3]}},{"type":"Feature","geometry":{"type":"Polygon","coordinates":[[[-123.65916,40.16168],[-123.43818,40.33491],[-123.5129,40.5575],[-123.80941,40.60641],[-124.02978,40.43293],[-123.95426,40.21078],[-123.65916,40.16168]]]},"properties":{"h3":"8428029ffffffff","sunshine":[5.8,7.4,8.1,10.3,12.1,13.7,14.1,13,11.4,9.3,7.4,5.4]}},{"type":"Feature","geometry":{"type":"Polygon","coordinates":[[[-116.164,36.17916],[-115.93061,36.34446],[-115.98855,36.5842],[-116.28089,36.65832],[-116.51413,36.49268],[-116.45518,36.25326],[-116.164,36.17916]]]},"properties":{"h3":"8429809ffffffff","sunshine":[8.8,9.7,10.8,12.2,13.2,13.8,13.6,12.8,11.7,10.7,9.4,8.2]}},{"type":"Feature","geometry":{"type":"Polygon","coordinates":[[[-119.24055,34.46862],[-119.01849,34.63963],[-119.08147,34.87918],[-119.36739,34.94733],[-119.58913,34.77599],[-119.52528,34.53684],[-119.24055,34.46862]]]},"properties":{"h3":"8429acdffffffff","sunshine":[8.3,9.5,10.4,12,13.4,13.8,13.8,13,11.8,10.7,9.5,8.1]}},{"type":"Feature","geometry":{"type":"Polygon","coordinates":[[[-121.55654,36.98033],[-121.33588,37.15313],[-121.40463,37.38541],[-121.69488,37.44445],[-121.91508,37.27136],[-121.8455,37.03951],[-121.55654,36.98033]]]},"properties":{"h3":"8428345ffffffff","sunshine":[7.4,8.8,9.3,11.1,12.4,13.3,13.6,12.7,11.6,10.1,8.7,7.2]}},{"type":"Feature","geometry":{"type":"Polygon","coordinates":[[[-117.0118,32.99503],[-116.78701,33.16351],[-116.84497,33.40762],[-117.12865,33.48287],[-117.35325,33.31403],[-117.29437,33.07029],[-117.0118,32.99503]]]},"properties":{"h3":"8429a47ffffffff","sunshine":[8.5,9.4,10.3,11.1,11.6,13,13.4,12.5,11.2,10.3,9.5,8]}},{"type":"Feature","geometry":{"type":"Polygon","coordinates":[[[-123.21553,38.81268],[-122.99608,38.98641],[-123.06903,39.21268],[-123.36223,39.26477],[-123.58111,39.09077],[-123.50736,38.86495],[-123.21553,38.81268]]]},"properties":{"h3":"8428317ffffffff","sunshine":[6.2,8.1,8.6,10.8,12.2,13.6,13.8,12.8,11.5,9.4,7.9,5.8]}},{"type":"Feature","geometry":{"type":"Polygon","coordinates":[[[-119.00789,38.62507],[-118.77637,38.79294],[-118.84138,39.02487],[-119.13887,39.08858],[-119.37005,38.92041],[-119.30409,38.68885],[-119.00789,38.62507]]]},"properties":{"h3":"842988bffffffff","sunshine":[8.2,9.4,10.5,12,12.8,13.5,13.6,13,11.6,10.4,9,7.7]}},{"type":"Feature","geometry":{"type":"Polygon","coordinates":[[[-121.41469,41.03503],[-121.18461,41.20428],[-121.25588,41.42775],[-121.55814,41.48159],[-121.78772,41.31208],[-121.71555,41.089],[-121.41469,41.03503]]]},"properties":{"h3":"8428103ffffffff","sunshine":[6.4,8.1,8.9,11,12.5,13.7,14,13.1,11.6,9.6,7.5,5.7]}},{"type":"Feature","geometry":{"type":"Polygon","coordinates":[[[-117.58859,38.52745],[-117.35352,38.69311],[-117.41566,38.92676],[-117.71387,38.99443],[-117.94869,38.82846],[-117.88555,38.59513],[-117.58859,38.52745]]]},"properties":{"h3":"84298e3ffffffff","sunshine":[8.3,9.2,10.4,11.8,12.7,13.6,13.5,12.8,11.6,10.4,9,7.8]}},{"type":"Feature","geometry":{"type":"Polygon","coordinates":[[[-118.54736,33.84763],[-118.32471,34.01795],[-118.38605,34.25924],[-118.67092,34.32982],[-118.89329,34.15916],[-118.83107,33.91827],[-118.54736,33.84763]]]},"properties":{"h3":"8429a19ffffffff","sunshine":[8.4,9.4,10.4,11.6,12.3,12.8,13.4,12.5,11.3,10.4,9.5,8.2]}},{"type":"Feature","geometry":{"type":"Polygon","coordinates":[[[-122.99289,40.68004],[-122.76858,40.85191],[-122.84251,41.07418],[-123.14158,41.12416],[-123.36531,40.95203],[-123.29055,40.73019],[-122.99289,40.68004]]]},"properties":{"h3":"8428025ffffffff","sunshine":[6,7.7,8.4,10.8,12.4,13.9,14.2,13.1,11.6,9.4,7.4,5.4]}},{"type":"Feature","geometry":{"type":"Polygon","coordinates":[[[-122.7721,40.00912],[-122.54861,40.18129],[-122.62164,40.40546],[-122.919,40.45702],[-123.14193,40.28459],[-123.06807,40.06085],[-122.7721,40.00912]]]},"properties":{"h3":"842815bffffffff","sunshine":[6.4,8.3,8.9,11.2,12.7,13.9,14.1,13.1,11.7,9.7,7.9,5.8]}},{"type":"Feature","geometry":{"type":"Polygon","coordinates":[[[-116.85872,35.68026],[-116.62806,35.84705],[-116.68713,36.08704],[-116.97783,36.1599],[-117.2083,35.99278],[-117.14826,35.75313],[-116.85872,35.68026]]]},"properties":{"h3":"842985dffffffff","sunshine":[8.7,9.8,11,12.2,13.2,13.8,13.7,12.8,11.7,10.7,9.5,8.3]}},{"type":"Feature","geometry":{"type":"Polygon","coordinates":[[[-119.74577,34.36511],[-119.52528,34.53684],[-119.58913,34.77599],[-119.87434,34.84297],[-120.09448,34.67091],[-120.02977,34.43218],[-119.74577,34.36511]]]},"properties":{"h3":"8429ac9ffffffff","sunshine":[8.3,9.5,10.3,11.9,13.4,13.7,13.8,12.9,11.8,10.7,9.4,8.2]}},{"type":"Feature","geometry":{"type":"Polygon","coordinates":[[[-122.0644,36.86598],[-121.8455,37.03951],[-121.91508,37.27136],[-122.20438,37.32921],[-122.42279,37.15539],[-122.35239,36.92399],[-122.0644,36.86598]]]},"properties":{"h3":"8428341ffffffff","sunshine":[7.5,8.9,9.5,11.3,12.7,13.5,13.6,12.8,11.6,10.1,8.7,7.1]}},{"type":"Feature","geometry":{"type":"Polygon","coordinates":[[[-121.35109,36.28014],[-121.13127,36.45308],[-121.19921,36.68696],[-121.48779,36.74746],[-121.70716,36.57422],[-121.6384,36.34078],[-121.35109,36.28014]]]},"properties":{"h3":"8429a9bffffffff","sunshine":[7.8,9.1,9.8,11.5,12.9,13.7,13.7,12.9,11.7,10.3,9.1,7.4]}},{"type":"Feature","geometry":{"type":"Polygon","coordinates":[[[-121.40463,37.38541],[-121.18266,37.55775],[-121.2514,37.78942],[-121.54296,37.84833],[-121.76447,37.67569],[-121.69488,37.44445],[-121.40463,37.38541]]]},"properties":{"h3":"842836bffffffff","sunshine":[7.5,8.9,9.6,11.4,13.1,13.7,13.8,13,11.7,10.2,8.6,7]}},{"type":"Feature","geometry":{"type":"Polygon","coordinates":[[[-117.87667,34.35741],[-117.65128,34.52653],[-117.71161,34.76773],[-117.99827,34.83944],[-118.22341,34.66997],[-118.16215,34.42914],[-117.87667,34.35741]]]},"properties":{"h3":"8429a15ffffffff","sunshine":[8.8,9.8,10.9,12.1,13.4,13.8,13.8,12.8,11.8,10.8,9.7,8.3]}},{"type":"Feature","geometry":{"type":"Polygon","coordinates":[[[-123.5129,40.5575],[-123.29055,40.73019],[-123.36531,40.95203],[-123.66324,41.00076],[-123.88498,40.82783],[-123.80941,40.60641],[-123.5129,40.5575]]]},"properties":{"h3":"8428021ffffffff","sunshine":[5.9,7.4,8,10.1,11.8,13.5,14.1,13,11.4,9.2,7.3,5.2]}},{"type":"Feature","geometry":{"type":"Polygon","coordinates":[[[-122.09834,40.52425],[-121.87155,40.69501],[-121.94373,40.91885],[-122.24356,40.97153],[-122.46982,40.8005],[-122.39677,40.57707],[-122.09834,40.52425]]]},"properties":{"h3":"8428157ffffffff","sunshine":[5.9,8,8.4,11,12.6,13.8,14,13.1,11.6,9.5,7.6,5.5]}},{"type":"Feature","geometry":{"type":"Polygon","coordinates":[[[-115.98855,36.5842],[-115.75386,36.74889],[-115.81166,36.98803],[-116.10517,37.06217],[-116.33971,36.89715],[-116.28089,36.65832],[-115.98855,36.5842]]]},"properties":{"h3":"8429801ffffffff","sunshine":[8.6,9.6,10.7,12.1,13.1,13.8,13.5,12.8,11.7,10.6,9.3,8.1]}},{"type":"Feature","geometry":{"type":"Polygon","coordinates":[[[-115.65532,32.85342],[-115.42765,33.01994],[-115.48289,33.26548],[-115.76676,33.34417],[-115.99431,33.17728],[-115.93811,32.93207],[-115.65532,32.85342]]]},"properties":{"h3":"8429a6dffffffff","sunshine":[9.1,9.9,11.2,12.3,13.1,13.7,13.3,12.6,11.5,10.8,9.8,8.5]}},{"type":"Feature","geometry":{"type":"Polygon","coordinates":[[[-117.37744,35.58547],[-117.14826,35.75313],[-117.2083,35.99278],[-117.49848,36.06441],[-117.72743,35.89641],[-117.66644,35.65712],[-117.37744,35.58547]]]},"properties":{"h3":"8429859ffffffff","sunshine":[8.7,9.7,11,12.2,13.4,13.8,13.7,12.9,11.8,10.7,9.6,8.4]}},{"type":"Feature","geometry":{"type":"Polygon","coordinates":[[[-119.08147,34.87918],[-118.85815,35.04977],[-118.92106,35.28883],[-119.20819,35.3569],[-119.43119,35.18598],[-119.36739,34.94733],[-119.08147,34.87918]]]},"properties":{"h3":"8429ac5ffffffff","sunshine":[8.3,9.6,10.6,11.9,13.3,13.8,13.8,12.9,11.8,10.7,9.4,8]}},{"type":"Feature","geometry":{"type":"Polygon","coordinates":[[[-121.82297,38.76739],[-121.59928,38.9393],[-121.66971,39.16753],[-121.96468,39.22344],[-122.18787,39.05125],[-122.1166,38.82344],[-121.82297,38.76739]]]},"properties":{"h3":"842833dffffffff","sunshine":[6.6,8.5,9.1,11.3,13,13.8,13.9,13,11.7,9.8,8.2,6.1]}},{"type":"Feature","geometry":{"type":"Polygon","coordinates":[[[-119.97635,40.97771],[-119.74212,41.14478],[-119.81058,41.37015],[-120.11423,41.42808],[-120.34805,41.26072],[-120.27863,41.03573],[-119.97635,40.97771]]]},"properties":{"h3":"8428129ffffffff","sunshine":[7,8.4,9.4,11.3,12.6,13.5,13.7,13,11.5,9.7,7.7,5.9]}},{"type":"Feature","geometry":{"type":"Polygon","coordinates":[[[-120.68864,36.79778],[-120.46581,36.96952],[-120.53286,37.20324],[-120.82361,37.2648],[-121.04601,37.09276],[-120.9781,36.85946],[-120.68864,36.79778]]]},"properties":{"h3":"8429a97ffffffff","sunshine":[7.2,9,9.9,11.6,13.3,13.7,13.8,13,11.7,10.3,8.6,6.8]}},{"type":"Feature","geometry":{"type":"Polygon","coordinates":[[[-120.73566,37.90116],[-120.51062,38.0722],[-120.57846,38.30366],[-120.87223,38.36366],[-121.09684,38.19232],[-121.02812,37.96127],[-120.73566,37.90116]]]},"properties":{"h3":"8428367ffffffff","sunshine":[7.1,8.6,9.3,11.2,13,13.6,13.8,13.1,11.6,10.1,8.4,6.9]}},{"type":"Feature","geometry":{"type":"Polygon","coordinates":[[[-120.21729,38.01086],[-119.99052,38.18107],[-120.05746,38.41292],[-120.35209,38.47416],[-120.57846,38.30366],[-120.51062,38.0722],[-120.21729,38.01086]]]},"properties":{"h3":"84298dbffffffff","sunshine":[7.2,8.3,9,11.1,12.7,13.5,13.8,13.1,11.6,10.2,8.3,6.9]}},{"type":"Feature","geometry":{"type":"Polygon","coordinates":[[[-118.38605,34.25924],[-118.16215,34.42914],[-118.22341,34.66997],[-118.50946,34.7405],[-118.73308,34.57026],[-118.67092,34.32982],[-118.38605,34.25924]]]},"properties":{"h3":"8429a11ffffffff","sunshine":[8.3,9.3,10.2,11.5,12.6,13.4,13.8,12.8,11.5,10.5,9.5,8]}},{"type":"Feature","geometry":{"type":"Polygon","coordinates":[[[-122.62164,40.40546],[-122.39677,40.57707],[-122.46982,40.8005],[-122.76858,40.85191],[-122.99289,40.68004],[-122.919,40.45702],[-122.62164,40.40546]]]},"properties":{"h3":"8428153ffffffff","sunshine":[6.1,8.1,8.6,11,12.6,13.9,14.1,13.1,11.6,9.4,7.7,5.5]}},{"type":"Feature","geometry":{"type":"Polygon","coordinates":[[[-116.16444,32.76474],[-115.93811,32.93207],[-115.99431,33.17728],[-116.27779,33.25482],[-116.50397,33.08712],[-116.44683,32.84225],[-116.16444,32.76474]]]},"properties":{"h3":"8429a69ffffffff","sunshine":[9,9.8,11,12.2,13.2,13.7,13.4,12.7,11.5,10.8,9.8,8.5]}},{"type":"Feature","geometry":{"type":"Polygon","coordinates":[[[-116.68713,36.08704],[-116.45518,36.25326],[-116.51413,36.49268],[-116.806,36.56554],[-117.03776,36.39899],[-116.97783,36.1599],[-116.68713,36.08704]]]},"properties":{"h3":"8429855ffffffff","sunshine":[8.7,9.7,10.9,12.1,13.2,13.8,13.6,12.8,11.7,10.6,9.5,8.3]}},{"type":"Feature","geometry":{"type":"Polygon","coordinates":[[[-119.58913,34.77599],[-119.36739,34.94733],[-119.43119,35.18598],[-119.71761,35.25289],[-119.93901,35.08122],[-119.87434,34.84297],[-119.58913,34.77599]]]},"properties":{"h3":"8429ac1ffffffff","sunshine":[8.2,9.5,10.5,11.9,13.4,13.8,13.8,12.9,11.8,10.7,9.3,8.1]}},{"type":"Feature","geometry":{"type":"Polygon","coordinates":[[[-115.8264,32.44052],[-115.59994,32.60748],[-115.65532,32.85342],[-115.93811,32.93207],[-116.16444,32.76474],[-116.10811,32.51913],[-115.8264,32.44052]]]},"properties":{"h3":"8448597ffffffff","sunshine":[9.1,10,11.1,12.3,13.2,13.7,13.3,12.6,11.5,10.8,9.9,8.6]}},{"type":"Feature","geometry":{"type":"Polygon","coordinates":[[[-122.33845,38.65073],[-122.1166,38.82344],[-122.18787,39.05125],[-122.48184,39.10592],[-122.70317,38.93295],[-122.63106,38.70557],[-122.33845,38.65073]]]},"properties":{"h3":"8428339ffffffff","sunshine":[6.8,8.6,9.1,11.4,13,13.9,13.9,13,11.8,9.8,8.3,6.2]}},{"type":"Feature","geometry":{"type":"Polygon","coordinates":[[[-114.95741,34.4961],[-114.72483,34.66061],[-114.77947,34.9043],[-115.06769,34.98318],[-115.30018,34.81832],[-115.24454,34.57493],[-114.95741,34.4961]]]},"properties":{"h3":"8429b19ffffffff","sunshine":[8.9,9.8,11,12.4,13.1,13.7,13.2,12.6,11.6,10.7,9.7,8.2]}},{"type":"Feature","geometry":{"type":"Polygon","coordinates":[[[-117.71161,34.76773],[-117.48497,34.93639],[-117.54521,35.1771],[-117.83303,35.24878],[-118.05944,35.07978],[-117.99827,34.83944],[-117.71161,34.76773]]]},"properties":{"h3":"8429a3bffffffff","sunshine":[8.6,9.7,10.9,12.1,13.4,13.8,13.8,12.7,11.8,10.8,9.6,8.3]}},{"type":"Feature","geometry":{"type":"Polygon","coordinates":[[[-121.19921,36.68696],[-120.9781,36.85946],[-121.04601,37.09276],[-121.33588,37.15313],[-121.55654,36.98033],[-121.48779,36.74746],[-121.19921,36.68696]]]},"properties":{"h3":"8429a93ffffffff","sunshine":[7.7,9.1,9.7,11.4,12.9,13.6,13.7,12.8,11.7,10.3,9,7.4]}},{"type":"Feature","geometry":{"type":"Polygon","coordinates":[[[-122.63565,37.84628],[-122.41645,38.01995],[-122.4877,38.24906],[-122.77897,38.30407],[-122.99764,38.13013],[-122.92558,37.90146],[-122.63565,37.84628]]]},"properties":{"h3":"842830bffffffff","sunshine":[7,8.7,9.3,11.4,12.7,13.5,13.4,12.4,11.5,9.7,8.4,6.4]}},{"type":"Feature","geometry":{"type":"Polygon","coordinates":[[[-118.92106,35.28883],[-118.69648,35.45897],[-118.75932,35.69752],[-119.04766,35.76552],[-119.27193,35.59505],[-119.20819,35.3569],[-118.92106,35.28883]]]},"properties":{"h3":"8429aebffffffff","sunshine":[8.2,9.5,10.5,11.8,13.2,13.8,13.9,12.9,11.8,10.7,9.2,7.9]}},{"type":"Feature","geometry":{"type":"Polygon","coordinates":[[[-121.2514,37.78942],[-121.02812,37.96127],[-121.09684,38.19232],[-121.38971,38.25109],[-121.61254,38.07895],[-121.54296,37.84833],[-121.2514,37.78942]]]},"properties":{"h3":"8428363ffffffff","sunshine":[6.7,8.7,9.5,11.4,13.1,13.7,13.8,13.1,11.7,10.1,8.2,6.3]}},{"type":"Feature","geometry":{"type":"Polygon","coordinates":[[[-119.53392,38.52007],[-119.30409,38.68885],[-119.37005,38.92041],[-119.66679,38.98284],[-119.89625,38.81377],[-119.82935,38.58257],[-119.53392,38.52007]]]},"properties":{"h3":"84298d7ffffffff","sunshine":[8.1,9.2,10.4,12,12.9,13.5,13.6,13,11.7,10.3,8.8,7.4]}},{"type":"Feature","geometry":{"type":"Polygon","coordinates":[[[-116.84497,33.40762],[-116.61896,33.57568],[-116.6768,33.81935],[-116.9616,33.89461],[-117.18743,33.72619],[-117.12865,33.48287],[-116.84497,33.40762]]]},"properties":{"h3":"8429a0dffffffff","sunshine":[8.5,9.4,10.3,11.4,12.3,13.5,13.6,12.7,11.4,10.5,9.6,8]}},{"type":"Feature","geometry":{"type":"Polygon","coordinates":[[[-115.48289,33.26548],[-115.25401,33.43154],[-115.3091,33.67665],[-115.59406,33.75538],[-115.82283,33.58896],[-115.76676,33.34417],[-115.48289,33.26548]]]},"properties":{"h3":"8429a65ffffffff","sunshine":[9.2,10,11.2,12.4,13.2,13.6,13.3,12.7,11.6,10.8,9.8,8.5]}},{"type":"Feature","geometry":{"type":"Polygon","coordinates":[[[-117.2083,35.99278],[-116.97783,36.1599],[-117.03776,36.39899],[-117.32912,36.47061],[-117.55937,36.30315],[-117.49848,36.06441],[-117.2083,35.99278]]]},"properties":{"h3":"8429851ffffffff","sunshine":[8.7,9.7,11,12.2,13.3,13.8,13.7,12.9,11.7,10.7,9.5,8.3]}},{"type":"Feature","geometry":{"type":"Polygon","coordinates":[[[-119.30396,36.71298],[-119.07743,36.8828],[-119.14184,37.11832],[-119.4337,37.18363],[-119.65989,37.0135],[-119.59457,36.77837],[-119.30396,36.71298]]]},"properties":{"h3":"8429abdffffffff","sunshine":[7.7,8.9,9.8,11.6,13.1,13.7,13.9,13,11.7,10.5,8.9,7.4]}},{"type":"Feature","geometry":{"type":"Polygon","coordinates":[[[-116.33324,32.35139],[-116.10811,32.51913],[-116.16444,32.76474],[-116.44683,32.84225],[-116.6718,32.67414],[-116.61454,32.42889],[-116.33324,32.35139]]]},"properties":{"h3":"8448593ffffffff","sunshine":[8.5,9.3,10.3,11.7,12.6,13.6,13.4,12.7,11.4,10.6,9.6,8.1]}},{"type":"Feature","geometry":{"type":"Polygon","coordinates":[[[-121.66971,39.16753],[-121.44467,39.3389],[-121.51509,39.56645],[-121.81142,39.62221],[-122.03597,39.45057],[-121.96468,39.22344],[-121.66971,39.16753]]]},"properties":{"h3":"8428335ffffffff","sunshine":[6.7,8.4,8.9,11.2,13,13.8,13.9,13,11.7,9.8,8,6.1]}},{"type":"Feature","geometry":{"type":"Polygon","coordinates":[[[-117.02893,35.2724],[-116.79954,35.43972],[-116.85872,35.68026],[-117.14826,35.75313],[-117.37744,35.58547],[-117.3173,35.34528],[-117.02893,35.2724]]]},"properties":{"h3":"8429a37ffffffff","sunshine":[8.7,9.7,10.9,12.2,13.2,13.8,13.7,12.8,11.8,10.7,9.6,8.3]}},{"type":"Feature","geometry":{"type":"Polygon","coordinates":[[[-121.9749,38.36606],[-121.75255,38.53848],[-121.82297,38.76739],[-122.1166,38.82344],[-122.33845,38.65073],[-122.26718,38.42226],[-121.9749,38.36606]]]},"properties":{"h3":"8428307ffffffff","sunshine":[6.8,8.6,9.2,11.3,13,13.8,13.9,13,11.7,9.9,8.2,6.2]}},{"type":"Feature","geometry":{"type":"Polygon","coordinates":[[[-118.24447,35.79798],[-118.01704,35.96683],[-118.07889,36.20521],[-118.36909,36.27437],[-118.59623,36.10519],[-118.53346,35.86719],[-118.24447,35.79798]]]},"properties":{"h3":"8429ae7ffffffff","sunshine":[8.3,9.4,10.6,12,13.3,13.8,13.8,13,11.9,10.7,9.4,8.1]}},{"type":"Feature","geometry":{"type":"Polygon","coordinates":[[[-120.05746,38.41292],[-119.82935,38.58257],[-119.89625,38.81377],[-120.19218,38.87491],[-120.4199,38.70496],[-120.35209,38.47416],[-120.05746,38.41292]]]},"properties":{"h3":"84298d3ffffffff","sunshine":[7.1,8.2,8.9,11.2,12.5,13.5,13.7,13.1,11.5,10.1,8.2,6.8]}},{"type":"Feature","geometry":{"type":"Polygon","coordinates":[[[-117.35325,33.31403],[-117.12865,33.48287],[-117.18743,33.72619],[-117.47173,33.80029],[-117.69611,33.63109],[-117.63642,33.38815],[-117.35325,33.31403]]]},"properties":{"h3":"8429a09ffffffff","sunshine":[8.5,9.4,10.4,11.4,12.2,13.3,13.6,12.6,11.4,10.4,9.6,8]}},{"type":"Feature","geometry":{"type":"Polygon","coordinates":[[[-121.51509,39.56645],[-121.2887,39.73725],[-121.35911,39.96409],[-121.6568,40.01972],[-121.88271,39.84864],[-121.81142,39.62221],[-121.51509,39.56645]]]},"properties":{"h3":"842814bffffffff","sunshine":[6.4,8.1,8.5,10.9,12.7,13.7,13.9,13,11.7,9.7,7.8,6]}},{"type":"Feature","geometry":{"type":"Polygon","coordinates":[[[-115.99431,33.17728],[-115.76676,33.34417],[-115.82283,33.58896],[-116.1074,33.66652],[-116.33481,33.49927],[-116.27779,33.25482],[-115.99431,33.17728]]]},"properties":{"h3":"8429a61ffffffff","sunshine":[9.1,9.9,11.2,12.3,13.2,13.7,13.4,12.6,11.6,10.8,9.8,8.4]}},{"type":"Feature","geometry":{"type":"Polygon","coordinates":[[[-123.06903,39.21268],[-122.84825,39.38592],[-122.92123,39.61151],[-123.21581,39.66341],[-123.43602,39.48991],[-123.36223,39.26477],[-123.06903,39.21268]]]},"properties":{"h3":"842806dffffffff","sunshine":[6.2,8.1,8.5,10.9,12.6,13.9,14.1,13,11.7,9.5,7.9,5.8]}},{"type":"Feature","geometry":{"type":"Polygon","coordinates":[[[-115.64455,35.13856],[-115.41217,35.30376],[-115.46852,35.54581],[-115.75825,35.62233],[-115.99051,35.45679],[-115.93316,35.21506],[-115.64455,35.13856]]]},"properties":{"h3":"842984dffffffff","sunshine":[8.7,9.7,10.8,12.3,13.1,13.8,13.3,12.7,11.7,10.7,9.7,8.2]}},{"type":"Feature","geometry":{"type":"Polygon","coordinates":[[[-119.81946,36.60773],[-119.59457,36.77837],[-119.65989,37.0135],[-119.95099,37.07759],[-120.17551,36.90664],[-120.1093,36.67191],[-119.81946,36.60773]]]},"properties":{"h3":"8429ab9ffffffff","sunshine":[7.6,9.1,10,11.7,13.2,13.7,13.9,13,11.7,10.5,8.9,7.1]}},{"type":"Feature","geometry":{"type":"Polygon","coordinates":[[[-122.18787,39.05125],[-121.96468,39.22344],[-122.03597,39.45057],[-122.33129,39.50509],[-122.55397,39.33263],[-122.48184,39.10592],[-122.18787,39.05125]]]},"properties":{"h3":"8428331ffffffff","sunshine":[6.8,8.7,9.2,11.5,13.1,13.9,14,13,11.8,9.8,8.3,6.2]}},{"type":"Feature","geometry":{"type":"Polygon","coordinates":[[[-114.77947,34.9043],[-114.54565,35.06823],[-114.60012,35.31139],[-114.88944,35.39033],[-115.12318,35.22605],[-115.06769,34.98318],[-114.77947,34.9043]]]},"properties":{"h3":"8429b11ffffffff","sunshine":[8.7,9.8,10.9,12.3,13,13.7,13.2,12.6,11.6,10.7,9.6,8.1]}},{"type":"Feature","geometry":{"type":"Polygon","coordinates":[[[-121.94373,40.91885],[-121.71555,41.089],[-121.78772,41.31208],[-122.08897,41.36462],[-122.31662,41.19421],[-122.24356,40.97153],[-121.94373,40.91885]]]},"properties":{"h3":"842811dffffffff","sunshine":[5.9,7.8,8.2,10.9,12.5,13.8,14.1,13.1,11.6,9.5,7.3,5.4]}},{"type":"Feature","geometry":{"type":"Polygon","coordinates":[[[-117.54521,35.1771],[-117.3173,35.34528],[-117.37744,35.58547],[-117.66644,35.65712],[-117.89412,35.48861],[-117.83303,35.24878],[-117.54521,35.1771]]]},"properties":{"h3":"8429a33ffffffff","sunshine":[8.6,9.7,10.9,12.1,13.4,13.8,13.7,12.8,11.8,10.7,9.7,8.4]}},{"type":"Feature","geometry":{"type":"Polygon","coordinates":[[[-120.13458,35.79308],[-119.91227,35.96465],[-119.97768,36.20091],[-120.26627,36.26519],[-120.4882,36.0933],[-120.42192,35.85746],[-120.13458,35.79308]]]},"properties":{"h3":"8429a8bffffffff","sunshine":[8,9.4,10.4,11.8,13.3,13.8,13.9,13,11.8,10.6,9.2,7.8]}},{"type":"Feature","geometry":{"type":"Polygon","coordinates":[[[-123.21638,41.34525],[-122.99126,41.51679],[-123.06609,41.73711],[-123.36689,41.78549],[-123.59141,41.61371],[-123.51574,41.3938],[-123.21638,41.34525]]]},"properties":{"h3":"84281cdffffffff","sunshine":[5.9,7.6,8.5,10.5,12.3,13.7,14.2,13.1,11.5,9.2,7.2,5.3]}},{"type":"Feature","geometry":{"type":"Polygon","coordinates":[[[-122.4877,38.24906],[-122.26718,38.42226],[-122.33845,38.65073],[-122.63106,38.70557],[-122.85105,38.5321],[-122.77897,38.30407],[-122.4877,38.24906]]]},"properties":{"h3":"8428303ffffffff","sunshine":[6.7,8.5,9.1,11.3,12.8,13.6,13.7,12.8,11.6,9.6,8.2,6.1]}},{"type":"Feature","geometry":{"type":"Polygon","coordinates":[[[-118.75932,35.69752],[-118.53346,35.86719],[-118.59623,36.10519],[-118.88579,36.17314],[-119.11134,36.00314],[-119.04766,35.76552],[-118.75932,35.69752]]]},"properties":{"h3":"8429ae3ffffffff","sunshine":[8,9.3,10.3,11.8,13.1,13.8,13.9,13,11.8,10.6,9.3,7.8]}},{"type":"Feature","geometry":{"type":"Polygon","coordinates":[[[-116.6768,33.81935],[-116.44956,33.98696],[-116.50729,34.23018],[-116.79321,34.30545],[-117.02028,34.13748],[-116.9616,33.89461],[-116.6768,33.81935]]]},"properties":{"h3":"8429a05ffffffff","sunshine":[8.5,9.6,10.8,12.1,13.2,13.7,13.6,12.7,11.7,10.7,9.7,8.2]}},{"type":"Feature","geometry":{"type":"Polygon","coordinates":[[[-120.83269,40.0774],[-120.60309,40.24673],[-120.67257,40.47324],[-120.97258,40.53003],[-121.20174,40.36043],[-121.13134,40.13431],[-120.83269,40.0774]]]},"properties":{"h3":"8428147ffffffff","sunshine":[6.6,8.2,8.9,11.1,12.6,13.6,13.9,13.1,11.6,9.7,7.7,5.9]}},{"type":"Feature","geometry":{"type":"Polygon","coordinates":[[[-123.58111,39.09077],[-123.36223,39.26477],[-123.43602,39.48991],[-123.72948,39.54061],[-123.94776,39.36635],[-123.87319,39.14166],[-123.58111,39.09077]]]},"properties":{"h3":"8428069ffffffff","sunshine":[6.4,8.2,8.8,11,12.2,13.5,13.5,12.6,11.4,9.5,8,6]}},{"type":"Feature","geometry":{"type":"Polygon","coordinates":[[[-116.16415,35.04895],[-115.93316,35.21506],[-115.99051,35.45679],[-116.27983,35.53209],[-116.51067,35.36564],[-116.45234,35.12424],[-116.16415,35.04895]]]},"properties":{"h3":"8429849ffffffff","sunshine":[8.8,9.8,10.9,12.2,13.2,13.7,13.5,12.7,11.7,10.7,9.6,8.2]}},{"type":"Feature","geometry":{"type":"Polygon","coordinates":[[[-119.14184,37.11832],[-118.914,37.28761],[-118.97834,37.52252],[-119.27146,37.58776],[-119.49896,37.41816],[-119.4337,37.18363],[-119.14184,37.11832]]]},"properties":{"h3":"8429ab5ffffffff","sunshine":[7.9,8.7,9.7,11.5,13,13.6,13.8,13.1,11.8,10.5,8.8,7.5]}},{"type":"Feature","geometry":{"type":"Polygon","coordinates":[[[-120.57846,38.30366],[-120.35209,38.47416],[-120.4199,38.70496],[-120.71498,38.76485],[-120.94093,38.59405],[-120.87223,38.36366],[-120.57846,38.30366]]]},"properties":{"h3":"842832dffffffff","sunshine":[7,8.3,9.1,11.1,12.9,13.6,13.8,13.1,11.6,10.1,8.2,6.8]}},{"type":"Feature","geometry":{"type":"Polygon","coordinates":[[[-122.46982,40.8005],[-122.24356,40.97153],[-122.31662,41.19421],[-122.6168,41.24546],[-122.84251,41.07418],[-122.76858,40.85191],[-122.46982,40.8005]]]},"properties":{"h3":"8428119ffffffff","sunshine":[5.8,7.8,8.1,10.9,12.4,13.8,14.1,13.1,11.5,9.4,7.5,5.4]}}]}