{"type":"FeatureCollection","features":[{"type":"Feature","geometry":{"type":"Point","coordinates":[-122.00735,37.55911]},"properties":{"name":"Fremont","stopId":"FMT","system":"ace","routes":["ACE"],"colors":["#77297D"]}},{"type":"Feature","geometry":{"type":"Point","coordinates":[-121.96705,37.40683]},"properties":{"name":"Great America Parkway","stopId":"GAC","system":"ace","routes":["ACE"],"colors":["#77297D"]}},{"type":"Feature","geometry":{"type":"Point","coordinates":[-121.26414,37.79894]},"properties":{"name":"Lathrop/Manteca","stopId":"LTM","system":"ace","routes":["ACE"],"colors":["#77297D"]}},{"type":"Feature","geometry":{"type":"Point","coordinates":[-121.76691,37.68505]},"properties":{"name":"Livermore","stopId":"LIV","system":"ace","routes":["ACE"],"colors":["#77297D"]}},{"type":"Feature","geometry":{"type":"Point","coordinates":[-121.88223,37.65856]},"properties":{"name":"Pleasanton","stopId":"PLS","system":"ace","routes":["ACE"],"colors":["#77297D"]}},{"type":"Feature","geometry":{"type":"Point","coordinates":[-121.90238,37.33069]},"properties":{"name":"San Jose Station Diridon","stopId":"SJC","system":"ace","routes":["ACE"],"colors":["#77297D"]}},{"type":"Feature","geometry":{"type":"Point","coordinates":[-121.93631,37.35351]},"properties":{"name":"Santa Clara","stopId":"SCC","system":"ace","routes":["ACE"],"colors":["#77297D"]}},{"type":"Feature","geometry":{"type":"Point","coordinates":[-121.27888,37.95708]},"properties":{"name":"Stockton — Robert J Cabral","stopId":"SKT","system":"ace","routes":["ACE"],"colors":["#77297D"]}},{"type":"Feature","geometry":{"type":"Point","coordinates":[-121.43274,37.69642]},"properties":{"name":"Tracy","stopId":"TRC","system":"ace","routes":["ACE"],"colors":["#77297D"]}},{"type":"Feature","geometry":{"type":"Point","coordinates":[-121.71765,37.69706]},"properties":{"name":"Vasco Rd","stopId":"VAS","system":"ace","routes":["ACE"],"colors":["#77297D"]}}]}