{"type":"FeatureCollection","features":[{"type":"Feature","geometry":{"type":"LineString","coordinates":[[-121.27888,37.95708],[-121.27443,37.94115],[-121.27417,37.93899],[-121.27407,37.93196],[-121.27408,37.90784],[-121.27082,37.89937],[-121.26546,37.87871],[-121.2643,37.85449],[-121.26172,37.80914],[-121.2619,37.80246],[-121.26314,37.79853],[-121.26414,37.79894],[-121.26327,37.79839],[-121.26494,37.79541],[-121.26756,37.79273],[-121.2707,37.79056],[-121.27434,37.78856],[-121.28972,37.78339],[-121.30533,37.77797],[-121.30747,37.77624],[-121.30975,37.77365],[-121.31472,37.76818],[-121.32455,37.75718],[-121.33975,37.74527],[-121.38146,37.71632],[-121.40648,37.69856],[-121.41008,37.69662],[-121.41425,37.69605],[-121.43274,37.69642],[-121.46377,37.69615],[-121.48469,37.69622],[-121.48766,37.69663],[-121.49016,37.69725],[-121.49248,37.69818],[-121.49407,37.69899],[-121.49908,37.70208],[-121.50048,37.70283],[-121.50162,37.70307],[-121.50306,37.703],[-121.505,37.70226],[-121.50992,37.70061],[-121.51111,37.70039],[-121.51267,37.70043],[-121.51391,37.70082],[-121.52359,37.70426],[-121.52428,37.70438],[-121.52557,37.70455],[-121.53381,37.70483],[-121.53561,37.70481],[-121.53661,37.7047],[-121.53756,37.70449],[-121.54131,37.70352],[-121.54223,37.70338],[-121.54348,37.70359],[-121.54596,37.70426],[-121.54737,37.70449],[-121.54903,37.70446],[-121.55428,37.70429],[-121.55545,37.70408],[-121.55938,37.70295],[-121.56052,37.70294],[-121.56181,37.70326],[-121.5829,37.70981],[-121.58539,37.71059],[-121.58664,37.71116],[-121.58766,37.71193],[-121.59898,37.72265],[-121.60496,37.72835],[-121.61129,37.73061],[-121.61264,37.73081],[-121.61428,37.73066],[-121.62185,37.72954],[-121.62275,37.72955],[-121.62369,37.72969],[-121.62692,37.73061],[-121.62778,37.73089],[-121.62858,37.7312],[-121.62916,37.73157],[-121.62994,37.73228],[-121.63021,37.73268],[-121.63059,37.73355],[-121.63187,37.73788],[-121.63215,37.73854],[-121.63253,37.73911],[-121.633,37.73953],[-121.63348,37.73986],[-121.6341,37.74016],[-121.63474,37.74034],[-121.63543,37.74044],[-121.63721,37.74048],[-121.6378,37.74052],[-121.6383,37.74061],[-121.63874,37.74075],[-121.6391,37.74093],[-121.64059,37.74219],[-121.64092,37.74248],[-121.64137,37.74275],[-121.6422,37.743],[-121.64325,37.7431],[-121.64409,37.74296],[-121.64562,37.7425],[-121.6463,37.74234],[-121.64667,37.74233],[-121.64709,37.74237],[-121.64768,37.74248],[-121.65168,37.74393],[-121.65257,37.7443],[-121.65324,37.74478],[-121.65509,37.7462],[-121.65611,37.74677],[-121.65705,37.74698],[-121.65815,37.74693],[-121.65945,37.74646],[-121.66488,37.74368],[-121.66823,37.74193],[-121.6697,37.74118],[-121.67059,37.74066],[-121.67137,37.73993],[-121.67187,37.73913],[-121.67206,37.73863],[-121.67217,37.73801],[-121.67217,37.7368],[-121.6721,37.73389],[-121.67227,37.73317],[-121.67388,37.73113],[-121.67539,37.72891],[-121.67571,37.72648],[-121.67616,37.72523],[-121.67631,37.72469],[-121.67663,37.72416],[-121.67699,37.72375],[-121.67738,37.72344],[-121.67838,37.72299],[-121.67912,37.72284],[-121.68021,37.72288],[-121.68123,37.72313],[-121.68385,37.72374],[-121.68451,37.72379],[-121.68505,37.72373],[-121.68673,37.72346],[-121.68774,37.72335],[-121.68893,37.72347],[-121.68981,37.72384],[-121.69212,37.72532],[-121.6928,37.72556],[-121.69358,37.72566],[-121.69434,37.72563],[-121.69512,37.72539],[-121.69589,37.72494],[-121.69647,37.72428],[-121.69676,37.72361],[-121.69671,37.72281],[-121.696,37.7209],[-121.69586,37.71933],[-121.69559,37.71554],[-121.69546,37.71337],[-121.69515,37.71185],[-121.69389,37.70906],[-121.69375,37.70862],[-121.69373,37.70801],[-121.6939,37.70748],[-121.69428,37.70683],[-121.69673,37.70354],[-121.69817,37.70158],[-121.6989,37.70079],[-121.69959,37.70016],[-121.70045,37.69966],[-121.70141,37.69926],[-121.70234,37.69903],[-121.70311,37.69891],[-121.7144,37.69751],[-121.71765,37.69706],[-121.73339,37.69498],[-121.73528,37.69467],[-121.73676,37.69426],[-121.74777,37.68973],[-121.75072,37.68854],[-121.75285,37.68778],[-121.75503,37.68718],[-121.7569,37.68683],[-121.76474,37.68585],[-121.7658,37.68559],[-121.76714,37.68521],[-121.76691,37.68505],[-121.76714,37.68521],[-121.76982,37.68441],[-121.77734,37.68215],[-121.78375,37.68024],[-121.78868,37.67874],[-121.79041,37.67837],[-121.79085,37.67827],[-121.79679,37.6776],[-121.79751,37.67752],[-121.80212,37.67701],[-121.8058,37.67663],[-121.80929,37.67625],[-121.81458,37.67568],[-121.81821,37.67529],[-121.82397,37.67465],[-121.82645,37.67435],[-121.832,37.67377],[-121.83647,37.67328],[-121.84086,37.67282],[-121.84533,37.67232],[-121.84933,37.67189],[-121.85715,37.67104],[-121.85841,37.67086],[-121.86009,37.67052],[-121.86144,37.67015],[-121.87403,37.66646],[-121.87512,37.66611],[-121.87592,37.66572],[-121.87653,37.66527],[-121.87705,37.66476],[-121.88219,37.65852],[-121.88223,37.65856],[-121.88222,37.65845],[-121.88222,37.65835],[-121.88219,37.65851],[-121.89104,37.64791],[-121.89166,37.64698],[-121.89211,37.64599],[-121.89222,37.645],[-121.89195,37.64395],[-121.88857,37.63813],[-121.88711,37.63562],[-121.88508,37.63237],[-121.88282,37.62904],[-121.88125,37.62683],[-121.88091,37.62609],[-121.88075,37.62506],[-121.8808,37.62275],[-121.88067,37.62209],[-121.88045,37.62139],[-121.87959,37.61936],[-121.87589,37.6126],[-121.87481,37.60981],[-121.87516,37.60658],[-121.87567,37.60316],[-121.87597,37.60192],[-121.8764,37.60089],[-121.87737,37.60012],[-121.87851,37.59965],[-121.88181,37.5988],[-121.8827,37.59807],[-121.8834,37.59738],[-121.88586,37.59517],[-121.88679,37.59434],[-121.88725,37.594],[-121.88771,37.59376],[-121.88827,37.59347],[-121.88891,37.59327],[-121.88949,37.59313],[-121.89026,37.59306],[-121.89155,37.59316],[-121.89581,37.5937],[-121.89785,37.594],[-121.90014,37.59458],[-121.90148,37.59493],[-121.90229,37.59508],[-121.90348,37.59514],[-121.90455,37.59509],[-121.90515,37.59495],[-121.9057,37.59475],[-121.91051,37.59293],[-121.91159,37.59261],[-121.91278,37.59258],[-121.91365,37.59266],[-121.91451,37.59285],[-121.91596,37.59339],[-121.91708,37.5939],[-121.91748,37.59415],[-121.91772,37.59436],[-121.92132,37.59739],[-121.92243,37.59783],[-121.92347,37.59809],[-121.9246,37.59804],[-121.92561,37.5977],[-121.92785,37.59646],[-121.92885,37.59599],[-121.93006,37.59545],[-121.93052,37.59507],[-121.93127,37.59402],[-121.93196,37.59296],[-121.93269,37.59208],[-121.93449,37.59133],[-121.93601,37.59121],[-121.94204,37.59259],[-121.94758,37.59193],[-121.95168,37.59054],[-121.9532,37.59033],[-121.95482,37.58987],[-121.95602,37.58933],[-121.95696,37.58884],[-121.95864,37.58759],[-121.95911,37.58728],[-121.96003,37.58684],[-121.96116,37.58637],[-121.96166,37.58612],[-121.96206,37.58581],[-121.96268,37.58516],[-121.96305,37.58446],[-121.96314,37.58408],[-121.96317,37.58367],[-121.96312,37.58312],[-121.96287,37.581],[-121.9629,37.58001],[-121.96314,37.5792],[-121.96344,37.57863],[-121.9641,37.57793],[-121.96687,37.5755],[-121.96921,37.5736],[-121.96969,37.57316],[-121.97004,37.5727],[-121.9701,37.57229],[-121.96999,37.57178],[-121.96998,37.57139],[-121.97008,37.57093],[-121.97031,37.57051],[-121.97071,37.57011],[-121.98622,37.56571],[-122.00092,37.56171],[-122.00392,37.56084],[-122.00494,37.56053],[-122.00565,37.56024],[-122.00619,37.55999],[-122.00656,37.55974],[-122.00693,37.55944],[-122.00724,37.55906],[-122.00735,37.55911],[-122.00723,37.55907],[-122.01103,37.55423],[-122.01601,37.54789],[-122.01968,37.54332],[-122.02408,37.53785],[-122.0308,37.52961],[-122.03284,37.52715],[-122.03309,37.52664],[-122.03312,37.52605],[-122.03289,37.52553],[-122.03229,37.52504],[-122.00841,37.51374],[-122.00172,37.50745],[-121.97545,37.48242],[-121.97469,37.48158],[-121.97388,37.48027],[-121.9735,37.47897],[-121.97337,37.47743],[-121.97403,37.46927],[-121.97639,37.43932],[-121.97719,37.43663],[-121.97754,37.43482],[-121.97752,37.42886],[-121.97756,37.42587],[-121.97737,37.42362],[-121.97722,37.42147],[-121.97704,37.42065],[-121.97657,37.41981],[-121.97614,37.41923],[-121.97557,37.41868],[-121.97382,37.41706],[-121.96705,37.40683],[-121.94918,37.38044],[-121.94779,37.37818],[-121.94633,37.37545],[-121.94609,37.37475],[-121.94582,37.37376],[-121.94553,37.37188],[-121.94553,37.3647],[-121.94549,37.36384],[-121.94536,37.36289],[-121.9451,37.36217],[-121.94481,37.36147],[-121.94367,37.35947],[-121.94217,37.35676],[-121.94182,37.3562],[-121.94143,37.35587],[-121.9409,37.35553],[-121.9404,37.35526],[-121.93631,37.35351],[-121.91403,37.34208],[-121.91264,37.34142],[-121.91098,37.34085],[-121.91,37.34036],[-121.90905,37.33958],[-121.90856,37.33905],[-121.90822,37.33851],[-121.90771,37.33743],[-121.90731,37.337],[-121.90412,37.33407],[-121.90373,37.33357],[-121.9034,37.333],[-121.9029,37.33077],[-121.90238,37.33069]]},"properties":{"routeId":"ACE","name":"Altamont Commuter Express","shortName":"ACE","color":"#77297D","textColor":"#FFFFFF","system":"ace"}}]}