{"type":"FeatureCollection","features":[{"type":"Feature","geometry":{"type":"Point","coordinates":[-122.27163,37.80348]},"properties":{"name":"12th Street / Oakland City Center","stopId":"12TH","system":"bart","routes":["8","3","7","4","1","2"],"colors":["#FF0000","#FF9933","#FFFF33"]}},{"type":"Feature","geometry":{"type":"Point","coordinates":[-122.26876,37.80808]},"properties":{"name":"19th Street Oakland","stopId":"19TH","system":"bart","routes":["8","3","7","4","1","2"],"colors":["#FF0000","#FF9933","#FFFF33"]}},{"type":"Feature","geometry":{"type":"Point","coordinates":[-122.26711,37.8288]},"properties":{"name":"MacArthur","stopId":"MCAR","system":"bart","routes":["8","3","7","4","2","1"],"colors":["#FF0000","#FF9933","#FFFF33"]}},{"type":"Feature","geometry":{"type":"Point","coordinates":[-122.29515,37.80489]},"properties":{"name":"West Oakland","stopId":"WOAK","system":"bart","routes":["7","11","5","1","8","12","6","2"],"colors":["#FF0000","#0099CC","#339933","#FFFF33"]}},{"type":"Feature","geometry":{"type":"Point","coordinates":[-122.39704,37.79276]},"properties":{"name":"Embarcadero","stopId":"EMBR","system":"bart","routes":["7","11","5","1","8","12","6","2"],"colors":["#FF0000","#0099CC","#339933","#FFFF33"]}},{"type":"Feature","geometry":{"type":"Point","coordinates":[-122.40159,37.78917]},"properties":{"name":"Montgomery Street","stopId":"MONT","system":"bart","routes":["7","11","5","1","8","12","6","2"],"colors":["#FF0000","#0099CC","#339933","#FFFF33"]}},{"type":"Feature","geometry":{"type":"Point","coordinates":[-122.40733,37.78461]},"properties":{"name":"Powell Street","stopId":"POWL","system":"bart","routes":["7","11","5","1","8","12","6","2"],"colors":["#FF0000","#0099CC","#339933","#FFFF33"]}},{"type":"Feature","geometry":{"type":"Point","coordinates":[-122.41383,37.77941]},"properties":{"name":"Civic Center / UN Plaza","stopId":"CIVC","system":"bart","routes":["7","11","5","1","8","12","6","2"],"colors":["#FF0000","#0099CC","#339933","#FFFF33"]}},{"type":"Feature","geometry":{"type":"Point","coordinates":[-122.4197,37.76517]},"properties":{"name":"16th Street / Mission","stopId":"16TH","system":"bart","routes":["7","11","5","1","8","12","6","2"],"colors":["#FF0000","#0099CC","#339933","#FFFF33"]}},{"type":"Feature","geometry":{"type":"Point","coordinates":[-122.41847,37.75242]},"properties":{"name":"24th Street / Mission","stopId":"24TH","system":"bart","routes":["7","11","5","1","8","12","6","2"],"colors":["#FF0000","#0099CC","#339933","#FFFF33"]}},{"type":"Feature","geometry":{"type":"Point","coordinates":[-122.43351,37.73324]},"properties":{"name":"Glen Park","stopId":"GLEN","system":"bart","routes":["7","11","5","1","8","12","6","2"],"colors":["#FF0000","#0099CC","#339933","#FFFF33"]}},{"type":"Feature","geometry":{"type":"Point","coordinates":[-122.44746,37.72175]},"properties":{"name":"Balboa Park","stopId":"BALB","system":"bart","routes":["7","11","5","1","8","12","6","2"],"colors":["#FF0000","#0099CC","#339933","#FFFF33"]}},{"type":"Feature","geometry":{"type":"Point","coordinates":[-122.46891,37.70626]},"properties":{"name":"Daly City","stopId":"DALY","system":"bart","routes":["12","11","6","5","8","2","7","1"],"colors":["#0099CC","#339933","#FF0000","#FFFF33"]}},{"type":"Feature","geometry":{"type":"Point","coordinates":[-122.26525,37.79732]},"properties":{"name":"Lake Merritt","stopId":"LAKE","system":"bart","routes":["12","6","4","11","5","3"],"colors":["#0099CC","#339933","#FF9933"]}},{"type":"Feature","geometry":{"type":"Point","coordinates":[-122.22408,37.77484]},"properties":{"name":"Fruitvale","stopId":"FTVL","system":"bart","routes":["12","6","4","11","5","3"],"colors":["#0099CC","#339933","#FF9933"]}},{"type":"Feature","geometry":{"type":"Point","coordinates":[-122.19672,37.75358]},"properties":{"name":"Coliseum","stopId":"COLS","system":"bart","routes":["12","6","4","11","5","3","19","20"],"colors":["#0099CC","#339933","#FF9933","#B0BEC7"]}},{"type":"Feature","geometry":{"type":"Point","coordinates":[-122.16074,37.72178]},"properties":{"name":"San Leandro","stopId":"SANL","system":"bart","routes":["12","6","4","11","5","3"],"colors":["#0099CC","#339933","#FF9933"]}},{"type":"Feature","geometry":{"type":"Point","coordinates":[-122.12645,37.69691]},"properties":{"name":"Bay Fair","stopId":"BAYF","system":"bart","routes":["12","6","4","11","5","3"],"colors":["#0099CC","#339933","#FF9933"]}},{"type":"Feature","geometry":{"type":"Point","coordinates":[-122.08696,37.6697]},"properties":{"name":"Hayward","stopId":"HAYW","system":"bart","routes":["6","4","5","3"],"colors":["#339933","#FF9933"]}},{"type":"Feature","geometry":{"type":"Point","coordinates":[-122.05718,37.63434]},"properties":{"name":"South Hayward","stopId":"SHAY","system":"bart","routes":["6","4","5","3"],"colors":["#339933","#FF9933"]}},{"type":"Feature","geometry":{"type":"Point","coordinates":[-122.01725,37.59074]},"properties":{"name":"Union City","stopId":"UCTY","system":"bart","routes":["6","4","5","3"],"colors":["#339933","#FF9933"]}},{"type":"Feature","geometry":{"type":"Point","coordinates":[-121.97662,37.55748]},"properties":{"name":"Fremont","stopId":"FRMT","system":"bart","routes":["6","4","5","3"],"colors":["#339933","#FF9933"]}},{"type":"Feature","geometry":{"type":"Point","coordinates":[-122.25123,37.84475]},"properties":{"name":"Rockridge","stopId":"ROCK","system":"bart","routes":["2","1"],"colors":["#FFFF33"]}},{"type":"Feature","geometry":{"type":"Point","coordinates":[-122.18367,37.87848]},"properties":{"name":"Orinda","stopId":"ORIN","system":"bart","routes":["2","1"],"colors":["#FFFF33"]}},{"type":"Feature","geometry":{"type":"Point","coordinates":[-122.12462,37.89318]},"properties":{"name":"Lafayette","stopId":"LAFY","system":"bart","routes":["2","1"],"colors":["#FFFF33"]}},{"type":"Feature","geometry":{"type":"Point","coordinates":[-122.06733,37.90579]},"properties":{"name":"Walnut Creek","stopId":"WCRK","system":"bart","routes":["2","1"],"colors":["#FFFF33"]}},{"type":"Feature","geometry":{"type":"Point","coordinates":[-122.05597,37.92843]},"properties":{"name":"Pleasant Hill / Contra Costa Centre","stopId":"PHIL","system":"bart","routes":["2","1"],"colors":["#FFFF33"]}},{"type":"Feature","geometry":{"type":"Point","coordinates":[-122.02907,37.97376]},"properties":{"name":"Concord","stopId":"CONC","system":"bart","routes":["2","1"],"colors":["#FFFF33"]}},{"type":"Feature","geometry":{"type":"Point","coordinates":[-122.02451,38.00338]},"properties":{"name":"North Concord / Martinez","stopId":"NCON","system":"bart","routes":["2","1"],"colors":["#FFFF33"]}},{"type":"Feature","geometry":{"type":"Point","coordinates":[-121.94424,38.01891]},"properties":{"name":"Pittsburg / Bay Point","stopId":"PITT","system":"bart","routes":["2","1"],"colors":["#FFFF33"]}},{"type":"Feature","geometry":{"type":"Point","coordinates":[-122.26977,37.85307]},"properties":{"name":"Ashby","stopId":"ASHB","system":"bart","routes":["8","3","7","4"],"colors":["#FF0000","#FF9933"]}},{"type":"Feature","geometry":{"type":"Point","coordinates":[-122.26811,37.87011]},"properties":{"name":"Downtown Berkeley","stopId":"DBRK","system":"bart","routes":["8","3","7","4"],"colors":["#FF0000","#FF9933"]}},{"type":"Feature","geometry":{"type":"Point","coordinates":[-122.28352,37.874]},"properties":{"name":"North Berkeley","stopId":"NBRK","system":"bart","routes":["8","3","7","4"],"colors":["#FF0000","#FF9933"]}},{"type":"Feature","geometry":{"type":"Point","coordinates":[-122.29892,37.90261]},"properties":{"name":"El Cerrito Plaza","stopId":"PLZA","system":"bart","routes":["8","3","7","4"],"colors":["#FF0000","#FF9933"]}},{"type":"Feature","geometry":{"type":"Point","coordinates":[-122.31689,37.92518]},"properties":{"name":"El Cerrito Del Norte","stopId":"DELN","system":"bart","routes":["8","3","7","4"],"colors":["#FF0000","#FF9933"]}},{"type":"Feature","geometry":{"type":"Point","coordinates":[-122.35305,37.93676]},"properties":{"name":"Richmond","stopId":"RICH","system":"bart","routes":["8","3","7","4"],"colors":["#FF0000","#FF9933"]}},{"type":"Feature","geometry":{"type":"Point","coordinates":[-122.0756,37.69074]},"properties":{"name":"Castro Valley","stopId":"CAST","system":"bart","routes":["12","11"],"colors":["#0099CC"]}},{"type":"Feature","geometry":{"type":"Point","coordinates":[-121.92828,37.69972]},"properties":{"name":"West Dublin / Pleasanton","stopId":"WDUB","system":"bart","routes":["12","11"],"colors":["#0099CC"]}},{"type":"Feature","geometry":{"type":"Point","coordinates":[-121.89923,37.70165]},"properties":{"name":"Dublin / Pleasanton","stopId":"DUBL","system":"bart","routes":["12","11"],"colors":["#0099CC"]}},{"type":"Feature","geometry":{"type":"Point","coordinates":[-122.46616,37.68464]},"properties":{"name":"Colma","stopId":"COLM","system":"bart","routes":["7","1","8","2"],"colors":["#FF0000","#FFFF33"]}},{"type":"Feature","geometry":{"type":"Point","coordinates":[-122.44421,37.66446]},"properties":{"name":"South San Francisco","stopId":"SSAN","system":"bart","routes":["7","1","8","2"],"colors":["#FF0000","#FFFF33"]}},{"type":"Feature","geometry":{"type":"Point","coordinates":[-122.41633,37.63773]},"properties":{"name":"San Bruno","stopId":"SBRN","system":"bart","routes":["7","1","8","2"],"colors":["#FF0000","#FFFF33"]}},{"type":"Feature","geometry":{"type":"Point","coordinates":[-122.38676,37.60024]},"properties":{"name":"Millbrae","stopId":"MLBR","system":"bart","routes":["8","7","2","1"],"colors":["#FF0000","#FFFF33"]}},{"type":"Feature","geometry":{"type":"Point","coordinates":[-122.39195,37.61609]},"properties":{"name":"San Francisco International Airport","stopId":"SFIA","system":"bart","routes":["2","1","8","7"],"colors":["#FFFF33","#FF0000"]}},{"type":"Feature","geometry":{"type":"Point","coordinates":[-122.21224,37.71326]},"properties":{"name":"Oakland International Airport","stopId":"OAKL","system":"bart","routes":["19","20"],"colors":["#B0BEC7"]}},{"type":"Feature","geometry":{"type":"Point","coordinates":[-121.88906,38.01685]},"properties":{"name":"Pittsburg Center","stopId":"PCTR","system":"bart","routes":["2","1"],"colors":["#FFFF33"]}},{"type":"Feature","geometry":{"type":"Point","coordinates":[-121.78035,37.99537]},"properties":{"name":"Antioch","stopId":"ANTC","system":"bart","routes":["2","1"],"colors":["#FFFF33"]}},{"type":"Feature","geometry":{"type":"Point","coordinates":[-121.9394,37.50229]},"properties":{"name":"Warm Springs / South Fremont","stopId":"WARM","system":"bart","routes":["6","4","5","3"],"colors":["#339933","#FF9933"]}},{"type":"Feature","geometry":{"type":"Point","coordinates":[-121.89108,37.41028]},"properties":{"name":"Milpitas","stopId":"MLPT","system":"bart","routes":["6","4","5","3"],"colors":["#339933","#FF9933"]}},{"type":"Feature","geometry":{"type":"Point","coordinates":[-121.87468,37.36847]},"properties":{"name":"Berryessa / North San Jose","stopId":"BERY","system":"bart","routes":["6","5","3","4"],"colors":["#339933","#FF9933"]}}]}