{"type":"FeatureCollection","features":[{"type":"Feature","geometry":{"type":"Point","coordinates":[-122.39249,37.75697]},"properties":{"name":"22nd Street Station","stopId":"22nd_street","system":"caltrain","routes":["77119","77120","77121","77122"],"colors":["#808080","#00A5B8","#CE202F"]}},{"type":"Feature","geometry":{"type":"Point","coordinates":[-122.40166,37.70766]},"properties":{"name":"Bayshore Station","stopId":"bayshore","system":"caltrain","routes":["77119","77120"],"colors":["#808080"]}},{"type":"Feature","geometry":{"type":"Point","coordinates":[-122.2763,37.52133]},"properties":{"name":"Belmont Station","stopId":"belmont","system":"caltrain","routes":["77119","77120"],"colors":["#808080"]}},{"type":"Feature","geometry":{"type":"Point","coordinates":[-121.79791,37.25261]},"properties":{"name":"Blossom Hill Caltrain Station","stopId":"blossom_hill","system":"caltrain","routes":["77123"],"colors":["#E8A317"]}},{"type":"Feature","geometry":{"type":"Point","coordinates":[-122.362,37.58726]},"properties":{"name":"Broadway Station","stopId":"broadway","system":"caltrain","routes":["77120"],"colors":["#808080"]}},{"type":"Feature","geometry":{"type":"Point","coordinates":[-122.34418,37.57985]},"properties":{"name":"Burlingame Station","stopId":"burlingame","system":"caltrain","routes":["77119","77120"],"colors":["#808080"]}},{"type":"Feature","geometry":{"type":"Point","coordinates":[-122.14113,37.42883]},"properties":{"name":"California Avenue Station","stopId":"california_ave","system":"caltrain","routes":["77119","77120","77121"],"colors":["#808080","#00A5B8"]}},{"type":"Feature","geometry":{"type":"Point","coordinates":[-121.8419,37.28402]},"properties":{"name":"Capitol Caltrain Station","stopId":"capitol","system":"caltrain","routes":["77123"],"colors":["#E8A317"]}},{"type":"Feature","geometry":{"type":"Point","coordinates":[-121.91565,37.34289]},"properties":{"name":"College Park Station","stopId":"college_park","system":"caltrain","routes":["77119"],"colors":["#808080"]}},{"type":"Feature","geometry":{"type":"Point","coordinates":[-121.56673,37.00447]},"properties":{"name":"Gilroy Station","stopId":"gilroy","system":"caltrain","routes":["77123"],"colors":["#E8A317"]}},{"type":"Feature","geometry":{"type":"Point","coordinates":[-122.30949,37.55316]},"properties":{"name":"Hayward Park Station","stopId":"hayward_park","system":"caltrain","routes":["77119","77120"],"colors":["#808080"]}},{"type":"Feature","geometry":{"type":"Point","coordinates":[-122.30161,37.54239]},"properties":{"name":"Hillsdale Station","stopId":"hillsdale","system":"caltrain","routes":["77119","77120","77121","77122"],"colors":["#808080","#00A5B8","#CE202F"]}},{"type":"Feature","geometry":{"type":"Point","coordinates":[-121.9969,37.3707]},"properties":{"name":"Lawrence Station","stopId":"lawrence","system":"caltrain","routes":["77119","77120","77121"],"colors":["#808080","#00A5B8"]}},{"type":"Feature","geometry":{"type":"Point","coordinates":[-122.18245,37.4548]},"properties":{"name":"Menlo Park Station","stopId":"menlo_park","system":"caltrain","routes":["77119","77120","77121"],"colors":["#808080","#00A5B8"]}},{"type":"Feature","geometry":{"type":"Point","coordinates":[-121.65056,37.12964]},"properties":{"name":"Morgan Hill Station","stopId":"morgan_hill","system":"caltrain","routes":["77123"],"colors":["#E8A317"]}},{"type":"Feature","geometry":{"type":"Point","coordinates":[-122.07722,37.39507]},"properties":{"name":"Mountain View Station","stopId":"mountain_view","system":"caltrain","routes":["77119","77120","77121","77122"],"colors":["#808080","#00A5B8","#CE202F"]}},{"type":"Feature","geometry":{"type":"Point","coordinates":[-122.16429,37.44322]},"properties":{"name":"Palo Alto Station","stopId":"palo_alto","system":"caltrain","routes":["77119","77120","77121","77122"],"colors":["#808080","#00A5B8","#CE202F"]}},{"type":"Feature","geometry":{"type":"Point","coordinates":[-122.38675,37.5999]},"properties":{"name":"Millbrae","stopId":"place_MLBR","system":"caltrain","routes":["77119","77120","77121","77122"],"colors":["#808080","#00A5B8","#CE202F"]}},{"type":"Feature","geometry":{"type":"Point","coordinates":[-122.2315,37.48586]},"properties":{"name":"Redwood City Station","stopId":"redwood_city","system":"caltrain","routes":["77119","77120","77121","77122"],"colors":["#808080","#00A5B8","#CE202F"]}},{"type":"Feature","geometry":{"type":"Point","coordinates":[-122.10712,37.40724]},"properties":{"name":"San Antonio Station","stopId":"san_antonio","system":"caltrain","routes":["77119","77120","77121"],"colors":["#808080","#00A5B8"]}},{"type":"Feature","geometry":{"type":"Point","coordinates":[-122.41171,37.63046]},"properties":{"name":"San Bruno Caltrain Station","stopId":"san_bruno","system":"caltrain","routes":["77119","77120"],"colors":["#808080"]}},{"type":"Feature","geometry":{"type":"Point","coordinates":[-122.2602,37.50803]},"properties":{"name":"San Carlos Station","stopId":"san_carlos","system":"caltrain","routes":["77119","77120"],"colors":["#808080"]}},{"type":"Feature","geometry":{"type":"Point","coordinates":[-122.39491,37.7764]},"properties":{"name":"San Francisco Caltrain Station","stopId":"san_francisco","system":"caltrain","routes":["77119","77120","77121","77122"],"colors":["#808080","#00A5B8","#CE202F"]}},{"type":"Feature","geometry":{"type":"Point","coordinates":[-121.61048,37.08598]},"properties":{"name":"San Martin Station","stopId":"san_martin","system":"caltrain","routes":["77123"],"colors":["#E8A317"]}},{"type":"Feature","geometry":{"type":"Point","coordinates":[-122.3239,37.56824]},"properties":{"name":"San Mateo Station","stopId":"san_mateo","system":"caltrain","routes":["77119","77120","77121","77122"],"colors":["#808080","#00A5B8","#CE202F"]}},{"type":"Feature","geometry":{"type":"Point","coordinates":[-121.93646,37.35338]},"properties":{"name":"Santa Clara Caltrain Station","stopId":"santa_clara","system":"caltrain","routes":["77119","77120","77121"],"colors":["#808080","#00A5B8"]}},{"type":"Feature","geometry":{"type":"Point","coordinates":[-121.90321,37.32969]},"properties":{"name":"San Jose Diridon Station","stopId":"sj_diridon","system":"caltrain","routes":["77119","77120","77123","77121","77122"],"colors":["#808080","#E8A317","#00A5B8","#CE202F"]}},{"type":"Feature","geometry":{"type":"Point","coordinates":[-122.40498,37.65594]},"properties":{"name":"South San Francisco Caltrain Station","stopId":"south_sf","system":"caltrain","routes":["77119","77120","77121","77122"],"colors":["#808080","#00A5B8","#CE202F"]}},{"type":"Feature","geometry":{"type":"Point","coordinates":[-122.0315,37.37893]},"properties":{"name":"Sunnyvale Station","stopId":"sunnyvale","system":"caltrain","routes":["77119","77120","77121","77122"],"colors":["#808080","#00A5B8","#CE202F"]}},{"type":"Feature","geometry":{"type":"Point","coordinates":[-121.8847,37.31269]},"properties":{"name":"Tamien Caltrain Station","stopId":"tamien","system":"caltrain","routes":["77119","77123","77120"],"colors":["#808080","#E8A317"]}}]}