{"type":"FeatureCollection","features":[{"type":"Feature","geometry":{"type":"LineString","coordinates":[[-122.39472,37.7762],[-122.39646,37.7749],[-122.39922,37.773],[-122.39983,37.77235],[-122.40009,37.77168],[-122.40008,37.77108],[-122.39997,37.77072],[-122.39771,37.76893],[-122.39551,37.76755],[-122.39445,37.7667],[-122.39347,37.7656],[-122.39305,37.76493],[-122.39272,37.76409],[-122.39264,37.76366],[-122.39252,37.76284],[-122.39246,37.76203],[-122.39233,37.76117],[-122.39227,37.76029],[-122.39222,37.75969],[-122.3922,37.75878],[-122.39214,37.75812],[-122.39214,37.75759],[-122.39211,37.75757],[-122.39245,37.7541],[-122.39294,37.75049],[-122.39339,37.74731],[-122.39379,37.74425],[-122.39427,37.7407],[-122.39463,37.73798],[-122.39505,37.73508],[-122.39578,37.72976],[-122.39621,37.72655],[-122.39653,37.72446],[-122.39709,37.72273],[-122.39817,37.71974],[-122.39857,37.71863],[-122.3994,37.7162],[-122.40072,37.71261],[-122.40139,37.71017],[-122.40145,37.70948],[-122.40146,37.7095],[-122.40147,37.70844],[-122.40145,37.7076],[-122.40143,37.70668],[-122.40144,37.70559],[-122.40146,37.70271],[-122.40148,37.70139],[-122.4015,37.69884],[-122.40151,37.69635],[-122.40149,37.69442],[-122.40141,37.69363],[-122.40136,37.6933],[-122.40109,37.69207],[-122.40082,37.69121],[-122.4002,37.68982],[-122.39923,37.68813],[-122.39883,37.6876],[-122.39816,37.68677],[-122.39754,37.68602],[-122.39627,37.68448],[-122.39502,37.683],[-122.39187,37.67922],[-122.39103,37.67826],[-122.39053,37.67754],[-122.39013,37.6769],[-122.38986,37.67629],[-122.38968,37.67568],[-122.38952,37.67518],[-122.38948,37.67383],[-122.38949,37.6731],[-122.3897,37.67226],[-122.39006,37.67133],[-122.39076,37.67026],[-122.39268,37.66824],[-122.3937,37.66716],[-122.39558,37.66516],[-122.39631,37.66444],[-122.39743,37.66319],[-122.39938,37.6613],[-122.40041,37.66025],[-122.40373,37.65684],[-122.40472,37.65577],[-122.4048,37.65578],[-122.40497,37.65566],[-122.40517,37.6555],[-122.40588,37.65486],[-122.40681,37.65392],[-122.40714,37.6536],[-122.40755,37.65314],[-122.40932,37.65098],[-122.41012,37.65007],[-122.41115,37.64863],[-122.41143,37.6482],[-122.41211,37.64691],[-122.41245,37.6461],[-122.41299,37.64426],[-122.41313,37.64228],[-122.41314,37.6407],[-122.41312,37.63986],[-122.41311,37.63927],[-122.41309,37.63869],[-122.4131,37.63804],[-122.4131,37.63723],[-122.41304,37.6359],[-122.41298,37.6344],[-122.41298,37.63409],[-122.41294,37.63344],[-122.41275,37.63257],[-122.41265,37.63228],[-122.41208,37.63123],[-122.41165,37.63048],[-122.41167,37.63051],[-122.41135,37.62996],[-122.4102,37.62796],[-122.40943,37.62666],[-122.40861,37.62534],[-122.40793,37.62436],[-122.40781,37.62421],[-122.4069,37.62298],[-122.40633,37.62196],[-122.40593,37.62116],[-122.40487,37.61964],[-122.40436,37.61897],[-122.40333,37.6176],[-122.40284,37.61693],[-122.40223,37.61614],[-122.40162,37.61534],[-122.40073,37.61419],[-122.39978,37.61288],[-122.39905,37.612],[-122.39861,37.61153],[-122.39725,37.61019],[-122.39653,37.60945],[-122.39552,37.60849],[-122.39468,37.60769],[-122.3934,37.60643],[-122.39145,37.60452],[-122.38961,37.60268],[-122.38819,37.60129],[-122.3868,37.59989],[-122.38675,37.59982],[-122.38675,37.59983],[-122.38433,37.59748],[-122.38349,37.59674],[-122.38199,37.59576],[-122.38054,37.5951],[-122.37375,37.59224],[-122.3679,37.58977],[-122.36271,37.58758],[-122.36271,37.58756],[-122.36261,37.5875],[-122.35946,37.58618],[-122.35626,37.58486],[-122.35315,37.58348],[-122.35074,37.58249],[-122.34883,37.58165],[-122.34541,37.58019],[-122.34517,37.58007],[-122.34517,37.58005],[-122.34498,37.57997],[-122.34289,37.57912],[-122.34086,37.57826],[-122.33876,37.57735],[-122.33475,37.57566],[-122.33356,37.57521],[-122.33237,37.57464],[-122.33107,37.57398],[-122.33075,37.57374],[-122.32979,37.57316],[-122.32886,37.57246],[-122.32738,37.57121],[-122.32591,37.56989],[-122.32419,37.56825],[-122.32414,37.56823],[-122.32392,37.56804],[-122.32254,37.56681],[-122.32087,37.56524],[-122.31877,37.56332],[-122.31748,37.56213],[-122.31543,37.56024],[-122.31389,37.5588],[-122.31192,37.55695],[-122.31129,37.55614],[-122.31049,37.55469],[-122.30968,37.55297],[-122.30975,37.55295],[-122.30951,37.5526],[-122.30906,37.55169],[-122.30864,37.55095],[-122.30743,37.54927],[-122.3062,37.5478],[-122.30464,37.54594],[-122.30382,37.54497],[-122.30312,37.54416],[-122.3025,37.54345],[-122.30192,37.54275],[-122.30179,37.54248],[-122.30151,37.5423],[-122.3005,37.54117],[-122.29972,37.54027],[-122.29902,37.53953],[-122.29812,37.53859],[-122.29719,37.53763],[-122.29645,37.53683],[-122.29549,37.53578],[-122.29451,37.53487],[-122.29346,37.53402],[-122.29189,37.53282],[-122.28957,37.53117],[-122.28704,37.52948],[-122.28417,37.52754],[-122.27994,37.52431],[-122.27582,37.52084],[-122.27577,37.52091],[-122.27163,37.51745],[-122.26963,37.51599],[-122.26768,37.51455],[-122.26015,37.50803],[-122.26018,37.50803],[-122.25981,37.50775],[-122.25853,37.50663],[-122.25745,37.50566],[-122.2561,37.50451],[-122.25471,37.50333],[-122.25204,37.50104],[-122.24977,37.49905],[-122.24785,37.49737],[-122.24588,37.49562],[-122.2435,37.49363],[-122.24152,37.49229],[-122.23932,37.49086],[-122.23714,37.48945],[-122.23492,37.48801],[-122.23262,37.48651],[-122.23202,37.48611],[-122.23202,37.48607],[-122.23128,37.48557],[-122.22895,37.48405],[-122.22641,37.48246],[-122.2244,37.48121],[-122.22229,37.47983],[-122.22064,37.47877],[-122.21889,37.47761],[-122.21789,37.47699],[-122.21519,37.47529],[-122.21368,37.47436],[-122.21141,37.47289],[-122.20948,37.4717],[-122.20622,37.46963],[-122.20418,37.46835],[-122.20219,37.46707],[-122.20016,37.46582],[-122.19812,37.46455],[-122.19713,37.4639],[-122.19403,37.46196],[-122.19219,37.46084],[-122.18948,37.45909],[-122.18648,37.45722],[-122.18357,37.45541],[-122.18244,37.45473],[-122.18239,37.45473],[-122.18071,37.45369],[-122.17804,37.45202],[-122.17588,37.45067],[-122.17328,37.44902],[-122.171,37.4476],[-122.16953,37.44674],[-122.168,37.44564],[-122.16547,37.44396],[-122.16466,37.44345],[-122.16465,37.44343],[-122.16303,37.44238],[-122.16177,37.44159],[-122.16044,37.4409],[-122.15905,37.44014],[-122.15783,37.43941],[-122.15613,37.43834],[-122.15414,37.43707],[-122.15169,37.43551],[-122.1492,37.43393],[-122.14795,37.43313],[-122.14545,37.43154],[-122.14306,37.43005],[-122.1424,37.42964],[-122.14195,37.42935],[-122.14197,37.42935],[-122.13999,37.42812],[-122.13798,37.42685],[-122.13548,37.4253],[-122.13296,37.4237],[-122.13164,37.42285],[-122.12879,37.42107],[-122.12734,37.42016],[-122.12527,37.41881],[-122.1233,37.41756],[-122.12099,37.41607],[-122.11865,37.41456],[-122.11664,37.41329],[-122.1152,37.41236],[-122.11137,37.40991],[-122.10843,37.40806],[-122.1072,37.40721],[-122.10722,37.40719],[-122.10716,37.4071],[-122.10586,37.4063],[-122.10456,37.40554],[-122.10216,37.40453],[-122.09766,37.40271],[-122.09195,37.40044],[-122.08974,37.39954],[-122.08587,37.398],[-122.08237,37.39663],[-122.07822,37.39498],[-122.07627,37.39423],[-122.07617,37.39421],[-122.07613,37.39419],[-122.07132,37.3923],[-122.06862,37.39126],[-122.0658,37.39013],[-122.06309,37.38908],[-122.05941,37.3879],[-122.05258,37.38565],[-122.04737,37.38391],[-122.0444,37.383],[-122.04104,37.38191],[-122.03737,37.38071],[-122.03356,37.37945],[-122.03144,37.37877],[-122.03146,37.37876],[-122.02982,37.37822],[-122.02576,37.37696],[-122.02399,37.3764],[-122.02053,37.37524],[-122.01718,37.37422],[-122.0139,37.3735],[-122.01044,37.37285],[-122.00709,37.37214],[-122.0027,37.37127],[-122.00009,37.37082],[-121.99732,37.3706],[-121.99711,37.3706],[-121.99714,37.37057],[-121.99699,37.37056],[-121.99511,37.3705],[-121.99044,37.37054],[-121.98667,37.37056],[-121.98239,37.3706],[-121.97883,37.37053],[-121.97677,37.37032],[-121.97454,37.36986],[-121.97277,37.36929],[-121.96902,37.36769],[-121.96579,37.36626],[-121.9624,37.36475],[-121.95952,37.36356],[-121.95592,37.36194],[-121.95363,37.36092],[-121.94929,37.35903],[-121.94733,37.35817],[-121.9422,37.35595],[-121.93826,37.35424],[-121.93626,37.35326],[-121.93616,37.35321],[-121.93617,37.35314],[-121.93428,37.35224],[-121.93217,37.35114],[-121.9297,37.34985],[-121.92678,37.34838],[-121.92519,37.34758],[-121.92284,37.34639],[-121.92013,37.34503],[-121.91783,37.34387],[-121.91556,37.34276],[-121.91306,37.34146],[-121.91207,37.34116],[-121.91123,37.34094],[-121.91044,37.34055],[-121.9101,37.34036],[-121.90964,37.34005],[-121.90874,37.33915],[-121.90838,37.3387],[-121.90786,37.33767],[-121.90748,37.3371],[-121.9068,37.33647],[-121.9047,37.33474],[-121.90375,37.33389],[-121.90334,37.33332],[-121.90316,37.33283],[-121.90292,37.33137],[-121.90275,37.32925],[-121.90264,37.32928],[-121.90248,37.32815],[-121.90219,37.32564],[-121.90202,37.32418],[-121.90166,37.32331],[-121.9009,37.32236],[-121.89944,37.32107],[-121.89848,37.32022],[-121.89732,37.31946],[-121.89631,37.31911],[-121.89534,37.31894],[-121.89146,37.31875],[-121.89051,37.31863],[-121.88936,37.31831],[-121.88805,37.31773],[-121.88705,37.31694],[-121.88642,37.31618],[-121.88488,37.31426],[-121.88369,37.31272],[-121.88323,37.31214]]},"properties":{"routeId":"77120","name":"Local Weekend","shortName":"Local Weekend","color":"#808080","textColor":"#000000","system":"caltrain"}},{"type":"Feature","geometry":{"type":"LineString","coordinates":[[-122.39355,37.77522],[-122.39532,37.7739],[-122.39804,37.77203],[-122.39832,37.77173],[-122.39841,37.77147],[-122.39838,37.77121],[-122.39868,37.77161],[-122.39657,37.76993],[-122.39439,37.76857],[-122.39314,37.76756],[-122.39202,37.76631],[-122.39146,37.76542],[-122.39107,37.76442],[-122.39096,37.76382],[-122.39083,37.76295],[-122.39078,37.76214],[-122.39066,37.76127],[-122.39061,37.76035],[-122.39057,37.75973],[-122.39056,37.75882],[-122.39051,37.75815],[-122.39053,37.75757],[-122.39053,37.75748],[-122.39081,37.75487],[-122.39125,37.75162],[-122.3923,37.74415],[-122.39301,37.73896],[-122.39422,37.73008],[-122.39491,37.72547],[-122.39562,37.72265],[-122.39968,37.71148],[-122.40014,37.70964],[-122.40018,37.70121],[-122.40027,37.69774],[-122.40007,37.69395],[-122.39934,37.69121],[-122.39745,37.68796],[-122.39109,37.68047],[-122.38916,37.67816],[-122.38804,37.6753],[-122.38828,37.67199],[-122.39025,37.66899],[-122.40368,37.65514],[-122.40343,37.65537],[-122.40379,37.65494],[-122.40399,37.65474],[-122.40465,37.65411],[-122.40552,37.65317],[-122.4058,37.65286],[-122.40617,37.65243],[-122.40792,37.65026],[-122.40868,37.64938],[-122.40967,37.64798],[-122.40988,37.64766],[-122.41052,37.64643],[-122.4108,37.64576],[-122.4113,37.64407],[-122.41143,37.64224],[-122.41144,37.6407],[-122.41142,37.63988],[-122.41141,37.6393],[-122.41139,37.6387],[-122.4114,37.63803],[-122.4114,37.63726],[-122.41134,37.63595],[-122.41128,37.63444],[-122.41128,37.63413],[-122.41125,37.6336],[-122.41108,37.63283],[-122.41108,37.63279],[-122.4102,37.63122],[-122.4098,37.63052],[-122.40865,37.62852],[-122.4079,37.62724],[-122.4071,37.62596],[-122.40645,37.62502],[-122.40635,37.6249],[-122.40539,37.6236],[-122.40476,37.62248],[-122.40441,37.62176],[-122.40339,37.62031],[-122.4029,37.61966],[-122.40186,37.61828],[-122.40138,37.61762],[-122.40078,37.61684],[-122.40017,37.61604],[-122.39927,37.61488],[-122.39833,37.61358],[-122.39765,37.61276],[-122.39728,37.61236],[-122.39592,37.61102],[-122.39522,37.61029],[-122.39423,37.60934],[-122.39339,37.60852],[-122.39212,37.60725],[-122.39018,37.60533],[-122.38836,37.60348],[-122.38695,37.60207],[-122.38557,37.60064],[-122.38532,37.59943],[-122.3857,37.60055],[-122.38433,37.59931],[-122.38306,37.59796],[-122.38211,37.59722],[-122.38107,37.59651],[-122.37859,37.59546],[-122.37543,37.59402],[-122.37108,37.59221],[-122.36652,37.59025],[-122.36312,37.58884],[-122.36025,37.58764],[-122.35204,37.58422],[-122.34647,37.58183],[-122.34406,37.58085],[-122.34257,37.58024],[-122.3412,37.5797],[-122.33951,37.579],[-122.33771,37.57829],[-122.33583,37.57756],[-122.33284,37.57626],[-122.33201,37.57593],[-122.33099,37.57549],[-122.3294,37.57465],[-122.32758,37.57332],[-122.32521,37.5712],[-122.32295,37.56907],[-122.32226,37.56851],[-122.32165,37.56795],[-122.32087,37.56725],[-122.32007,37.56652],[-122.31933,37.56585],[-122.31883,37.5654],[-122.31828,37.56489],[-122.31783,37.56449],[-122.31739,37.56409],[-122.31696,37.5637],[-122.31589,37.56272],[-122.31487,37.56184],[-122.31379,37.5608],[-122.31243,37.55956],[-122.31121,37.55842],[-122.31037,37.55754],[-122.30978,37.55674],[-122.30941,37.55621],[-122.30897,37.55537],[-122.30846,37.5544],[-122.30811,37.55359],[-122.30747,37.55223],[-122.30716,37.55157],[-122.30676,37.551],[-122.30631,37.55038],[-122.30494,37.54874],[-122.30382,37.54741],[-122.3031,37.54654],[-122.30172,37.54491],[-122.30111,37.5442],[-122.3004,37.54332],[-122.30042,37.54327],[-122.29995,37.54288],[-122.29936,37.5422],[-122.29775,37.54045],[-122.29638,37.53894],[-122.2946,37.53707],[-122.29355,37.53593],[-122.29243,37.53517],[-122.29116,37.53413],[-122.2904,37.53347],[-122.28992,37.53312],[-122.28834,37.53197],[-122.28616,37.5305],[-122.28341,37.52863],[-122.28146,37.52722],[-122.27969,37.52582],[-122.27666,37.52322],[-122.27484,37.52169],[-122.27153,37.51892],[-122.26878,37.51687],[-122.26614,37.51483],[-122.26404,37.51304],[-122.26224,37.51149],[-122.26065,37.51014],[-122.25894,37.50863],[-122.25801,37.50784],[-122.25709,37.50705],[-122.25356,37.50396],[-122.24796,37.49904],[-122.24506,37.49662],[-122.2435,37.49523],[-122.2425,37.49453],[-122.24092,37.49331],[-122.23107,37.48702],[-122.23113,37.48711],[-122.23028,37.48657],[-122.22794,37.48506],[-122.2254,37.48349],[-122.22338,37.48224],[-122.22124,37.48086],[-122.21958,37.4798],[-122.21783,37.47865],[-122.21685,37.47804],[-122.21415,37.47634],[-122.21263,37.47541],[-122.21035,37.47395],[-122.20842,37.47276],[-122.20516,37.47068],[-122.20313,37.4694],[-122.20113,37.46813],[-122.19912,37.46688],[-122.19706,37.4656],[-122.19607,37.46495],[-122.19298,37.46302],[-122.19113,37.46189],[-122.18842,37.46014],[-122.18543,37.45828],[-122.18251,37.45647],[-122.18138,37.45579],[-122.18134,37.45578],[-122.17965,37.45475],[-122.17698,37.45307],[-122.17482,37.45172],[-122.17222,37.45007],[-122.16996,37.44866],[-122.16845,37.44777],[-122.16689,37.44666],[-122.16439,37.44499],[-122.16359,37.44449],[-122.16357,37.44447],[-122.16197,37.44343],[-122.16078,37.44268],[-122.15949,37.44202],[-122.15806,37.44123],[-122.15679,37.44047],[-122.15507,37.43939],[-122.15308,37.43812],[-122.15063,37.43656],[-122.14814,37.43498],[-122.14689,37.43418],[-122.1444,37.4326],[-122.14201,37.43111],[-122.14134,37.4307],[-122.14085,37.43038],[-122.14092,37.43041],[-122.13894,37.42918],[-122.13693,37.42791],[-122.13443,37.42636],[-122.1319,37.42475],[-122.13058,37.42391],[-122.12774,37.42213],[-122.12627,37.42121],[-122.12421,37.41986],[-122.12224,37.41861],[-122.11993,37.41711],[-122.1176,37.41561],[-122.1156,37.41435],[-122.11414,37.41342],[-122.11032,37.41096],[-122.10738,37.40911],[-122.10612,37.40825],[-122.10617,37.40825],[-122.10614,37.40818],[-122.10486,37.40739],[-122.10371,37.40671],[-122.10139,37.40573],[-122.0969,37.40392],[-122.09119,37.40164],[-122.08898,37.40074],[-122.08512,37.3992],[-122.08162,37.39783],[-122.07746,37.39619],[-122.07552,37.39544],[-122.07522,37.39532],[-122.07537,37.39539],[-122.07056,37.39351],[-122.06786,37.39246],[-122.06504,37.39134],[-122.0624,37.39031],[-122.05877,37.38914],[-122.05192,37.3869],[-122.04672,37.38515],[-122.04376,37.38425],[-122.04039,37.38315],[-122.03671,37.38195],[-122.0329,37.38069],[-122.03077,37.38001],[-122.03076,37.37998],[-122.02918,37.37947],[-122.02513,37.37821],[-122.02333,37.37764],[-122.01989,37.37649],[-122.01664,37.37549],[-122.01348,37.37481],[-122.01003,37.37415],[-122.00667,37.37344],[-122.00231,37.37258],[-121.99983,37.37215],[-121.99716,37.37194],[-121.99676,37.37192],[-121.99648,37.37181],[-121.99692,37.37191],[-121.9951,37.37185],[-121.99046,37.37189],[-121.98669,37.37191],[-121.98238,37.37195],[-121.97872,37.37187],[-121.97644,37.37164],[-121.97402,37.37114],[-121.97202,37.3705],[-121.96821,37.36887],[-121.96497,37.36743],[-121.9616,37.36594],[-121.95871,37.36474],[-121.95509,37.36311],[-121.95281,37.3621],[-121.94848,37.36021],[-121.94652,37.35936],[-121.94139,37.35713],[-121.93742,37.35541],[-121.93538,37.3544],[-121.93479,37.354],[-121.93527,37.35427],[-121.93338,37.35338],[-121.93124,37.35227],[-121.92879,37.35099],[-121.92588,37.34952],[-121.92428,37.34872],[-121.92193,37.34753],[-121.91922,37.34616],[-121.91693,37.34501],[-121.91465,37.3439],[-121.91221,37.34263],[-121.91149,37.34243],[-121.91051,37.34216],[-121.9095,37.34168],[-121.90903,37.3414],[-121.90837,37.34093],[-121.90738,37.33993],[-121.90686,37.33924],[-121.90635,37.33817],[-121.90612,37.3378],[-121.90563,37.33731],[-121.90355,37.33557],[-121.90251,37.33456],[-121.90197,37.3337],[-121.90178,37.33296],[-121.90159,37.33143],[-121.90148,37.32928]]},"properties":{"routeId":"77121","name":"Limited","shortName":"Limited","color":"#00A5B8","textColor":"#000000","system":"caltrain"}},{"type":"Feature","geometry":{"type":"LineString","coordinates":[[-122.3959,37.77719],[-122.3976,37.7759],[-122.4004,37.77397],[-122.40134,37.77297],[-122.40177,37.77189],[-122.40178,37.77095],[-122.40126,37.76983],[-122.39885,37.76793],[-122.39663,37.76653],[-122.39576,37.76584],[-122.39491,37.76489],[-122.39463,37.76444],[-122.39437,37.76377],[-122.39433,37.7635],[-122.39421,37.76273],[-122.39415,37.76192],[-122.39401,37.76107],[-122.39395,37.76023],[-122.39389,37.75966],[-122.39386,37.75874],[-122.39378,37.75808],[-122.39375,37.75761],[-122.39372,37.7577],[-122.39395,37.75491],[-122.39434,37.7519],[-122.39454,37.75023],[-122.39478,37.74845],[-122.39503,37.74644],[-122.39525,37.74479],[-122.39558,37.74235],[-122.39588,37.74028],[-122.39612,37.73867],[-122.39636,37.73684],[-122.39729,37.73041],[-122.39756,37.72845],[-122.39797,37.72562],[-122.39816,37.72482],[-122.39838,37.72406],[-122.39863,37.72334],[-122.39934,37.72151],[-122.40271,37.71214],[-122.40315,37.7105],[-122.40336,37.70934],[-122.40337,37.70675],[-122.40335,37.70086],[-122.40338,37.69541],[-122.40325,37.69389],[-122.40298,37.69238],[-122.40252,37.69092],[-122.40182,37.68926],[-122.40078,37.68752],[-122.39934,37.68563],[-122.39603,37.68168],[-122.39402,37.67936],[-122.39315,37.67829],[-122.39265,37.67772],[-122.39212,37.67702],[-122.39176,37.67642],[-122.39147,37.67579],[-122.39133,37.67532],[-122.39122,37.67488],[-122.3912,37.67415],[-122.39123,37.67347],[-122.39135,37.67287],[-122.3916,37.6722],[-122.39206,37.67134],[-122.39256,37.67071],[-122.39307,37.67012],[-122.39341,37.66974],[-122.39412,37.66899],[-122.39506,37.66795],[-122.39671,37.66623],[-122.39974,37.66307],[-122.40272,37.65998],[-122.40413,37.6585],[-122.40528,37.65728],[-122.406,37.6566],[-122.40603,37.65661],[-122.4069,37.65579],[-122.40798,37.65464],[-122.40951,37.65294],[-122.41013,37.65228],[-122.41104,37.65118],[-122.41164,37.6505],[-122.41258,37.64918],[-122.4131,37.64834],[-122.41377,37.64709],[-122.41415,37.64604],[-122.41442,37.64512],[-122.41474,37.64361],[-122.41481,37.64251],[-122.41482,37.64147],[-122.41478,37.63807],[-122.41474,37.63549],[-122.41474,37.63478],[-122.41469,37.63382],[-122.41462,37.63322],[-122.41447,37.63261],[-122.41424,37.63197],[-122.41385,37.63111],[-122.41283,37.62935],[-122.41201,37.62791],[-122.41095,37.62605],[-122.40946,37.62349],[-122.40867,37.62216],[-122.40805,37.62126],[-122.40742,37.62042],[-122.40635,37.61901],[-122.4053,37.61771],[-122.40377,37.61569],[-122.40189,37.61314],[-122.40112,37.61214],[-122.40077,37.61168],[-122.40036,37.61119],[-122.39945,37.61026],[-122.39865,37.60948],[-122.39686,37.6077],[-122.39454,37.60543],[-122.3918,37.60276],[-122.38983,37.60084],[-122.38888,37.59992],[-122.3879,37.59897],[-122.38777,37.59902],[-122.38524,37.59685],[-122.38416,37.59569],[-122.38312,37.59507],[-122.38226,37.5946],[-122.37986,37.59356],[-122.37671,37.59225],[-122.37351,37.59087],[-122.37079,37.58973],[-122.36227,37.58619],[-122.35775,37.58426],[-122.35393,37.58268],[-122.34625,37.57934],[-122.33805,37.5759],[-122.33233,37.5734],[-122.33112,37.57265],[-122.32985,37.57164],[-122.32675,37.5689],[-122.32507,37.56727],[-122.32026,37.56275],[-122.31645,37.55949],[-122.31364,37.55673],[-122.31329,37.55635],[-122.31264,37.55555],[-122.31199,37.55445],[-122.31138,37.55318],[-122.30982,37.55013],[-122.30832,37.54815],[-122.30291,37.54186],[-122.30117,37.53975],[-122.29985,37.53826],[-122.29844,37.53678],[-122.29739,37.53558],[-122.29622,37.53442],[-122.29546,37.53379],[-122.29236,37.53134],[-122.29059,37.53014],[-122.28931,37.5293],[-122.28813,37.52855],[-122.28718,37.52795],[-122.28622,37.5273],[-122.2854,37.52675],[-122.28441,37.52613],[-122.28364,37.52561],[-122.28272,37.52491],[-122.28157,37.52397],[-122.2799,37.52262],[-122.27913,37.52197],[-122.2784,37.52133],[-122.27632,37.51971],[-122.27532,37.51887],[-122.27288,37.5169],[-122.27185,37.51612],[-122.27088,37.5154],[-122.26991,37.51471],[-122.26924,37.51425],[-122.26845,37.5136],[-122.26732,37.51264],[-122.26661,37.51202],[-122.26582,37.51133],[-122.26504,37.51065],[-122.2643,37.50996],[-122.26352,37.50923],[-122.26228,37.50822],[-122.26151,37.50748],[-122.26035,37.50645],[-122.25944,37.50565],[-122.25881,37.50507],[-122.25788,37.50422],[-122.25675,37.50322],[-122.25595,37.50254],[-122.25507,37.50177],[-122.25357,37.50048],[-122.25161,37.49876],[-122.249,37.49653],[-122.24671,37.49451],[-122.24553,37.49349],[-122.24296,37.49159],[-122.24039,37.48998],[-122.23896,37.48905],[-122.23764,37.48822],[-122.23287,37.48523],[-122.23192,37.48459],[-122.22118,37.47782],[-122.21926,37.47657],[-122.21723,37.47526],[-122.21599,37.47442],[-122.21412,37.47321],[-122.21242,37.47211],[-122.20756,37.46902],[-122.20509,37.46748],[-122.2033,37.46635],[-122.20233,37.46573],[-122.19155,37.45889],[-122.18869,37.45708],[-122.18705,37.45606],[-122.18458,37.45446],[-122.18396,37.45409],[-122.18218,37.45297],[-122.17995,37.45156],[-122.17736,37.44992],[-122.17457,37.44816],[-122.17125,37.44605],[-122.16949,37.44491],[-122.16865,37.44433],[-122.16812,37.44394],[-122.16759,37.44358],[-122.1663,37.44272],[-122.16566,37.44241],[-122.16421,37.44141],[-122.16224,37.44028],[-122.16025,37.43913],[-122.15895,37.43833],[-122.15744,37.43739],[-122.15612,37.43654],[-122.15384,37.43511],[-122.1525,37.43429],[-122.15095,37.43328],[-122.14977,37.43255],[-122.14861,37.43184],[-122.14654,37.43053],[-122.14526,37.42971],[-122.14436,37.42914],[-122.1432,37.4284],[-122.14194,37.42762],[-122.14103,37.42705],[-122.1394,37.42602],[-122.13832,37.42529],[-122.13757,37.42481],[-122.13624,37.424],[-122.13492,37.42319],[-122.1337,37.42244],[-122.13211,37.42143],[-122.13071,37.42056],[-122.12929,37.41969],[-122.12813,37.41893],[-122.12662,37.41801],[-122.12516,37.41711],[-122.12366,37.41617],[-122.12244,37.41543],[-122.12076,37.41434],[-122.11721,37.41216],[-122.11508,37.41082],[-122.11354,37.40985],[-122.11199,37.4089],[-122.10845,37.40669],[-122.10651,37.40552],[-122.1043,37.40443],[-122.07659,37.39346],[-122.07656,37.39346],[-122.07523,37.39298],[-122.07344,37.39228],[-122.0721,37.39178],[-122.06985,37.39092],[-122.06768,37.3901],[-122.06527,37.38914],[-122.06374,37.38854],[-122.061,37.3876],[-122.05725,37.38637],[-122.05425,37.38536],[-122.05077,37.38421],[-122.04567,37.38251],[-122.04098,37.38093],[-122.0379,37.37988],[-122.03554,37.37905],[-122.03382,37.37844],[-122.03201,37.3778],[-122.03207,37.37772],[-122.03038,37.37711],[-122.02633,37.37582],[-122.0246,37.37524],[-122.02114,37.37404],[-122.0177,37.37297],[-122.01432,37.37222],[-122.01085,37.37155],[-122.00751,37.37084],[-122.00309,37.36996],[-122.00035,37.36949],[-121.99713,37.36922],[-121.99512,37.36915],[-121.99042,37.36919],[-121.98665,37.36921],[-121.9824,37.36925],[-121.97894,37.36919],[-121.9771,37.369],[-121.97506,37.36858],[-121.97352,37.36808],[-121.96983,37.36651],[-121.96661,37.36508],[-121.9632,37.36357],[-121.96032,37.36239],[-121.95674,37.36078],[-121.95444,37.35976],[-121.95009,37.35787],[-121.94812,37.35702],[-121.94299,37.3548],[-121.93907,37.35311],[-121.93688,37.35204],[-121.93304,37.3501],[-121.93029,37.34873],[-121.92716,37.34716],[-121.92464,37.34588],[-121.92057,37.34382],[-121.91713,37.34207],[-121.91564,37.34136],[-121.9134,37.34022],[-121.91201,37.3394],[-121.90928,37.33686],[-121.90585,37.33381],[-121.90519,37.33317],[-121.90488,37.33267],[-121.90464,37.33013],[-121.90463,37.33009],[-121.90454,37.32917]]},"properties":{"routeId":"77122","name":"Express","shortName":"Express","color":"#CE202F","textColor":"#ffffff","system":"caltrain"}},{"type":"Feature","geometry":{"type":"LineString","coordinates":[[-121.90429,37.32917],[-121.90417,37.32805],[-121.90392,37.32555],[-121.90376,37.32397],[-121.9033,37.32273],[-121.90235,37.3215],[-121.9008,37.32013],[-121.89973,37.3192],[-121.8983,37.31828],[-121.89688,37.31778],[-121.89551,37.31756],[-121.8916,37.31738],[-121.89093,37.31733],[-121.89005,37.31711],[-121.88903,37.31669],[-121.88827,37.31613],[-121.88773,37.31552],[-121.88616,37.31362],[-121.88493,37.3121],[-121.8844,37.31152],[-121.88433,37.31157],[-121.88374,37.31092],[-121.88196,37.30879],[-121.88098,37.30773],[-121.87884,37.30516],[-121.87644,37.30222],[-121.87445,37.29981],[-121.87293,37.29815],[-121.87121,37.29661],[-121.86971,37.29557],[-121.86876,37.29503],[-121.86784,37.29455],[-121.86624,37.29387],[-121.86373,37.29296],[-121.86074,37.29201],[-121.85802,37.29112],[-121.85609,37.29049],[-121.85063,37.28871],[-121.84856,37.28803],[-121.84593,37.2869],[-121.84404,37.28586],[-121.84306,37.28507],[-121.84202,37.28407],[-121.84198,37.28409],[-121.83936,37.28151],[-121.8376,37.27978],[-121.83539,37.27764],[-121.83307,37.27538],[-121.83132,37.27374],[-121.82926,37.27219],[-121.82681,37.27046],[-121.82428,37.26867],[-121.82217,37.26718],[-121.82031,37.26603],[-121.81765,37.2644],[-121.8152,37.26292],[-121.81062,37.26014],[-121.80864,37.25899],[-121.80563,37.25723],[-121.80365,37.25599],[-121.80149,37.25472],[-121.79937,37.25347],[-121.79765,37.25244],[-121.79764,37.25244],[-121.79757,37.2524],[-121.79589,37.25135],[-121.79217,37.24914],[-121.78905,37.24725],[-121.78629,37.2456],[-121.78318,37.24373],[-121.78028,37.24205],[-121.77668,37.23986],[-121.77319,37.23776],[-121.77126,37.23662],[-121.76902,37.23525],[-121.76582,37.23364],[-121.76239,37.23189],[-121.75914,37.23027],[-121.75482,37.22812],[-121.75239,37.22687],[-121.75139,37.22624],[-121.75017,37.22542],[-121.74818,37.2238],[-121.74619,37.22186],[-121.74398,37.2196],[-121.74232,37.21803],[-121.73943,37.21566],[-121.73786,37.2143],[-121.73485,37.21174],[-121.73284,37.20994],[-121.72936,37.20659],[-121.72812,37.20541],[-121.72611,37.20344],[-121.72469,37.20204],[-121.72255,37.19994],[-121.72099,37.19843],[-121.71888,37.19636],[-121.71552,37.19311],[-121.71297,37.1906],[-121.71089,37.18857],[-121.70844,37.18615],[-121.70591,37.18369],[-121.7041,37.18191],[-121.70221,37.18006],[-121.69897,37.17691],[-121.69621,37.1742],[-121.69515,37.17318],[-121.69292,37.17102],[-121.691,37.16915],[-121.68905,37.16722],[-121.68697,37.16519],[-121.68397,37.16225],[-121.6819,37.16026],[-121.67832,37.15673],[-121.67647,37.15495],[-121.67333,37.1519],[-121.67178,37.15032],[-121.66769,37.14634],[-121.66574,37.14441],[-121.6626,37.14141],[-121.65984,37.13878],[-121.657,37.13593],[-121.65486,37.13388],[-121.65272,37.13179],[-121.65027,37.12934],[-121.65028,37.12933],[-121.65027,37.12932],[-121.64817,37.12733],[-121.64617,37.12534],[-121.64347,37.12275],[-121.64163,37.12098],[-121.63975,37.11914],[-121.63774,37.1172],[-121.636,37.11549],[-121.63386,37.11341],[-121.63236,37.11196],[-121.63051,37.11014],[-121.62857,37.10826],[-121.62592,37.10564],[-121.62419,37.10397],[-121.62289,37.10273],[-121.62104,37.10088],[-121.61936,37.0992],[-121.61756,37.09746],[-121.61588,37.09524],[-121.6138,37.09165],[-121.61186,37.08828],[-121.61095,37.08665],[-121.6109,37.08667],[-121.61042,37.08587],[-121.60987,37.08498],[-121.60891,37.08333],[-121.60796,37.08172],[-121.60598,37.07833],[-121.60375,37.07454],[-121.60246,37.07233],[-121.601,37.06988],[-121.59982,37.06776],[-121.59849,37.06537],[-121.59681,37.06237],[-121.59584,37.06066],[-121.59502,37.05906],[-121.59341,37.05616],[-121.59237,37.05424],[-121.59139,37.0523],[-121.59041,37.05038],[-121.58852,37.04676],[-121.5879,37.04551],[-121.58686,37.04345],[-121.58588,37.04157],[-121.58422,37.03834],[-121.58237,37.03477],[-121.58092,37.03191],[-121.57976,37.02971],[-121.5781,37.02643],[-121.57756,37.02533],[-121.57591,37.02211],[-121.57458,37.01954],[-121.57385,37.01821],[-121.57303,37.01706],[-121.57154,37.01491],[-121.57045,37.013],[-121.56909,37.00991],[-121.56775,37.00709],[-121.56615,37.00351]]},"properties":{"routeId":"77123","name":"South Santa Clara County Connector","shortName":"South County","color":"#E8A317","textColor":"#000000","system":"caltrain"}}]}