{"type":"FeatureCollection","features":[{"type":"Feature","geometry":{"type":"LineString","coordinates":[[-119.99976,39.47086],[-120.00018,39.47053],[-120.00082,39.46981],[-120.00406,39.4645],[-120.0045,39.46392],[-120.00576,39.46249],[-120.00627,39.46176],[-120.00664,39.46111],[-120.00833,39.45753],[-120.00848,39.45707],[-120.00855,39.45657],[-120.00851,39.45606],[-120.00837,39.45558],[-120.00789,39.45441],[-120.00628,39.45138],[-120.00618,39.45101],[-120.00616,39.45069],[-120.0062,39.45025],[-120.00634,39.44983],[-120.00673,39.44921],[-120.00847,39.4474],[-120.00887,39.44689],[-120.00923,39.44619],[-120.01002,39.44401],[-120.01038,39.44322],[-120.01109,39.44211],[-120.01181,39.44135],[-120.0124,39.44093],[-120.01305,39.44064],[-120.01614,39.43988],[-120.01656,39.43974],[-120.01741,39.43938],[-120.01847,39.43876],[-120.02162,39.4366],[-120.0233,39.43567],[-120.02363,39.4354],[-120.02394,39.43507],[-120.02581,39.4327],[-120.02612,39.43237],[-120.02656,39.432],[-120.02691,39.43177],[-120.02762,39.43143],[-120.02945,39.43084],[-120.03052,39.43041],[-120.03127,39.42998],[-120.03182,39.42955],[-120.03251,39.42878],[-120.03304,39.428],[-120.03345,39.42717],[-120.03374,39.42631],[-120.03389,39.42539],[-120.0339,39.42442],[-120.03377,39.42369],[-120.03364,39.42335],[-120.03346,39.42305],[-120.03295,39.42248],[-120.03133,39.42118],[-120.02759,39.4175],[-120.02701,39.41681],[-120.02658,39.4161],[-120.0254,39.41341],[-120.0252,39.41279],[-120.02513,39.41215],[-120.02526,39.40988],[-120.02524,39.40912],[-120.02511,39.40832],[-120.02421,39.4045],[-120.02403,39.40406],[-120.02374,39.40365],[-120.02275,39.40274],[-120.02242,39.40234],[-120.02218,39.40189],[-120.02194,39.40115],[-120.02145,39.39908],[-120.02143,39.39863],[-120.0215,39.39823],[-120.02169,39.39776],[-120.02197,39.39734],[-120.02318,39.39622],[-120.0235,39.39581],[-120.02378,39.3952],[-120.02386,39.39456],[-120.02377,39.39391],[-120.02356,39.3931],[-120.02334,39.39248],[-120.02266,39.39089],[-120.02253,39.39038],[-120.02256,39.38976],[-120.02292,39.38858],[-120.02304,39.38799],[-120.02306,39.38735],[-120.02296,39.38682],[-120.02281,39.38645],[-120.02259,39.38608],[-120.02007,39.3825],[-120.01975,39.38186],[-120.01956,39.38125],[-120.01949,39.38076],[-120.0195,39.38024],[-120.01959,39.3798],[-120.01977,39.37931],[-120.02004,39.37885],[-120.02039,39.37842],[-120.02079,39.37803],[-120.02131,39.37763],[-120.0225,39.37697],[-120.02606,39.37537],[-120.02689,39.37512],[-120.02844,39.37484],[-120.02922,39.37457],[-120.02977,39.37428],[-120.03241,39.37259],[-120.03316,39.37217],[-120.03634,39.37074],[-120.03951,39.36942],[-120.04006,39.36925],[-120.04063,39.36915],[-120.04238,39.36899],[-120.04354,39.36882],[-120.04458,39.3686],[-120.04649,39.36804],[-120.04702,39.36795],[-120.04758,39.36793],[-120.04839,39.36804],[-120.04915,39.3683],[-120.04977,39.36867],[-120.05065,39.36943],[-120.05104,39.36969],[-120.05171,39.36999],[-120.05246,39.37016],[-120.05298,39.3702],[-120.05362,39.37017],[-120.05679,39.36951],[-120.05747,39.36941],[-120.05809,39.36938],[-120.05929,39.36944],[-120.0621,39.36995],[-120.06308,39.36996],[-120.06363,39.36987],[-120.0644,39.36967],[-120.06546,39.36933],[-120.06605,39.36907],[-120.06697,39.36851],[-120.06844,39.36737],[-120.06921,39.36697],[-120.06974,39.36681],[-120.07032,39.36671],[-120.07091,39.3667],[-120.0715,39.36677],[-120.07199,39.3669],[-120.0728,39.36726],[-120.07314,39.36749],[-120.07366,39.36804],[-120.07386,39.36838],[-120.07399,39.36872],[-120.07406,39.36917],[-120.07404,39.36961],[-120.07392,39.37001],[-120.07348,39.37106],[-120.07331,39.37164],[-120.0732,39.37241],[-120.07322,39.37323],[-120.07336,39.37404],[-120.07401,39.37606],[-120.07405,39.3765],[-120.07401,39.3775],[-120.07409,39.37808],[-120.07423,39.3785],[-120.07444,39.37888],[-120.0747,39.37922],[-120.07506,39.37957],[-120.0756,39.37997],[-120.07859,39.38191],[-120.08185,39.38443],[-120.08301,39.3851],[-120.08396,39.38548],[-120.08467,39.38567],[-120.08572,39.38585],[-120.08643,39.38594],[-120.08716,39.38596],[-120.09271,39.38554],[-120.09354,39.38541],[-120.09425,39.38522],[-120.09491,39.38495],[-120.0956,39.38452],[-120.09629,39.38396],[-120.09902,39.3815],[-120.09978,39.38092],[-120.10067,39.3804],[-120.10238,39.37962],[-120.10318,39.3791],[-120.10362,39.37872],[-120.10401,39.37828],[-120.10477,39.37707],[-120.10507,39.37667],[-120.10557,39.37619],[-120.10615,39.37577],[-120.10711,39.37531],[-120.10816,39.37502],[-120.10906,39.37493],[-120.11123,39.37493],[-120.11177,39.37483],[-120.11231,39.37466],[-120.11279,39.37443],[-120.11328,39.37411],[-120.11606,39.37212],[-120.11645,39.37179],[-120.11674,39.37146],[-120.11694,39.37113],[-120.11709,39.37077],[-120.11717,39.37041],[-120.11718,39.37002],[-120.11712,39.36962],[-120.11696,39.36919],[-120.11672,39.3688],[-120.1163,39.36836],[-120.11553,39.3678],[-120.11227,39.36595],[-120.11182,39.36566],[-120.11151,39.36541],[-120.11109,39.36491],[-120.11079,39.36427],[-120.11072,39.36391],[-120.1107,39.36353],[-120.11076,39.36316],[-120.11088,39.36278],[-120.1111,39.36238],[-120.11138,39.36203],[-120.11172,39.36173],[-120.11207,39.36149],[-120.11273,39.36118],[-120.11313,39.36105],[-120.11392,39.36093],[-120.11445,39.36092],[-120.11562,39.3611],[-120.11687,39.36146],[-120.11995,39.36259],[-120.12062,39.36272],[-120.12134,39.36275],[-120.12275,39.36259],[-120.12377,39.3623],[-120.12455,39.36192],[-120.12497,39.36163],[-120.1253,39.36132],[-120.12557,39.36096],[-120.12579,39.36048],[-120.12609,39.35944],[-120.12625,39.35866],[-120.12639,39.35771],[-120.12645,39.35687],[-120.12648,39.35581],[-120.12639,39.35507],[-120.12623,39.35466],[-120.126,39.35429],[-120.12569,39.35394],[-120.12531,39.35363],[-120.12456,39.35323],[-120.12302,39.35274],[-120.12248,39.35252],[-120.12192,39.35217],[-120.12166,39.35194],[-120.12143,39.35168],[-120.12121,39.35133],[-120.12106,39.35097],[-120.12098,39.3506],[-120.12097,39.35021],[-120.12103,39.34983],[-120.12118,39.34943],[-120.12141,39.34906],[-120.12171,39.34872],[-120.12203,39.34846],[-120.12241,39.34822],[-120.12396,39.34755],[-120.12484,39.34702],[-120.12544,39.34652],[-120.12698,39.34492],[-120.12822,39.34384],[-120.12981,39.34271],[-120.13133,39.34181],[-120.13333,39.34087],[-120.14756,39.33503],[-120.14905,39.33453],[-120.15032,39.33419],[-120.15175,39.3339],[-120.15402,39.33359],[-120.16242,39.33323],[-120.16401,39.33302],[-120.16537,39.33271],[-120.18776,39.32676],[-120.18856,39.32646],[-120.18916,39.32618],[-120.19617,39.32226],[-120.19687,39.3218],[-120.19819,39.32065],[-120.19866,39.32034],[-120.19925,39.32011],[-120.20089,39.3197],[-120.20465,39.31818],[-120.2057,39.31784],[-120.20683,39.31768],[-120.20745,39.31767],[-120.20806,39.31772],[-120.20915,39.31796],[-120.21101,39.31867],[-120.21198,39.31893],[-120.21324,39.31909],[-120.21453,39.31904],[-120.21527,39.31892],[-120.21608,39.31872],[-120.22299,39.31627],[-120.22392,39.31599],[-120.22519,39.31572],[-120.22837,39.31536],[-120.22912,39.31518],[-120.22966,39.31493],[-120.2301,39.31459],[-120.23037,39.31428],[-120.23098,39.31336],[-120.2313,39.31304],[-120.23168,39.31277],[-120.23207,39.31257],[-120.23254,39.31241],[-120.23504,39.31185],[-120.23581,39.31157],[-120.23694,39.31088],[-120.24066,39.30841],[-120.24121,39.30794],[-120.24173,39.30741],[-120.24753,39.30075],[-120.24818,39.30015],[-120.24897,39.29962],[-120.24953,39.29934],[-120.25021,39.29906],[-120.2691,39.29235],[-120.27013,39.29206],[-120.27087,39.29203],[-120.27147,39.29217],[-120.27201,39.29245],[-120.27242,39.29284],[-120.27256,39.29309],[-120.27265,39.29336],[-120.27268,39.29368],[-120.27264,39.29392],[-120.27255,39.29418],[-120.27239,39.29444],[-120.27215,39.2947],[-120.27191,39.29488],[-120.26299,39.29971],[-120.26237,39.30001],[-120.25696,39.30197],[-120.25612,39.3022],[-120.25407,39.30256],[-120.25344,39.30274],[-120.25274,39.30307],[-120.25245,39.30328],[-120.25221,39.30349],[-120.2499,39.3061],[-120.24882,39.30789],[-120.24764,39.30944],[-120.24743,39.30987],[-120.24716,39.31069],[-120.24691,39.31112],[-120.24668,39.31136],[-120.24638,39.31158],[-120.24466,39.31252],[-120.24423,39.31292],[-120.24405,39.31324],[-120.24397,39.31355],[-120.24396,39.31387],[-120.24406,39.31422],[-120.24424,39.31452],[-120.24454,39.31483],[-120.24489,39.31505],[-120.24533,39.31521],[-120.24564,39.31527],[-120.24597,39.31529],[-120.24723,39.31523],[-120.24769,39.31524],[-120.24939,39.31566],[-120.25097,39.31583],[-120.2549,39.31601],[-120.2562,39.31601],[-120.25667,39.31592],[-120.25721,39.31573],[-120.25884,39.31478],[-120.25979,39.31439],[-120.26065,39.3142],[-120.26279,39.31391],[-120.26413,39.31352],[-120.26533,39.31297],[-120.267,39.31191],[-120.26774,39.31163],[-120.26844,39.31159],[-120.27052,39.31177],[-120.27125,39.31167],[-120.27241,39.31132],[-120.27297,39.31126],[-120.27357,39.31132],[-120.27508,39.31168],[-120.27567,39.31176],[-120.27648,39.31174],[-120.27719,39.31158],[-120.27788,39.31127],[-120.27905,39.3104],[-120.27968,39.31005],[-120.2803,39.30983],[-120.28176,39.30951],[-120.28244,39.30931],[-120.28322,39.30897],[-120.28396,39.30852],[-120.2844,39.30814],[-120.28469,39.30776],[-120.28491,39.30733],[-120.28565,39.3055],[-120.28595,39.30503],[-120.28636,39.30458],[-120.28686,39.30421],[-120.28736,39.30394],[-120.28903,39.30336],[-120.28967,39.30302],[-120.29001,39.30275],[-120.29027,39.30247],[-120.29055,39.30206],[-120.291,39.30124],[-120.29121,39.30097],[-120.29147,39.30072],[-120.29185,39.30044],[-120.2923,39.30021],[-120.29278,39.30003],[-120.29343,39.2999],[-120.29424,39.29987],[-120.2951,39.3],[-120.29993,39.30106],[-120.33824,39.30969],[-120.33993,39.31014],[-120.34092,39.31052],[-120.34181,39.31097],[-120.34553,39.31338],[-120.34615,39.31373],[-120.3469,39.31408],[-120.35121,39.31575],[-120.35221,39.31609],[-120.35303,39.31622],[-120.35498,39.31622],[-120.356,39.31645],[-120.35822,39.3176],[-120.36377,39.3196],[-120.36544,39.3203],[-120.36737,39.32131],[-120.36958,39.3227],[-120.37038,39.32301],[-120.37103,39.32312],[-120.37201,39.32311],[-120.38073,39.32241],[-120.38175,39.32238],[-120.38242,39.32248],[-120.38301,39.32266],[-120.38518,39.32372],[-120.38617,39.32407],[-120.3868,39.32418],[-120.38766,39.32425],[-120.38977,39.32427],[-120.39136,39.32415],[-120.39287,39.32392],[-120.39362,39.3237],[-120.39546,39.32298],[-120.39614,39.32278],[-120.40249,39.32164],[-120.40329,39.32145],[-120.40461,39.32104],[-120.40522,39.32094],[-120.40569,39.32094],[-120.40614,39.321],[-120.408,39.32148],[-120.40983,39.32164],[-120.4103,39.32178],[-120.4117,39.32229],[-120.41262,39.32248],[-120.41333,39.32253],[-120.41401,39.32251],[-120.41471,39.32241],[-120.41535,39.32224],[-120.41582,39.32206],[-120.41633,39.3218],[-120.41786,39.32076],[-120.41842,39.32043],[-120.42138,39.31905],[-120.42245,39.31863],[-120.42498,39.31786],[-120.42614,39.31734],[-120.433,39.31336],[-120.43349,39.313],[-120.43487,39.3118],[-120.43549,39.3114],[-120.43596,39.31124],[-120.43648,39.31115],[-120.43815,39.31119],[-120.43884,39.31112],[-120.44247,39.31043],[-120.44322,39.31018],[-120.44367,39.30989],[-120.444,39.30956],[-120.44535,39.30737],[-120.4456,39.30705],[-120.44585,39.30682],[-120.44639,39.3065],[-120.44964,39.30496],[-120.45029,39.30467],[-120.45075,39.30453],[-120.45123,39.30447],[-120.45172,39.30449],[-120.45227,39.30461],[-120.4527,39.30479],[-120.45315,39.30509],[-120.45709,39.30843],[-120.45765,39.30881],[-120.45844,39.30917],[-120.46043,39.30971],[-120.46103,39.30992],[-120.4616,39.31021],[-120.46322,39.31129],[-120.46381,39.31152],[-120.46442,39.31162],[-120.46488,39.31161],[-120.4653,39.31155],[-120.46568,39.31145],[-120.46609,39.31127],[-120.46652,39.311],[-120.46933,39.30895],[-120.47038,39.30837],[-120.47177,39.3077],[-120.47308,39.30718],[-120.47427,39.30677],[-120.47554,39.30643],[-120.47666,39.30625],[-120.47793,39.30622],[-120.48078,39.3065],[-120.48163,39.30653],[-120.48245,39.30644],[-120.48426,39.30599],[-120.48489,39.3059],[-120.48746,39.306],[-120.49097,39.30585],[-120.49172,39.30586],[-120.49237,39.30593],[-120.49304,39.30608],[-120.4964,39.30719],[-120.49701,39.30733],[-120.50034,39.30779],[-120.50106,39.30782],[-120.50174,39.30778],[-120.50296,39.30751],[-120.50393,39.30713],[-120.50507,39.30648],[-120.50592,39.3058],[-120.50638,39.30533],[-120.50686,39.30475],[-120.50756,39.30366],[-120.50771,39.3033],[-120.5078,39.30293],[-120.50791,39.3017],[-120.50804,39.30134],[-120.50824,39.301],[-120.50859,39.30064],[-120.50911,39.30027],[-120.51006,39.29974],[-120.51112,39.29925],[-120.51235,39.2988],[-120.51374,39.29844],[-120.51976,39.29771],[-120.52071,39.29755],[-120.52165,39.29731],[-120.52394,39.29659],[-120.52462,39.29644],[-120.52554,39.29635],[-120.52714,39.29642],[-120.5292,39.29629],[-120.52987,39.29632],[-120.53049,39.29646],[-120.53106,39.29671],[-120.53148,39.297],[-120.53184,39.29738],[-120.5321,39.29781],[-120.53223,39.29825],[-120.53225,39.29861],[-120.53219,39.29965],[-120.53224,39.29998],[-120.53235,39.30028],[-120.53263,39.30072],[-120.53303,39.30111],[-120.53351,39.3014],[-120.53405,39.3016],[-120.53503,39.30177],[-120.54025,39.30235],[-120.54113,39.30228],[-120.54264,39.30186],[-120.54341,39.30176],[-120.54776,39.30161],[-120.54839,39.30171],[-120.54894,39.30194],[-120.54922,39.30213],[-120.54948,39.30237],[-120.54969,39.30269],[-120.54983,39.30303],[-120.5499,39.30343],[-120.55001,39.30535],[-120.55012,39.30573],[-120.55057,39.30691],[-120.55068,39.30737],[-120.55072,39.30787],[-120.55068,39.30918],[-120.55076,39.30947],[-120.55089,39.30972],[-120.55108,39.30994],[-120.55133,39.31016],[-120.55182,39.31041],[-120.55237,39.31054],[-120.55287,39.31056],[-120.55413,39.31047],[-120.55488,39.31058],[-120.55526,39.31073],[-120.55558,39.3109],[-120.55651,39.31167],[-120.55699,39.31194],[-120.55758,39.31208],[-120.5587,39.31211],[-120.55934,39.3122],[-120.56,39.31241],[-120.56059,39.31274],[-120.56287,39.31446],[-120.56359,39.31536],[-120.56473,39.31655],[-120.56509,39.317],[-120.56585,39.31812],[-120.56697,39.31907],[-120.56844,39.32087],[-120.56987,39.32214],[-120.57024,39.32252],[-120.57128,39.32406],[-120.57168,39.3244],[-120.57266,39.32502],[-120.57311,39.32522],[-120.57362,39.32539],[-120.57595,39.32578],[-120.57652,39.32595],[-120.57772,39.32642],[-120.57843,39.3266],[-120.58244,39.3272],[-120.58332,39.32738],[-120.58412,39.32769],[-120.58448,39.32789],[-120.58585,39.32892],[-120.58632,39.32919],[-120.58666,39.32931],[-120.58703,39.32938],[-120.58748,39.32941],[-120.58785,39.32937],[-120.58826,39.32925],[-120.58914,39.32883],[-120.58954,39.32858],[-120.59017,39.32808],[-120.59248,39.3261],[-120.59282,39.32585],[-120.59326,39.32561],[-120.59371,39.32542],[-120.59462,39.32517],[-120.59533,39.32511],[-120.59707,39.32509],[-120.59787,39.32493],[-120.59853,39.32459],[-120.59957,39.3237],[-120.59997,39.32342],[-120.60051,39.32314],[-120.6011,39.32293],[-120.6061,39.32185],[-120.60799,39.32117],[-120.61172,39.32002],[-120.61245,39.31985],[-120.61617,39.31922],[-120.61771,39.31903],[-120.61924,39.31896],[-120.62351,39.31901],[-120.62412,39.31895],[-120.62482,39.31877],[-120.6255,39.31844],[-120.62706,39.31737],[-120.62947,39.31592],[-120.63037,39.31544],[-120.63134,39.31501],[-120.63268,39.31454],[-120.63527,39.31382],[-120.63796,39.31319],[-120.63838,39.31306],[-120.63897,39.31273],[-120.63995,39.31183],[-120.6405,39.31148],[-120.64411,39.31016],[-120.64654,39.30894],[-120.64791,39.30837],[-120.65252,39.30708],[-120.6544,39.30635],[-120.65599,39.30603],[-120.65682,39.30575],[-120.65854,39.30534],[-120.66007,39.30456],[-120.6614,39.30409],[-120.66189,39.30384],[-120.6623,39.3035],[-120.66322,39.30239],[-120.66357,39.30213],[-120.66397,39.30191],[-120.66452,39.30172],[-120.66952,39.3003],[-120.67004,39.30007],[-120.67038,39.29985],[-120.67248,39.29815],[-120.67289,39.29763],[-120.67308,39.29708],[-120.67311,39.29573],[-120.67318,39.29533],[-120.67335,39.29485],[-120.67366,39.29427],[-120.67547,39.29168],[-120.67568,39.2912],[-120.67617,39.28972],[-120.67648,39.28916],[-120.67677,39.28887],[-120.67708,39.28865],[-120.67843,39.28803],[-120.67894,39.28766],[-120.6793,39.28721],[-120.67994,39.28589],[-120.6802,39.28556],[-120.68051,39.28527],[-120.68111,39.28488],[-120.68331,39.28375],[-120.68394,39.28334],[-120.68456,39.28284],[-120.68532,39.28202],[-120.68738,39.27932],[-120.68778,39.2786],[-120.68799,39.27785],[-120.68809,39.27555],[-120.68817,39.27502],[-120.68844,39.27432],[-120.68899,39.27354],[-120.68958,39.27295],[-120.69409,39.26916],[-120.69446,39.26865],[-120.69516,39.26721],[-120.69563,39.2667],[-120.69618,39.26638],[-120.69676,39.26618],[-120.6989,39.26597],[-120.69955,39.26581],[-120.69994,39.26563],[-120.70026,39.26541],[-120.70069,39.26493],[-120.70085,39.26458],[-120.70093,39.26419],[-120.70107,39.26059],[-120.70117,39.26018],[-120.70167,39.25893],[-120.70175,39.25831],[-120.70166,39.25784],[-120.70146,39.25741],[-120.69989,39.25537],[-120.6996,39.25492],[-120.69948,39.25462],[-120.69939,39.25411],[-120.69946,39.25354],[-120.6997,39.25302],[-120.70012,39.25254],[-120.70042,39.25231],[-120.70088,39.25206],[-120.70134,39.25191],[-120.70185,39.25181],[-120.70263,39.25179],[-120.70513,39.25199],[-120.70591,39.25189],[-120.70655,39.2517],[-120.7073,39.2513],[-120.7076,39.25105],[-120.70787,39.25075],[-120.70819,39.25021],[-120.70843,39.24936],[-120.70858,39.24903],[-120.70885,39.24866],[-120.70924,39.24832],[-120.70989,39.248],[-120.71066,39.24783],[-120.71154,39.24788],[-120.71216,39.24806],[-120.71254,39.24824],[-120.71281,39.24844],[-120.71322,39.2489],[-120.71336,39.24917],[-120.71345,39.24949],[-120.71346,39.24978],[-120.71341,39.25006],[-120.71331,39.25032],[-120.71315,39.25058],[-120.71246,39.25125],[-120.7122,39.2516],[-120.71205,39.25196],[-120.71188,39.25277],[-120.71167,39.2532],[-120.71135,39.25357],[-120.7105,39.25429],[-120.71023,39.25458],[-120.71,39.25497],[-120.70992,39.2552],[-120.70989,39.25564],[-120.70998,39.25607],[-120.7102,39.25646],[-120.71036,39.25665],[-120.71077,39.25698],[-120.71103,39.25711],[-120.71162,39.25729],[-120.71195,39.25734],[-120.71255,39.25732],[-120.71311,39.25717],[-120.7136,39.25689],[-120.71398,39.25655],[-120.71479,39.25525],[-120.71495,39.25503],[-120.71523,39.25479],[-120.71554,39.2546],[-120.71589,39.25445],[-120.71701,39.25421],[-120.71741,39.25408],[-120.71779,39.25387],[-120.71814,39.25354],[-120.71836,39.25319],[-120.71847,39.25278],[-120.71847,39.25246],[-120.71837,39.25165],[-120.7184,39.25128],[-120.71859,39.25076],[-120.71895,39.25031],[-120.71935,39.25002],[-120.71978,39.2498],[-120.72031,39.24965],[-120.7214,39.24946],[-120.722,39.24918],[-120.72244,39.24881],[-120.72388,39.24726],[-120.72415,39.24682],[-120.72425,39.24636],[-120.7242,39.24594],[-120.72392,39.24504],[-120.72391,39.2447],[-120.72398,39.24437],[-120.72423,39.2436],[-120.7245,39.24305],[-120.72485,39.24253],[-120.72536,39.24204],[-120.726,39.24172],[-120.72682,39.24153],[-120.72762,39.24152],[-120.72924,39.24187],[-120.7299,39.24194],[-120.7304,39.24189],[-120.7308,39.2418],[-120.73119,39.24166],[-120.73156,39.24144],[-120.73202,39.241],[-120.73228,39.24051],[-120.73238,39.24],[-120.73249,39.23834],[-120.73263,39.2378],[-120.73279,39.2375],[-120.73305,39.2372],[-120.73343,39.23692],[-120.73382,39.23673],[-120.7343,39.2366],[-120.73506,39.23655],[-120.74089,39.23721],[-120.74142,39.23722],[-120.74192,39.23715],[-120.74262,39.23691],[-120.74319,39.23655],[-120.74372,39.23601],[-120.74444,39.23493],[-120.7447,39.2347],[-120.74522,39.23439],[-120.74569,39.23423],[-120.74631,39.23414],[-120.74815,39.2343],[-120.74877,39.23425],[-120.74919,39.23414],[-120.74951,39.234],[-120.74978,39.23384],[-120.75008,39.23357],[-120.75038,39.23313],[-120.75123,39.23134],[-120.75138,39.23097],[-120.75144,39.23066],[-120.75137,39.23009],[-120.75094,39.22922],[-120.75083,39.22881],[-120.75088,39.22759],[-120.75057,39.22666],[-120.75051,39.22632],[-120.75055,39.2259],[-120.75071,39.22549],[-120.75091,39.22519],[-120.75117,39.22494],[-120.75148,39.22472],[-120.75183,39.22454],[-120.75606,39.22345],[-120.75677,39.22309],[-120.75728,39.22263],[-120.75757,39.22217],[-120.75773,39.22166],[-120.7576,39.21728],[-120.75768,39.21668],[-120.75793,39.21599],[-120.75817,39.21558],[-120.7584,39.21528],[-120.75903,39.21466],[-120.75962,39.21425],[-120.76234,39.21258],[-120.76286,39.2122],[-120.76332,39.21169],[-120.76367,39.21107],[-120.76383,39.21049],[-120.76383,39.20996],[-120.7637,39.20936],[-120.76332,39.20835],[-120.76295,39.20758],[-120.76252,39.20683],[-120.76065,39.20431],[-120.76039,39.20377],[-120.7603,39.20348],[-120.76022,39.2028],[-120.76029,39.20244],[-120.76044,39.20208],[-120.76067,39.20176],[-120.76102,39.20142],[-120.76319,39.19969],[-120.76363,39.19942],[-120.76395,39.19929],[-120.76454,39.19917],[-120.76499,39.19916],[-120.76575,39.19927],[-120.76883,39.2],[-120.76954,39.20005],[-120.77011,39.19998],[-120.77056,39.19985],[-120.77094,39.19967],[-120.77203,39.19883],[-120.77267,39.19852],[-120.77347,39.19837],[-120.77481,39.19846],[-120.77552,39.19842],[-120.77698,39.19802],[-120.77884,39.19742],[-120.77915,39.19725],[-120.77951,39.19692],[-120.78016,39.19587],[-120.78043,39.19555],[-120.78082,39.19525],[-120.78137,39.19501],[-120.78184,39.1949],[-120.78225,39.19486],[-120.78578,39.19494],[-120.78644,39.19509],[-120.78695,39.19533],[-120.7873,39.19558],[-120.78884,39.19693],[-120.78922,39.19717],[-120.78977,39.19739],[-120.79036,39.19752],[-120.79116,39.19754],[-120.79312,39.19723],[-120.79379,39.19722],[-120.7942,39.19731],[-120.79455,39.19745],[-120.79492,39.19768],[-120.7952,39.19792],[-120.79547,39.19827],[-120.79563,39.19865],[-120.79568,39.19903],[-120.79563,39.19945],[-120.7954,39.19994],[-120.79412,39.20194],[-120.79398,39.20228],[-120.79392,39.20262],[-120.79393,39.20289],[-120.7941,39.20343],[-120.79429,39.20374],[-120.7945,39.20397],[-120.79479,39.20419],[-120.79513,39.20438],[-120.79553,39.20452],[-120.79621,39.20463],[-120.79684,39.2046],[-120.79729,39.20451],[-120.79909,39.20396],[-120.79995,39.20383],[-120.80052,39.20379],[-120.80147,39.20384],[-120.80335,39.20414],[-120.80409,39.20421],[-120.80719,39.20425],[-120.80866,39.20415],[-120.80919,39.20422],[-120.80956,39.20433],[-120.80991,39.2045],[-120.81044,39.20493],[-120.81074,39.20535],[-120.81132,39.20646],[-120.8116,39.2068],[-120.81195,39.20711],[-120.81243,39.20741],[-120.81309,39.20771],[-120.81369,39.20788],[-120.81433,39.20797],[-120.81566,39.20797],[-120.81627,39.20788],[-120.81685,39.20774],[-120.81785,39.20734],[-120.81991,39.20627],[-120.82072,39.2059],[-120.82162,39.20565],[-120.82245,39.20554],[-120.82328,39.20561],[-120.82404,39.20584],[-120.82448,39.20609],[-120.8263,39.2073],[-120.82667,39.20749],[-120.8271,39.20763],[-120.82776,39.20772],[-120.82834,39.20768],[-120.82891,39.20753],[-120.82939,39.20729],[-120.82984,39.20696],[-120.83086,39.20602],[-120.83138,39.20541],[-120.83163,39.20484],[-120.8318,39.20367],[-120.83195,39.20321],[-120.83224,39.20278],[-120.83289,39.20213],[-120.83312,39.20184],[-120.83332,39.20145],[-120.83347,39.20095],[-120.83357,39.20012],[-120.8335,39.19959],[-120.83178,39.19528],[-120.83166,39.19491],[-120.83161,39.19459],[-120.83163,39.1943],[-120.83171,39.19399],[-120.83276,39.19118],[-120.83301,39.19073],[-120.8332,39.1905],[-120.83343,39.19029],[-120.83381,39.19004],[-120.83454,39.18973],[-120.83497,39.18964],[-120.8391,39.18947],[-120.84003,39.18935],[-120.84088,39.18915],[-120.84159,39.18891],[-120.84801,39.18636],[-120.84909,39.18582],[-120.85014,39.1851],[-120.85238,39.18321],[-120.85733,39.18026],[-120.85796,39.17981],[-120.85857,39.17925],[-120.85896,39.1788],[-120.85937,39.17822],[-120.85957,39.17785],[-120.85974,39.1774],[-120.85988,39.17667],[-120.8599,39.17634],[-120.8598,39.17536],[-120.85983,39.17512],[-120.85992,39.17481],[-120.86007,39.17453],[-120.86033,39.17422],[-120.86064,39.17397],[-120.86097,39.17378],[-120.86148,39.17362],[-120.86201,39.17356],[-120.86353,39.17352],[-120.86413,39.17357],[-120.86464,39.17371],[-120.86505,39.1739],[-120.86604,39.17465],[-120.86648,39.17489],[-120.8671,39.17504],[-120.86774,39.17502],[-120.86819,39.17489],[-120.86844,39.17478],[-120.86874,39.17458],[-120.86926,39.17415],[-120.86955,39.17398],[-120.87065,39.17359],[-120.87114,39.17332],[-120.87152,39.17293],[-120.87219,39.17177],[-120.87249,39.17148],[-120.87286,39.17126],[-120.87341,39.17108],[-120.87398,39.17104],[-120.87443,39.17109],[-120.87546,39.17133],[-120.87607,39.17133],[-120.87643,39.17126],[-120.87679,39.17114],[-120.8774,39.17079],[-120.87795,39.17037],[-120.87827,39.17002],[-120.87848,39.16963],[-120.87855,39.16922],[-120.87852,39.16887],[-120.87839,39.16854],[-120.87825,39.16831],[-120.87762,39.16754],[-120.87744,39.1672],[-120.87731,39.16685],[-120.87721,39.16622],[-120.87726,39.16504],[-120.87704,39.16409],[-120.87697,39.16347],[-120.87721,39.1613],[-120.87741,39.16068],[-120.87776,39.16008],[-120.87838,39.1594],[-120.87918,39.15879],[-120.88018,39.1583],[-120.88101,39.15806],[-120.88164,39.15801],[-120.88226,39.15807],[-120.8843,39.15872],[-120.88498,39.15884],[-120.88543,39.15883],[-120.88583,39.15876],[-120.88652,39.1585],[-120.8871,39.15806],[-120.88746,39.15752],[-120.88762,39.15689],[-120.88762,39.15579],[-120.88771,39.1551],[-120.88784,39.15476],[-120.88802,39.1544],[-120.88827,39.15406],[-120.88857,39.15375],[-120.88916,39.15331],[-120.88975,39.15301],[-120.89027,39.15283],[-120.89155,39.1525],[-120.89223,39.15222],[-120.89567,39.15023],[-120.89625,39.14979],[-120.89654,39.14941],[-120.89671,39.14901],[-120.89717,39.14676],[-120.89715,39.14608],[-120.89669,39.14474],[-120.89662,39.14411],[-120.89675,39.14346],[-120.89745,39.14147],[-120.89774,39.14098],[-120.89822,39.14052],[-120.89872,39.14016],[-120.89986,39.13956],[-120.90025,39.13923],[-120.90046,39.13894],[-120.90094,39.13796],[-120.9021,39.13652],[-120.90281,39.136],[-120.90328,39.13577],[-120.90376,39.13561],[-120.90453,39.13546],[-120.9064,39.13529],[-120.90725,39.13507],[-120.91129,39.13292],[-120.91187,39.13249],[-120.9122,39.13211],[-120.91293,39.13056],[-120.91326,39.13007],[-120.91385,39.12955],[-120.91458,39.12917],[-120.91517,39.12899],[-120.91578,39.1289],[-120.92031,39.12862],[-120.92093,39.12863],[-120.92157,39.12871],[-120.92351,39.12911],[-120.92415,39.12911],[-120.92473,39.12902],[-120.92546,39.12876],[-120.92596,39.12846],[-120.92637,39.12811],[-120.92712,39.12733],[-120.92773,39.12687],[-120.92837,39.12658],[-120.92982,39.12613],[-120.93016,39.12595],[-120.93058,39.12557],[-120.93083,39.12512],[-120.93089,39.12487],[-120.93083,39.12284],[-120.93111,39.1199],[-120.93113,39.11918],[-120.93104,39.11835],[-120.93066,39.11652],[-120.93051,39.11608],[-120.93007,39.11527],[-120.92998,39.11478],[-120.93008,39.11417],[-120.93037,39.11351],[-120.93077,39.11301],[-120.93107,39.11278],[-120.93167,39.1125],[-120.93206,39.11241],[-120.93334,39.1123],[-120.93402,39.11231],[-120.93432,39.11236],[-120.935,39.11262],[-120.93543,39.11292],[-120.93672,39.11405],[-120.93709,39.11448],[-120.93733,39.11494],[-120.9374,39.11542],[-120.93735,39.11576],[-120.9371,39.11651],[-120.93707,39.11698],[-120.93717,39.11736],[-120.93753,39.11816],[-120.93763,39.11852],[-120.93784,39.12129],[-120.93793,39.12167],[-120.93807,39.12197],[-120.93829,39.12229],[-120.93857,39.12257],[-120.93904,39.12287],[-120.93957,39.1231],[-120.94123,39.12371],[-120.94164,39.12382],[-120.94201,39.12386],[-120.9427,39.12381],[-120.94331,39.12364],[-120.94381,39.12337],[-120.94402,39.1232],[-120.94422,39.12301],[-120.94447,39.12263],[-120.94464,39.12221],[-120.94593,39.11767],[-120.94628,39.11664],[-120.94683,39.11533],[-120.94809,39.11274],[-120.94829,39.11213],[-120.94835,39.11169],[-120.94834,39.11109],[-120.9478,39.10786],[-120.94785,39.10728],[-120.94801,39.10684],[-120.9482,39.10651],[-120.94923,39.10509],[-120.95029,39.104],[-120.95083,39.10331],[-120.95335,39.09935],[-120.95379,39.09878],[-120.95803,39.0922],[-120.9587,39.09135],[-120.96127,39.08839],[-120.96218,39.08714],[-120.96909,39.07488],[-120.96905,39.07481],[-120.96923,39.07429],[-120.96931,39.07355],[-120.96919,39.07262],[-120.96848,39.06974],[-120.96838,39.0688],[-120.96844,39.06784],[-120.96852,39.06737],[-120.96879,39.06649],[-120.97149,39.05977],[-120.97182,39.05867],[-120.97188,39.05821],[-120.97187,39.05759],[-120.97178,39.05698],[-120.97137,39.05498],[-120.97132,39.05447],[-120.97135,39.0539],[-120.97154,39.05299],[-120.97248,39.05032],[-120.97267,39.04969],[-120.97277,39.04917],[-120.97284,39.04831],[-120.97277,39.04729],[-120.97267,39.04679],[-120.97227,39.04561],[-120.97196,39.04497],[-120.9697,39.0413],[-120.96914,39.04025],[-120.96826,39.03813],[-120.96681,39.03438],[-120.96655,39.03347],[-120.96648,39.03279],[-120.96649,39.03239],[-120.96661,39.03167],[-120.96672,39.03131],[-120.96883,39.02644],[-120.96916,39.0259],[-120.9694,39.02562],[-120.96969,39.02533],[-120.97028,39.02485],[-120.97311,39.02324],[-120.97382,39.02276],[-120.97418,39.02246],[-120.97467,39.02191],[-120.97503,39.02131],[-120.97522,39.02085],[-120.97533,39.02024],[-120.97532,39.01946],[-120.97505,39.0177],[-120.97501,39.01712],[-120.97508,39.01652],[-120.97522,39.01602],[-120.97543,39.01554],[-120.97593,39.01471],[-120.9823,39.0052],[-120.98284,39.00455],[-120.98527,39.00209],[-120.98591,39.00123],[-120.98633,39.00022],[-120.98772,38.99623],[-120.98798,38.99571],[-120.98869,38.99465],[-120.98911,38.99414],[-120.98978,38.99349],[-120.99169,38.99177],[-120.99828,38.98564],[-120.99869,38.98515],[-120.99894,38.98479],[-120.99926,38.98406],[-121.00064,38.97977],[-121.00088,38.97911],[-121.00114,38.9786],[-121.00147,38.97808],[-121.00183,38.97762],[-121.00266,38.97681],[-121.00363,38.97614],[-121.00401,38.97592],[-121.00486,38.97553],[-121.0081,38.97419],[-121.00984,38.97339],[-121.01153,38.97249],[-121.01285,38.97156],[-121.01349,38.97099],[-121.0142,38.97021],[-121.01871,38.96351],[-121.01934,38.96259],[-121.01988,38.9619],[-121.02045,38.96123],[-121.02144,38.96025],[-121.02231,38.9595],[-121.02363,38.95847],[-121.02751,38.95545],[-121.02858,38.95468],[-121.02943,38.95415],[-121.03024,38.95369],[-121.03614,38.95064],[-121.03674,38.95028],[-121.03719,38.94997],[-121.03774,38.9495],[-121.03826,38.94896],[-121.03983,38.94685],[-121.04035,38.94624],[-121.04121,38.94544],[-121.04222,38.94473],[-121.04565,38.94258],[-121.04728,38.9418],[-121.04921,38.94116],[-121.06199,38.93748],[-121.06275,38.93729],[-121.06381,38.93712],[-121.06498,38.93709],[-121.06631,38.93722],[-121.07664,38.93892],[-121.07733,38.939],[-121.07844,38.93903],[-121.07954,38.93892],[-121.08025,38.93874],[-121.0808,38.93855],[-121.08153,38.93823],[-121.08243,38.93769],[-121.08885,38.93274],[-121.0894,38.93221],[-121.08978,38.93169],[-121.08995,38.93139],[-121.0902,38.93071],[-121.09062,38.9289],[-121.09268,38.92152],[-121.09276,38.92117],[-121.09283,38.92043],[-121.09281,38.91997],[-121.09271,38.91938],[-121.09244,38.91864],[-121.09204,38.91795],[-121.0876,38.91222],[-121.08683,38.91111],[-121.08629,38.91017],[-121.08563,38.90878],[-121.08103,38.89821],[-121.08071,38.89724],[-121.08063,38.8966],[-121.08062,38.8962],[-121.08074,38.8954],[-121.08086,38.89498],[-121.08113,38.89437],[-121.08532,38.88778],[-121.08576,38.88715],[-121.0862,38.88667],[-121.08695,38.88604],[-121.08909,38.88453],[-121.08987,38.88405],[-121.09068,38.88368],[-121.09153,38.8834],[-121.09241,38.88322],[-121.09734,38.88284],[-121.0982,38.88271],[-121.09906,38.88248],[-121.0998,38.8822],[-121.10065,38.88176],[-121.10513,38.87913],[-121.10549,38.87893],[-121.10665,38.87832],[-121.10795,38.87778],[-121.10917,38.87737],[-121.11045,38.87703],[-121.1119,38.87676],[-121.1133,38.87662],[-121.1138,38.87657],[-121.12027,38.87624],[-121.12699,38.87591],[-121.12996,38.87576],[-121.13075,38.87574],[-121.13134,38.87573],[-121.13166,38.87573],[-121.1319,38.87575],[-121.13316,38.87584],[-121.14144,38.8771],[-121.1422,38.87717],[-121.14284,38.87716],[-121.14347,38.87708],[-121.14401,38.87695],[-121.14422,38.87688],[-121.14499,38.8766],[-121.15072,38.8736],[-121.15163,38.87322],[-121.15264,38.87292],[-121.15337,38.87277],[-121.15417,38.87267],[-121.15741,38.87256],[-121.15837,38.87246],[-121.15926,38.87227],[-121.16185,38.87148],[-121.16292,38.87124],[-121.16394,38.87111],[-121.16753,38.87086],[-121.16855,38.87074],[-121.16968,38.87051],[-121.17296,38.86962],[-121.17378,38.86947],[-121.17456,38.8694],[-121.17601,38.86941],[-121.1772,38.86955],[-121.17783,38.86969],[-121.17892,38.87006],[-121.18221,38.87151],[-121.18357,38.87187],[-121.18468,38.87201],[-121.18539,38.87202],[-121.18624,38.87196],[-121.18704,38.87182],[-121.18779,38.87162],[-121.18862,38.87131],[-121.19983,38.8666],[-121.20116,38.866],[-121.20261,38.86522],[-121.20818,38.86184],[-121.20904,38.86129],[-121.21011,38.86051],[-121.21096,38.85982],[-121.21588,38.85508],[-121.21711,38.85377],[-121.21803,38.85258],[-121.21875,38.85143],[-121.21938,38.8502],[-121.21987,38.84895],[-121.22015,38.848],[-121.22034,38.84712],[-121.22051,38.8454],[-121.22042,38.82775],[-121.22043,38.82692],[-121.22051,38.82629],[-121.22065,38.82575],[-121.22087,38.82522],[-121.22338,38.82072],[-121.22401,38.81943],[-121.22463,38.81793],[-121.22521,38.81621],[-121.22867,38.80468],[-121.22904,38.80365],[-121.22949,38.80264],[-121.23006,38.80162],[-121.23081,38.80051],[-121.23853,38.78985],[-121.24002,38.78791],[-121.24792,38.77697],[-121.24873,38.77599],[-121.25473,38.76916],[-121.25559,38.76808],[-121.26029,38.76091],[-121.26069,38.76037],[-121.26116,38.75989],[-121.26184,38.7594],[-121.26261,38.75903],[-121.2634,38.75878],[-121.26441,38.75863],[-121.26792,38.7585],[-121.26952,38.75834],[-121.27047,38.75817],[-121.27181,38.75782],[-121.27328,38.75729],[-121.27403,38.75695],[-121.27487,38.7565],[-121.28223,38.75214],[-121.28375,38.75119],[-121.28538,38.75002],[-121.28671,38.74897],[-121.28918,38.74723],[-121.29704,38.74116],[-121.29781,38.7407],[-121.29851,38.74037],[-121.30131,38.73944],[-121.30234,38.73898],[-121.30287,38.73869],[-121.30492,38.73727],[-121.30542,38.73682],[-121.30587,38.73635],[-121.31263,38.72849],[-121.31648,38.72419],[-121.32982,38.70866],[-121.33053,38.70787],[-121.3327,38.70567],[-121.44016,38.60654],[-121.44664,38.60046],[-121.44737,38.59972],[-121.44818,38.59871],[-121.44863,38.59804],[-121.44876,38.59779],[-121.4491,38.59716],[-121.44926,38.59687],[-121.44935,38.59664],[-121.44951,38.59621],[-121.44965,38.59585],[-121.44979,38.59531],[-121.44993,38.59478],[-121.44997,38.59464],[-121.45,38.59438],[-121.45009,38.59378],[-121.45012,38.59356],[-121.45017,38.59295],[-121.45034,38.5882],[-121.4504,38.58773],[-121.45088,38.58543],[-121.45102,38.58487],[-121.45135,38.58419],[-121.45168,38.58377],[-121.45197,38.58349],[-121.45244,38.58315],[-121.4534,38.58258],[-121.45422,38.58217],[-121.45485,38.58194],[-121.45623,38.58155],[-121.45689,38.58143],[-121.45723,38.5814],[-121.45812,38.58131],[-121.45921,38.58136],[-121.45992,38.58146],[-121.46067,38.58164],[-121.4635,38.58258],[-121.46446,38.58285],[-121.46484,38.58293],[-121.46573,38.58312],[-121.46819,38.58342],[-121.46927,38.58363],[-121.46987,38.58379],[-121.47852,38.58611],[-121.48701,38.58838],[-121.48777,38.58854],[-121.4884,38.58863],[-121.48901,38.58864],[-121.48963,38.58858],[-121.49424,38.58788],[-121.49443,38.58783],[-121.49477,38.58773],[-121.49491,38.5877],[-121.49501,38.58763],[-121.49533,38.58743],[-121.49542,38.58737],[-121.49548,38.58731],[-121.49572,38.58704],[-121.4964,38.58555],[-121.49647,38.58545],[-121.49668,38.58516],[-121.49704,38.58489],[-121.49749,38.58466],[-121.49808,38.58446],[-121.49856,38.5844],[-121.49906,38.58444],[-121.49974,38.58459],[-121.50058,38.58478],[-121.50233,38.58517],[-121.50987,38.58717],[-121.51064,38.58734],[-121.51168,38.58747],[-121.53339,38.58859],[-121.53497,38.5886],[-121.5367,38.58854],[-121.53815,38.58843],[-121.53971,38.58824],[-121.54246,38.58776],[-121.60804,38.57307],[-121.61486,38.57152],[-121.73443,38.54442],[-121.73561,38.54409],[-121.73668,38.54367],[-121.73735,38.54333],[-121.73794,38.54295],[-121.73813,38.5428],[-121.73877,38.54229],[-121.73968,38.54136],[-121.74943,38.53043],[-121.76365,38.51445],[-121.77571,38.50091],[-121.81349,38.45847],[-121.82554,38.44495],[-121.83348,38.43602],[-121.89529,38.36647],[-121.94001,38.31602],[-121.94166,38.31394],[-121.9428,38.31226],[-121.95177,38.29735],[-121.95227,38.29662],[-121.95313,38.29551],[-121.9538,38.29472],[-121.95455,38.29393],[-121.95558,38.29296],[-121.95694,38.29186],[-121.95832,38.29088],[-121.95978,38.28998],[-121.99782,38.26908],[-122.03623,38.24791],[-122.03767,38.24698],[-122.03924,38.24575],[-122.04065,38.24435],[-122.04167,38.24308],[-122.0425,38.24179],[-122.04382,38.23932],[-122.08841,38.15468],[-122.08907,38.15353],[-122.09457,38.1431],[-122.09953,38.13366],[-122.10015,38.13234],[-122.10053,38.1313],[-122.10085,38.13013],[-122.10104,38.12904],[-122.10112,38.12805],[-122.10112,38.12575],[-122.10087,38.11269],[-122.10085,38.10791],[-122.10099,38.10571],[-122.10127,38.10382],[-122.10167,38.10203],[-122.10423,38.09248],[-122.10421,38.09233],[-122.10435,38.09165],[-122.10502,38.08906],[-122.10592,38.0857],[-122.10622,38.08501],[-122.1068,38.08401],[-122.10745,38.08317],[-122.12546,38.0636],[-122.12607,38.06273],[-122.12656,38.06178],[-122.12678,38.06116],[-122.12799,38.05696],[-122.12843,38.05526],[-122.12859,38.05431],[-122.12883,38.05182],[-122.12893,38.05145],[-122.12893,38.05145],[-122.12898,38.05051],[-122.12892,38.04986],[-122.12869,38.04911],[-122.12849,38.04871],[-122.12816,38.04819],[-122.11904,38.03636],[-122.1183,38.03535],[-122.11804,38.03492],[-122.11792,38.03462],[-122.11779,38.03399],[-122.11776,38.03332],[-122.11819,38.02981],[-122.11833,38.02887],[-122.11842,38.0285],[-122.11854,38.02816],[-122.11885,38.02753],[-122.11906,38.0272],[-122.11933,38.02685],[-122.11987,38.02628],[-122.12039,38.02586],[-122.12095,38.0255],[-122.1216,38.02517],[-122.12226,38.02491],[-122.12331,38.02461],[-122.12831,38.0234],[-122.12945,38.02302],[-122.13048,38.02249],[-122.13297,38.0208],[-122.13367,38.02048],[-122.13385,38.0204],[-122.13402,38.02032],[-122.13483,38.02007],[-122.13516,38.01996],[-122.13542,38.01988],[-122.13556,38.01986],[-122.13736,38.01956],[-122.13874,38.01933],[-122.13899,38.01929],[-122.13914,38.01928],[-122.13922,38.01927],[-122.14143,38.01909],[-122.14244,38.0191],[-122.14266,38.0191],[-122.14303,38.01915],[-122.14331,38.01919],[-122.14348,38.01921],[-122.1441,38.01936],[-122.14425,38.01941],[-122.14814,38.02067],[-122.15871,38.02488],[-122.16171,38.02589],[-122.16866,38.02919],[-122.1689,38.02933],[-122.16936,38.0296],[-122.16954,38.02971],[-122.16985,38.02998],[-122.17014,38.03031],[-122.17086,38.03149],[-122.17129,38.03201],[-122.17182,38.03243],[-122.17333,38.03339],[-122.1737,38.03373],[-122.17407,38.03419],[-122.17435,38.0347],[-122.17451,38.03522],[-122.17489,38.03791],[-122.17498,38.03829],[-122.17513,38.03867],[-122.17545,38.03918],[-122.17636,38.04022],[-122.17677,38.04076],[-122.17849,38.04367],[-122.17913,38.04452],[-122.17962,38.045],[-122.18022,38.04546],[-122.18222,38.04661],[-122.18288,38.04706],[-122.18345,38.04755],[-122.18484,38.0489],[-122.18567,38.04955],[-122.18942,38.0517],[-122.19045,38.05223],[-122.19108,38.05243],[-122.1918,38.05255],[-122.19711,38.05278],[-122.19798,38.05286],[-122.19884,38.053],[-122.20278,38.05383],[-122.21469,38.05661],[-122.21579,38.05685],[-122.21654,38.05695],[-122.21727,38.05699],[-122.2179,38.05691],[-122.21856,38.05672],[-122.22105,38.05585],[-122.22185,38.05571],[-122.22271,38.05568],[-122.22887,38.05641],[-122.23635,38.05711],[-122.23714,38.05727],[-122.23847,38.05772],[-122.23909,38.05788],[-122.23986,38.05797],[-122.24057,38.05793],[-122.2414,38.05775],[-122.24159,38.05771],[-122.24177,38.05763],[-122.24223,38.05745],[-122.24256,38.05732],[-122.24392,38.05663],[-122.24617,38.05531],[-122.2467,38.05492],[-122.24719,38.05447],[-122.24843,38.05294],[-122.24886,38.0525],[-122.24951,38.05202],[-122.25025,38.05166],[-122.25091,38.05145],[-122.25185,38.05131],[-122.25808,38.05105],[-122.25875,38.05099],[-122.25937,38.05083],[-122.25988,38.05065],[-122.26035,38.0504],[-122.26079,38.05008],[-122.26113,38.04977],[-122.26141,38.04941],[-122.26163,38.04904],[-122.26176,38.04869],[-122.26191,38.04799],[-122.26273,38.04233],[-122.26287,38.04187],[-122.26305,38.04146],[-122.2633,38.04108],[-122.26362,38.04068],[-122.26437,38.04004],[-122.26485,38.03975],[-122.26543,38.03948],[-122.27239,38.03738],[-122.2731,38.03703],[-122.27368,38.03662],[-122.27419,38.03604],[-122.27451,38.03542],[-122.27466,38.0348],[-122.27492,38.03293],[-122.27513,38.03204],[-122.27554,38.0309],[-122.27625,38.02943],[-122.27669,38.02881],[-122.27733,38.02817],[-122.27782,38.0278],[-122.27911,38.02694],[-122.27958,38.0265],[-122.27989,38.02604],[-122.28056,38.02463],[-122.28085,38.02409],[-122.28131,38.02341],[-122.28185,38.02274],[-122.28244,38.02221],[-122.28322,38.02178],[-122.28376,38.02158],[-122.28777,38.02041],[-122.28843,38.02011],[-122.28903,38.01971],[-122.2897,38.01907],[-122.2925,38.01553],[-122.29369,38.0142],[-122.29512,38.01278],[-122.29624,38.01175],[-122.29728,38.01092],[-122.29798,38.0105],[-122.29877,38.01021],[-122.29964,38.01007],[-122.30039,38.01007],[-122.3043,38.01033],[-122.30513,38.01035],[-122.30628,38.01023],[-122.30848,38.00982],[-122.30923,38.00978],[-122.31019,38.00992],[-122.31413,38.011],[-122.31501,38.01109],[-122.31571,38.01103],[-122.31592,38.01101],[-122.31617,38.01094],[-122.31664,38.01081],[-122.31684,38.01075],[-122.31728,38.01054],[-122.31767,38.0103],[-122.32148,38.00705],[-122.32272,38.00612],[-122.32338,38.00566],[-122.32492,38.0046],[-122.32917,38.00194],[-122.32998,38.00155],[-122.33025,38.00141],[-122.33051,38.00132],[-122.33143,38.001],[-122.3325,38.00074],[-122.3336,38.00058],[-122.33488,38.00051],[-122.33591,38.00055],[-122.33739,38.00076],[-122.34447,38.00222],[-122.3457,38.00237],[-122.34686,38.00239],[-122.34778,38.00232],[-122.34892,38.00214],[-122.34927,38.00208],[-122.35027,38.00181],[-122.35099,38.00155],[-122.35179,38.00119],[-122.3525,38.00081],[-122.35311,38.00041],[-122.35389,37.9998],[-122.3545,37.99918],[-122.35505,37.99851],[-122.35548,37.99789],[-122.35585,37.99719],[-122.35611,37.99651],[-122.3563,37.99577],[-122.35641,37.99506],[-122.35771,37.98074],[-122.35784,37.97977],[-122.35802,37.97788],[-122.36018,37.95359],[-122.36019,37.95156],[-122.3601,37.95043],[-122.35997,37.94939],[-122.35975,37.9482],[-122.35952,37.94723],[-122.35934,37.94666],[-122.35886,37.94513],[-122.35836,37.9439],[-122.35783,37.94277],[-122.3572,37.94161],[-122.35647,37.94042],[-122.35567,37.9393],[-122.35535,37.93885],[-122.35411,37.93734],[-122.35281,37.93596],[-122.35254,37.93568],[-122.35221,37.93539],[-122.35098,37.93432],[-122.34964,37.93331],[-122.32954,37.91853],[-122.32779,37.91711],[-122.32622,37.91564],[-122.32498,37.91429],[-122.31077,37.8967],[-122.30967,37.89522],[-122.30913,37.89424],[-122.30875,37.89334],[-122.3065,37.88464],[-122.30597,37.88282],[-122.29542,37.85001],[-122.29515,37.8493],[-122.29309,37.84291],[-122.29305,37.8428],[-122.29283,37.84211]]},"properties":{"routeId":"96","name":"California Zephyr","shortName":"","color":"#6B3A2A","textColor":"#ffffff","system":"calzephyr"}}]}