{"type":"FeatureCollection","features":[{"type":"Feature","geometry":{"type":"Point","coordinates":[-122.29161,37.84047]},"properties":{"name":"Emeryville","stopId":"EMY","system":"calzephyr","routes":["96"],"colors":["#6B3A2A"]}},{"type":"Feature","geometry":{"type":"Point","coordinates":[-122.35413,37.93675]},"properties":{"name":"Richmond","stopId":"RIC","system":"calzephyr","routes":["96"],"colors":["#6B3A2A"]}},{"type":"Feature","geometry":{"type":"Point","coordinates":[-122.13878,38.01892]},"properties":{"name":"Martinez","stopId":"MTZ","system":"calzephyr","routes":["96"],"colors":["#6B3A2A"]}},{"type":"Feature","geometry":{"type":"Point","coordinates":[-121.73771,38.54356]},"properties":{"name":"Davis","stopId":"DAV","system":"calzephyr","routes":["96"],"colors":["#6B3A2A"]}},{"type":"Feature","geometry":{"type":"Point","coordinates":[-121.5007,38.584]},"properties":{"name":"Sacramento","stopId":"SAC","system":"calzephyr","routes":["96"],"colors":["#6B3A2A"]}},{"type":"Feature","geometry":{"type":"Point","coordinates":[-121.28629,38.75002]},"properties":{"name":"Roseville","stopId":"RSV","system":"calzephyr","routes":["96"],"colors":["#6B3A2A"]}},{"type":"Feature","geometry":{"type":"Point","coordinates":[-120.95307,39.09917]},"properties":{"name":"Colfax","stopId":"COX","system":"calzephyr","routes":["96"],"colors":["#6B3A2A"]}},{"type":"Feature","geometry":{"type":"Point","coordinates":[-120.18539,39.32762]},"properties":{"name":"Truckee","stopId":"TRU","system":"calzephyr","routes":["96"],"colors":["#6B3A2A"]}},{"type":"Feature","geometry":{"type":"Point","coordinates":[-119.81212,39.52852]},"properties":{"name":"Reno","stopId":"RNO","system":"calzephyr","routes":["96"],"colors":["#6B3A2A"]}}]}