{"type":"FeatureCollection","features":[{"type":"Feature","geometry":{"type":"LineString","coordinates":[[-121.08292,38.90383],[-121.08336,38.90372],[-121.08319,38.90333],[-121.08302,38.90279],[-121.08167,38.89973],[-121.0809,38.89791],[-121.08079,38.89757],[-121.08069,38.89716],[-121.08057,38.89638],[-121.08057,38.89613],[-121.08059,38.89592],[-121.08065,38.89561],[-121.08071,38.89535],[-121.08089,38.89491],[-121.08105,38.89458],[-121.08127,38.89415],[-121.08207,38.89286],[-121.08511,38.88813],[-121.08548,38.88758],[-121.08587,38.88706],[-121.08647,38.88644],[-121.08717,38.88586],[-121.08856,38.88487],[-121.09005,38.88395],[-121.09026,38.88384],[-121.09069,38.88366],[-121.09091,38.88358],[-121.09141,38.88343],[-121.0919,38.88331],[-121.0924,38.88322],[-121.09291,38.88316],[-121.09354,38.88311],[-121.09717,38.88285],[-121.09766,38.88279],[-121.0981,38.88272],[-121.09853,38.88262],[-121.09876,38.88256],[-121.09926,38.8824],[-121.09954,38.8823],[-121.09999,38.8821],[-121.10029,38.88195],[-121.10066,38.88174],[-121.10505,38.87914],[-121.10591,38.87866],[-121.10658,38.87832],[-121.10719,38.87805],[-121.10781,38.87781],[-121.10863,38.87752],[-121.10953,38.87725],[-121.10997,38.87713],[-121.11043,38.87702],[-121.11087,38.87693],[-121.1115,38.87681],[-121.11223,38.8767],[-121.11291,38.87663],[-121.1136,38.87657],[-121.12465,38.876],[-121.12817,38.87583],[-121.13006,38.87573],[-121.13123,38.87572],[-121.13185,38.87573],[-121.13232,38.87573],[-121.13266,38.87575],[-121.13309,38.8758],[-121.13457,38.87602],[-121.13547,38.87614],[-121.13794,38.87649],[-121.13885,38.87662],[-121.13906,38.87664],[-121.13944,38.87665],[-121.1398,38.87665],[-121.14023,38.87661],[-121.14072,38.87653],[-121.14117,38.87643],[-121.14163,38.87628],[-121.14178,38.87622],[-121.14223,38.87603],[-121.14316,38.87556],[-121.14489,38.87472],[-121.14959,38.87239],[-121.15062,38.87189],[-121.15084,38.87179],[-121.15116,38.87169],[-121.1514,38.87163],[-121.15161,38.8716],[-121.1518,38.87158],[-121.15201,38.87158],[-121.15227,38.87159],[-121.1525,38.87162],[-121.15305,38.8717],[-121.15328,38.87172],[-121.15353,38.87172],[-121.15372,38.87171],[-121.15391,38.87169],[-121.15411,38.87165],[-121.15431,38.8716],[-121.1545,38.87153],[-121.15471,38.87144],[-121.1549,38.87134],[-121.1551,38.87121],[-121.15532,38.87104],[-121.15552,38.87081],[-121.1556,38.87071],[-121.15573,38.8705],[-121.15585,38.87025],[-121.1559,38.87002],[-121.15592,38.86975],[-121.1559,38.86955],[-121.15584,38.86929],[-121.15557,38.86862],[-121.15553,38.86849],[-121.1555,38.86836],[-121.15549,38.86826],[-121.15548,38.86801],[-121.15551,38.86776],[-121.15554,38.86764],[-121.15563,38.86742],[-121.15568,38.86731],[-121.15583,38.86709],[-121.15602,38.86687],[-121.15625,38.86668],[-121.15636,38.86661],[-121.15656,38.86649],[-121.15678,38.86638],[-121.15696,38.86631],[-121.15721,38.86624],[-121.15759,38.86617],[-121.15781,38.86614],[-121.15986,38.86601],[-121.16031,38.86596],[-121.16054,38.86592],[-121.16083,38.86586],[-121.16105,38.8658],[-121.16128,38.86573],[-121.16157,38.86563],[-121.16195,38.86546],[-121.16234,38.86527],[-121.16249,38.86518],[-121.16268,38.86504],[-121.16297,38.86483],[-121.16314,38.86468],[-121.16329,38.86454],[-121.16351,38.86432],[-121.1636,38.8642],[-121.16379,38.86395],[-121.16404,38.86355],[-121.16497,38.86191],[-121.16525,38.86133],[-121.16536,38.86101],[-121.16542,38.86081],[-121.16557,38.86002],[-121.16582,38.85888],[-121.16587,38.8586],[-121.16588,38.85844],[-121.16587,38.85807],[-121.16585,38.85788],[-121.16578,38.85742],[-121.16578,38.85711],[-121.16582,38.85682],[-121.16587,38.85667],[-121.16593,38.85652],[-121.166,38.85639],[-121.16611,38.85623],[-121.16622,38.85609],[-121.16634,38.85597],[-121.16648,38.85585],[-121.16662,38.85575],[-121.16695,38.85556],[-121.1678,38.85511],[-121.16858,38.85469],[-121.16876,38.85457],[-121.16891,38.85446],[-121.16906,38.85434],[-121.16929,38.85412],[-121.1694,38.854],[-121.16959,38.85374],[-121.16969,38.85357],[-121.16983,38.85326],[-121.16987,38.85313],[-121.16994,38.85282],[-121.16998,38.85231],[-121.17002,38.85202],[-121.1701,38.85171],[-121.17016,38.85155],[-121.17023,38.85142],[-121.17041,38.85114],[-121.17059,38.8509],[-121.17089,38.85063],[-121.17108,38.85048],[-121.17126,38.85036],[-121.17164,38.85016],[-121.17184,38.85008],[-121.17208,38.84999],[-121.17235,38.84991],[-121.17304,38.84972],[-121.17355,38.84957],[-121.17381,38.84947],[-121.17404,38.84937],[-121.17427,38.84925],[-121.17448,38.84911],[-121.17467,38.84897],[-121.17485,38.84883],[-121.17503,38.84866],[-121.17526,38.84839],[-121.17538,38.84823],[-121.17559,38.84788],[-121.17577,38.8475],[-121.17583,38.84736],[-121.17587,38.84719],[-121.17591,38.84693],[-121.17597,38.84609],[-121.17602,38.8459],[-121.17609,38.8457],[-121.17621,38.84547],[-121.17634,38.84525],[-121.1765,38.84506],[-121.17661,38.84494],[-121.17677,38.84479],[-121.1771,38.84451],[-121.17734,38.8443],[-121.17751,38.84411],[-121.17765,38.84394],[-121.17775,38.84378],[-121.17784,38.84361],[-121.17792,38.84343],[-121.17798,38.84322],[-121.17803,38.84297],[-121.17805,38.84275],[-121.17804,38.84259],[-121.17803,38.84241],[-121.17799,38.8422],[-121.1779,38.84188],[-121.17772,38.84141],[-121.17755,38.84102],[-121.17739,38.84064],[-121.17722,38.84016],[-121.17714,38.83985],[-121.1771,38.83961],[-121.17707,38.83927],[-121.17708,38.83912],[-121.17711,38.83894],[-121.17715,38.83876],[-121.1772,38.8386],[-121.17727,38.83843],[-121.17735,38.83826],[-121.17746,38.83809],[-121.17759,38.83792],[-121.17777,38.83774],[-121.17795,38.83756],[-121.17814,38.83741],[-121.17834,38.83727],[-121.17854,38.83716],[-121.17875,38.83706],[-121.17911,38.83691],[-121.17934,38.83685],[-121.17973,38.83677],[-121.18014,38.83672],[-121.18075,38.83668],[-121.18119,38.83666],[-121.18239,38.8366],[-121.18305,38.83654],[-121.18341,38.83649],[-121.18385,38.83641],[-121.18428,38.8363],[-121.18466,38.8362],[-121.18506,38.83607],[-121.18541,38.83594],[-121.18576,38.83579],[-121.18607,38.83565],[-121.1863,38.83552],[-121.1867,38.8353],[-121.18707,38.83505],[-121.18742,38.8348],[-121.18773,38.83455],[-121.18804,38.83427],[-121.18847,38.83382],[-121.18881,38.83338],[-121.18897,38.83314],[-121.18913,38.83289],[-121.18928,38.83259],[-121.18941,38.83233],[-121.18951,38.83207],[-121.18999,38.83051],[-121.19046,38.82906],[-121.19108,38.82703],[-121.19146,38.8258],[-121.19156,38.8255],[-121.19184,38.82485],[-121.19193,38.82469],[-121.19217,38.82432],[-121.19231,38.82414],[-121.19257,38.82383],[-121.19351,38.82286],[-121.19438,38.82191],[-121.19507,38.82116],[-121.19577,38.82043],[-121.19872,38.81726],[-121.19896,38.81702],[-121.19929,38.81672],[-121.19967,38.81641],[-121.20016,38.81605],[-121.20039,38.8159],[-121.20369,38.81389],[-121.20467,38.81333],[-121.21056,38.80976],[-121.21269,38.80845],[-121.21703,38.80583],[-121.21861,38.80486],[-121.22187,38.80289],[-121.22272,38.80244],[-121.22352,38.80205],[-121.22392,38.80187],[-121.22487,38.8015],[-121.22579,38.80117],[-121.22697,38.80081],[-121.23185,38.7996],[-121.23227,38.79944],[-121.2325,38.79933],[-121.23269,38.79923],[-121.23287,38.79912],[-121.23319,38.79887],[-121.23344,38.79862],[-121.23365,38.79834],[-121.23375,38.79817],[-121.23384,38.79798],[-121.23469,38.79582],[-121.2348,38.79557],[-121.23517,38.7948],[-121.23539,38.7944],[-121.23574,38.79384],[-121.23605,38.79338],[-121.23792,38.79081],[-121.23878,38.7896],[-121.23993,38.78804],[-121.23959,38.78849],[-121.23871,38.78958],[-121.2374,38.79105],[-121.23741,38.79106],[-121.2376,38.79114],[-121.23871,38.78958],[-121.23959,38.78849],[-121.23993,38.78804],[-121.24107,38.78645],[-121.2423,38.78468],[-121.24382,38.78261],[-121.24774,38.77717],[-121.24807,38.77675],[-121.24862,38.77609],[-121.25232,38.77188],[-121.25233,38.77188],[-121.25454,38.76938],[-121.25522,38.76857],[-121.25564,38.76801],[-121.25635,38.76692],[-121.25654,38.76665],[-121.25681,38.76622],[-121.25849,38.76363],[-121.26009,38.76119],[-121.2605,38.76058],[-121.26066,38.76038],[-121.26086,38.76017],[-121.26116,38.75987],[-121.26151,38.7596],[-121.26173,38.75945],[-121.26193,38.75933],[-121.26235,38.75912],[-121.26256,38.75903],[-121.26303,38.75887],[-121.26334,38.75878],[-121.26365,38.75871],[-121.2639,38.75867],[-121.26444,38.75862],[-121.26773,38.75851],[-121.26812,38.75849],[-121.26879,38.75843],[-121.26926,38.75837],[-121.26961,38.75832],[-121.27001,38.75825],[-121.27039,38.75818],[-121.27076,38.75809],[-121.27154,38.75788],[-121.27188,38.75778],[-121.27246,38.75759],[-121.27296,38.7574],[-121.27357,38.75715],[-121.27409,38.7569],[-121.27464,38.75662],[-121.27525,38.75626],[-121.28306,38.75163],[-121.28338,38.75142],[-121.28494,38.75032],[-121.2856,38.74991],[-121.2859,38.74975],[-121.28603,38.74969],[-121.28627,38.74996],[-121.28626,38.74994],[-121.44479,38.60221],[-121.44479,38.60221],[-121.44374,38.60321],[-121.44112,38.60562],[-121.44214,38.60468],[-121.44249,38.60434],[-121.44303,38.60378],[-121.44326,38.60355],[-121.44667,38.60041],[-121.44695,38.60014],[-121.44722,38.59987],[-121.44753,38.59952],[-121.44783,38.59916],[-121.44807,38.59885],[-121.44832,38.59851],[-121.44857,38.59813],[-121.4488,38.59774],[-121.4491,38.59717],[-121.44932,38.59671],[-121.44944,38.59643],[-121.44958,38.59607],[-121.44975,38.59552],[-121.44996,38.59466],[-121.45004,38.59419],[-121.45014,38.59346],[-121.45017,38.59297],[-121.45035,38.58833],[-121.45036,38.58796],[-121.45038,38.58779],[-121.45051,38.58716],[-121.45099,38.58496],[-121.45109,38.58467],[-121.45135,38.58418],[-121.45158,38.58389],[-121.45172,38.58373],[-121.45192,38.58354],[-121.45215,38.58335],[-121.45272,38.58299],[-121.45363,38.58245],[-121.45388,38.58232],[-121.4544,38.5821],[-121.45486,38.58194],[-121.45571,38.58168],[-121.45616,38.58155],[-121.45672,38.58144],[-121.45717,38.58138],[-121.45768,38.58133],[-121.45815,38.58131],[-121.45867,38.58131],[-121.45894,38.58133],[-121.45948,38.58138],[-121.45998,38.58147],[-121.46047,38.58158],[-121.46091,38.58171],[-121.46339,38.58254],[-121.46408,38.58275],[-121.46456,38.58288],[-121.46493,38.58296],[-121.46531,38.58304],[-121.46587,38.58313],[-121.46661,38.58323],[-121.4678,38.58336],[-121.4685,38.58346],[-121.46899,38.58355],[-121.46949,38.58367],[-121.47068,38.58398],[-121.48583,38.58804],[-121.48624,38.58815],[-121.48756,38.5885],[-121.48782,38.58855],[-121.48818,38.58861],[-121.4886,38.58864],[-121.48879,38.58864],[-121.48913,38.58863],[-121.48956,38.58856],[-121.49467,38.58649],[-121.50073,38.58402],[-121.50694,38.58638],[-121.51158,38.58749],[-121.51892,38.58799],[-121.53698,38.5885],[-121.54407,38.58752],[-121.58522,38.57863],[-121.73776,38.54349],[-121.73781,38.5435],[-121.73801,38.54354],[-121.73809,38.54335],[-121.73819,38.54314],[-121.73825,38.54305],[-121.73853,38.54272],[-121.73889,38.54232],[-121.73952,38.54167],[-121.74018,38.54094],[-121.74033,38.54077],[-121.74072,38.54027],[-121.74075,38.54024],[-121.74075,38.54024],[-121.74206,38.53876],[-121.76206,38.51631],[-121.76565,38.51227],[-121.76701,38.51075],[-121.77439,38.50243],[-121.79402,38.48039],[-121.79668,38.47739],[-121.80035,38.47329],[-121.80094,38.47259],[-121.80147,38.47202],[-121.80396,38.46921],[-121.80962,38.46289],[-121.81064,38.46172],[-121.81868,38.4527],[-121.82022,38.45095],[-121.82159,38.44943],[-121.82416,38.44655],[-121.82504,38.4456],[-121.82584,38.44471],[-121.82701,38.44339],[-121.83506,38.43435],[-121.83949,38.42932],[-121.84986,38.41766],[-121.85108,38.4163],[-121.85164,38.41565],[-121.85976,38.40652],[-121.86087,38.40528],[-121.86346,38.40233],[-121.86395,38.40181],[-121.86647,38.39898],[-121.87107,38.39378],[-121.87287,38.39178],[-121.87502,38.38934],[-121.87572,38.38857],[-121.87753,38.38653],[-121.87804,38.38594],[-121.87853,38.3854],[-121.88046,38.38322],[-121.88597,38.37703],[-121.88806,38.37467],[-121.88997,38.37249],[-121.89114,38.3712],[-121.892,38.37021],[-121.89518,38.36665],[-121.89524,38.36659],[-121.89541,38.36639],[-121.89816,38.36334],[-121.90129,38.35979],[-121.90208,38.35892],[-121.90236,38.35858],[-121.90293,38.35796],[-121.90752,38.3528],[-121.90971,38.35031],[-121.91117,38.3486],[-121.9142,38.34521],[-121.91938,38.33937],[-121.92134,38.33715],[-121.92177,38.33668],[-121.92579,38.33212],[-121.92782,38.32985],[-121.92796,38.3297],[-121.93065,38.32666],[-121.9322,38.32493],[-121.93927,38.31692],[-121.93974,38.31642],[-121.94022,38.31587],[-121.94111,38.31478],[-121.94189,38.31374],[-121.94266,38.31262],[-121.94422,38.31003],[-121.94659,38.30606],[-121.94745,38.30463],[-121.94825,38.30332],[-121.94906,38.30194],[-121.94957,38.30111],[-121.9503,38.29985],[-121.95168,38.29757],[-121.95204,38.29703],[-121.95237,38.29657],[-121.95292,38.29582],[-121.95357,38.29505],[-121.95462,38.29392],[-121.95523,38.29335],[-121.9559,38.29275],[-121.95685,38.292],[-121.95736,38.2916],[-121.95798,38.29117],[-121.95884,38.2906],[-121.95959,38.29014],[-121.96018,38.2898],[-121.96807,38.2854],[-121.96811,38.28545],[-121.96811,38.28545],[-121.98032,38.27876],[-121.9887,38.27415],[-121.99084,38.27298],[-121.99178,38.27247],[-121.99224,38.2722],[-121.99568,38.27033],[-121.99761,38.26926],[-121.99761,38.26926],[-121.99681,38.26969],[-121.99562,38.2703],[-121.99534,38.27046],[-122.00524,38.26501],[-122.00642,38.26435],[-122.0085,38.26321],[-122.0107,38.26198],[-122.01279,38.26084],[-122.0164,38.25884],[-122.02016,38.25679],[-122.03592,38.24809],[-122.03665,38.24766],[-122.03715,38.24734],[-122.0378,38.24689],[-122.03818,38.24661],[-122.03864,38.24625],[-122.03912,38.24585],[-122.03954,38.24547],[-122.03985,38.24517],[-122.04039,38.24462],[-122.04091,38.24404],[-122.04119,38.24345],[-122.04126,38.24348],[-122.04133,38.24352],[-122.04091,38.24404],[-122.04039,38.24462],[-122.03985,38.24517],[-122.03954,38.24547],[-122.03912,38.24585],[-122.03864,38.24625],[-122.03818,38.24661],[-122.0378,38.24689],[-122.03715,38.24734],[-122.03665,38.24766],[-122.03592,38.24809],[-122.02016,38.25679],[-122.0164,38.25884],[-122.01279,38.26084],[-122.0107,38.26198],[-122.0085,38.26321],[-122.00642,38.26435],[-122.00524,38.26501],[-121.99534,38.27046],[-121.99562,38.2703],[-121.99681,38.26969],[-122.00063,38.2676],[-122.00325,38.26615],[-122.00398,38.26573],[-122.00475,38.26531],[-122.00532,38.26501],[-122.00677,38.2642],[-122.01201,38.26132],[-122.0173,38.2584],[-122.01791,38.25808],[-122.01986,38.257],[-122.0222,38.25572],[-122.02452,38.25442],[-122.02597,38.25364],[-122.02656,38.2533],[-122.03529,38.24849],[-122.03636,38.24788],[-122.03691,38.24755],[-122.03718,38.24738],[-122.03747,38.24718],[-122.03816,38.24668],[-122.03853,38.2464],[-122.03916,38.24587],[-122.0397,38.24538],[-122.04002,38.24507],[-122.04043,38.24465],[-122.04096,38.24406],[-122.04151,38.2434],[-122.042,38.2427],[-122.04239,38.24208],[-122.04262,38.24167],[-122.05402,38.22007],[-122.05402,38.22006],[-122.06164,38.20561],[-122.06201,38.20487],[-122.06367,38.20174],[-122.06461,38.19994],[-122.06541,38.19846],[-122.06723,38.19498],[-122.0682,38.19318],[-122.06891,38.19179],[-122.06953,38.19063],[-122.07181,38.1863],[-122.07491,38.18038],[-122.0754,38.17952],[-122.07552,38.17929],[-122.07601,38.17836],[-122.07629,38.17775],[-122.07683,38.17671],[-122.08352,38.16405],[-122.08522,38.16081],[-122.08641,38.15857],[-122.08778,38.15596],[-122.08828,38.1549],[-122.08887,38.15377],[-122.08931,38.15298],[-122.08971,38.15218],[-122.09102,38.14971],[-122.09714,38.13804],[-122.09792,38.13656],[-122.09881,38.13487],[-122.09926,38.13402],[-122.09987,38.13282],[-122.10015,38.13216],[-122.10038,38.13154],[-122.10057,38.13093],[-122.10073,38.13032],[-122.1009,38.1295],[-122.10102,38.12856],[-122.10105,38.12809],[-122.10107,38.1273],[-122.10108,38.12667],[-122.10106,38.12568],[-122.10103,38.12419],[-122.101,38.12191],[-122.10096,38.11975],[-122.10092,38.1189],[-122.10094,38.11795],[-122.10088,38.11661],[-122.10083,38.11439],[-122.10079,38.11216],[-122.10079,38.10977],[-122.10078,38.10822],[-122.10079,38.10749],[-122.10085,38.10649],[-122.10092,38.10568],[-122.10098,38.10517],[-122.10109,38.10445],[-122.10126,38.10352],[-122.10147,38.10258],[-122.10289,38.09712],[-122.10374,38.09393],[-122.10378,38.09376],[-122.10423,38.09206],[-122.10464,38.09048],[-122.10541,38.08759],[-122.10589,38.08579],[-122.10601,38.08546],[-122.10615,38.08513],[-122.10637,38.08468],[-122.10649,38.08446],[-122.10672,38.08409],[-122.10694,38.0838],[-122.1074,38.08323],[-122.1143,38.07572],[-122.11561,38.0743],[-122.11739,38.07237],[-122.12493,38.06418],[-122.12519,38.06391],[-122.12546,38.06361],[-122.12578,38.06317],[-122.1261,38.06265],[-122.12637,38.06214],[-122.12646,38.06195],[-122.12655,38.06175],[-122.12673,38.06127],[-122.12782,38.05757],[-122.12812,38.05651],[-122.12826,38.05597],[-122.12844,38.05517],[-122.12852,38.05473],[-122.12859,38.05422],[-122.12864,38.05375],[-122.12887,38.05086],[-122.12888,38.05043],[-122.12886,38.05011],[-122.12881,38.04979],[-122.12869,38.04933],[-122.12848,38.04883],[-122.12831,38.04853],[-122.12809,38.04818],[-122.11844,38.03564],[-122.11821,38.03531],[-122.11805,38.03502],[-122.11794,38.03477],[-122.11784,38.03448],[-122.11776,38.03412],[-122.1177,38.03354],[-122.11772,38.03321],[-122.1178,38.03253],[-122.11819,38.02935],[-122.11832,38.02873],[-122.11837,38.02851],[-122.11851,38.0281],[-122.11865,38.02778],[-122.11876,38.02758],[-122.11896,38.02725],[-122.1191,38.02705],[-122.11926,38.02685],[-122.11966,38.02641],[-122.12003,38.02608],[-122.12019,38.02595],[-122.12042,38.02578],[-122.12072,38.02558],[-122.12105,38.02538],[-122.12156,38.02513],[-122.12169,38.02507],[-122.12219,38.02488],[-122.12244,38.0248],[-122.12305,38.02463],[-122.12433,38.02432],[-122.12821,38.02338],[-122.12878,38.02322],[-122.12902,38.02314],[-122.12931,38.02303],[-122.12955,38.02293],[-122.12983,38.0228],[-122.1301,38.02266],[-122.13038,38.0225],[-122.13071,38.02229],[-122.13267,38.02099],[-122.13287,38.02086],[-122.13331,38.02063],[-122.13359,38.02051],[-122.13443,38.02021],[-122.13508,38.01994],[-122.13522,38.01989],[-122.13547,38.01983],[-122.13601,38.01971],[-122.13872,38.01928],[-122.13883,38.01908],[-122.13885,38.01916],[-122.13887,38.01926],[-122.13941,38.01919],[-122.1409,38.01908],[-122.14169,38.01903],[-122.14189,38.01903],[-122.14241,38.01904],[-122.14261,38.01905],[-122.14306,38.0191],[-122.14333,38.01914],[-122.14358,38.01919],[-122.14405,38.01929],[-122.14428,38.01936],[-122.14556,38.01976],[-122.14609,38.01993],[-122.14662,38.02013],[-122.14787,38.02054],[-122.14812,38.02062],[-122.14861,38.02081],[-122.15526,38.02347],[-122.15578,38.02366],[-122.15871,38.02482],[-122.15952,38.02511],[-122.16105,38.0256],[-122.16132,38.0257],[-122.16198,38.02597],[-122.1636,38.02674],[-122.16451,38.02717],[-122.16686,38.02831],[-122.16784,38.02876],[-122.16866,38.02914],[-122.169,38.02932],[-122.16927,38.02947],[-122.16949,38.02961],[-122.16971,38.02978],[-122.16988,38.02994],[-122.17007,38.03014],[-122.17021,38.03033],[-122.17048,38.03075],[-122.17063,38.03102],[-122.17088,38.03143],[-122.17102,38.03163],[-122.17115,38.03179],[-122.1713,38.03196],[-122.1715,38.03215],[-122.1717,38.0323],[-122.17188,38.03243],[-122.1722,38.03263],[-122.17299,38.03311],[-122.17321,38.03325],[-122.17341,38.0334],[-122.17359,38.03357],[-122.17379,38.03378],[-122.17404,38.03408],[-122.1742,38.03433],[-122.17432,38.03456],[-122.17444,38.03482],[-122.17451,38.03504],[-122.17457,38.03527],[-122.17462,38.03557],[-122.1749,38.03772],[-122.17494,38.03794],[-122.17498,38.03814],[-122.17504,38.03833],[-122.17512,38.03855],[-122.17521,38.03875],[-122.17534,38.03896],[-122.17549,38.03917],[-122.1757,38.03942],[-122.17595,38.03971],[-122.17627,38.04005],[-122.17644,38.04025],[-122.17662,38.04049],[-122.17683,38.04078],[-122.17703,38.0411],[-122.17747,38.04188],[-122.17777,38.04239],[-122.17866,38.04385],[-122.17883,38.04409],[-122.17911,38.04444],[-122.17932,38.04466],[-122.1795,38.04483],[-122.17977,38.04508],[-122.17997,38.04524],[-122.18027,38.04545],[-122.18058,38.04564],[-122.18089,38.04582],[-122.18196,38.04641],[-122.18233,38.04663],[-122.1826,38.04681],[-122.18288,38.04702],[-122.18316,38.04723],[-122.18341,38.04745],[-122.18466,38.04868],[-122.18491,38.04891],[-122.18526,38.0492],[-122.18556,38.04942],[-122.18578,38.04957],[-122.18599,38.04968],[-122.18625,38.04985],[-122.18674,38.05013],[-122.18749,38.05055],[-122.18853,38.05114],[-122.18964,38.05176],[-122.18996,38.05195],[-122.19024,38.05209],[-122.19051,38.05221],[-122.19073,38.05228],[-122.191,38.05236],[-122.1915,38.05247],[-122.19198,38.05251],[-122.19486,38.05266],[-122.19702,38.05277],[-122.1977,38.05283],[-122.19827,38.05289],[-122.19901,38.05303],[-122.19934,38.0531],[-122.19996,38.05322],[-122.20091,38.05344],[-122.20223,38.05371],[-122.204,38.05411],[-122.20771,38.05498],[-122.20907,38.05529],[-122.21422,38.05649],[-122.2159,38.05687],[-122.2165,38.05697],[-122.21716,38.05699],[-122.21743,38.05697],[-122.2177,38.05693],[-122.21796,38.05688],[-122.21822,38.05681],[-122.21864,38.05668],[-122.22018,38.05612],[-122.22069,38.05594],[-122.22091,38.05587],[-122.22125,38.05578],[-122.22151,38.05574],[-122.22179,38.0557],[-122.22216,38.05567],[-122.22256,38.05566],[-122.22282,38.05568],[-122.2233,38.05573],[-122.22801,38.05631],[-122.22852,38.05636],[-122.2307,38.05659],[-122.23558,38.05703],[-122.23626,38.0571],[-122.23659,38.05715],[-122.23687,38.0572],[-122.23725,38.05731],[-122.23756,38.05741],[-122.23854,38.05775],[-122.23894,38.05786],[-122.23932,38.05794],[-122.23974,38.05796],[-122.24022,38.05796],[-122.24063,38.05792],[-122.241,38.05787],[-122.24141,38.05776],[-122.24183,38.05763],[-122.24238,38.05741],[-122.24316,38.05703],[-122.24356,38.05682],[-122.24459,38.05624],[-122.24601,38.05541],[-122.24645,38.0551],[-122.24679,38.05483],[-122.24704,38.0546],[-122.24735,38.05428],[-122.2479,38.0536],[-122.2482,38.0532],[-122.24853,38.0528],[-122.24878,38.05253],[-122.24912,38.05226],[-122.24948,38.05201],[-122.24978,38.05185],[-122.25024,38.05164],[-122.2507,38.05149],[-122.25088,38.05144],[-122.25147,38.05133],[-122.25175,38.0513],[-122.25221,38.05128],[-122.2573,38.05107],[-122.25938,38.05082],[-122.25963,38.05074],[-122.25988,38.05064],[-122.26005,38.05055],[-122.2604,38.05035],[-122.26064,38.05019],[-122.26092,38.04996],[-122.26109,38.0498],[-122.26127,38.04959],[-122.26155,38.04916],[-122.26166,38.04894],[-122.26176,38.04864],[-122.26182,38.04842],[-122.26187,38.04813],[-122.2627,38.04237],[-122.26289,38.04174],[-122.26299,38.04154],[-122.26318,38.04121],[-122.26331,38.04102],[-122.26338,38.04092],[-122.2636,38.04067],[-122.26385,38.04042],[-122.26416,38.04017],[-122.26437,38.04002],[-122.26467,38.03983],[-122.26498,38.03967],[-122.26538,38.03948],[-122.26571,38.03937],[-122.26627,38.03919],[-122.26737,38.03887],[-122.26992,38.03812],[-122.27223,38.03742],[-122.27259,38.03729],[-122.27285,38.03716],[-122.27323,38.03694],[-122.27344,38.0368],[-122.2737,38.03658],[-122.27385,38.03643],[-122.27412,38.03613],[-122.27428,38.03587],[-122.27441,38.03562],[-122.2745,38.03541],[-122.27456,38.03517],[-122.27462,38.03495],[-122.27485,38.03331],[-122.27498,38.03252],[-122.27517,38.03186],[-122.27529,38.03147],[-122.27543,38.03112],[-122.27565,38.0306],[-122.27618,38.02953],[-122.2763,38.02931],[-122.27645,38.02908],[-122.27669,38.02877],[-122.2771,38.02835],[-122.27749,38.02803],[-122.27789,38.02774],[-122.27888,38.02709],[-122.2791,38.02693],[-122.27926,38.0268],[-122.27955,38.02651],[-122.27981,38.02615],[-122.28013,38.02549],[-122.28055,38.02461],[-122.28072,38.02428],[-122.28092,38.02394],[-122.2811,38.02367],[-122.2815,38.02313],[-122.28183,38.02274],[-122.28208,38.02248],[-122.28232,38.02227],[-122.28259,38.02209],[-122.28287,38.02193],[-122.28322,38.02177],[-122.28362,38.02162],[-122.28419,38.02145],[-122.28668,38.02074],[-122.28772,38.02043],[-122.28807,38.02029],[-122.28842,38.02011],[-122.28873,38.01993],[-122.28917,38.01958],[-122.28952,38.01926],[-122.28975,38.01899],[-122.29077,38.01768],[-122.29155,38.01677],[-122.29207,38.0161],[-122.29266,38.01538],[-122.29302,38.01495],[-122.29403,38.01389],[-122.29502,38.01291],[-122.29591,38.01208],[-122.29656,38.01152],[-122.29722,38.01098],[-122.29769,38.01066],[-122.29811,38.01047],[-122.29841,38.01035],[-122.29873,38.01024],[-122.29908,38.01017],[-122.29954,38.01011],[-122.30001,38.0101],[-122.30385,38.01034],[-122.3047,38.01039],[-122.30549,38.01037],[-122.3061,38.0103],[-122.3081,38.00991],[-122.30848,38.00985],[-122.30887,38.00981],[-122.30929,38.00982],[-122.30965,38.00985],[-122.31003,38.00992],[-122.31254,38.01061],[-122.31385,38.01099],[-122.31431,38.01108],[-122.31473,38.01112],[-122.31522,38.01114],[-122.31562,38.0111],[-122.31609,38.01103],[-122.31655,38.01091],[-122.31708,38.0107],[-122.31749,38.01047],[-122.31787,38.0102],[-122.32106,38.00742],[-122.32207,38.00663],[-122.32283,38.00608],[-122.32405,38.00523],[-122.32456,38.00488],[-122.32665,38.00354],[-122.32807,38.00264],[-122.32876,38.00222],[-122.32921,38.00195],[-122.32984,38.00162],[-122.33094,38.00118],[-122.33169,38.00096],[-122.33218,38.00084],[-122.33258,38.00076],[-122.33318,38.00065],[-122.33386,38.00059],[-122.33448,38.00055],[-122.33495,38.00055],[-122.33547,38.00056],[-122.33596,38.00059],[-122.33656,38.00066],[-122.33727,38.00078],[-122.34414,38.00221],[-122.34489,38.00232],[-122.34606,38.00242],[-122.34664,38.00243],[-122.3473,38.00241],[-122.34795,38.00235],[-122.34853,38.00226],[-122.34938,38.00209],[-122.35003,38.00192],[-122.35051,38.00176],[-122.35093,38.0016],[-122.35164,38.0013],[-122.35242,38.00088],[-122.35319,38.00039],[-122.35376,37.99993],[-122.35428,37.99947],[-122.35472,37.999],[-122.35518,37.99844],[-122.35569,37.99762],[-122.35597,37.99705],[-122.35619,37.99647],[-122.3563,37.99607],[-122.35638,37.99567],[-122.35645,37.9952],[-122.35653,37.99443],[-122.35764,37.98213],[-122.35785,37.97964],[-122.35795,37.97865],[-122.35801,37.97834],[-122.35805,37.97818],[-122.35808,37.978],[-122.35814,37.97713],[-122.35836,37.97648],[-122.35841,37.97588],[-122.35845,37.9753],[-122.35852,37.97446],[-122.35855,37.97437],[-122.3586,37.97427],[-122.35869,37.97413],[-122.35883,37.974],[-122.35899,37.9739],[-122.35919,37.97384],[-122.35942,37.97379],[-122.35962,37.97378],[-122.36136,37.97388],[-122.36263,37.97395],[-122.3647,37.97396],[-122.36263,37.97395],[-122.35962,37.97378],[-122.35942,37.97379],[-122.35919,37.97384],[-122.35899,37.9739],[-122.35883,37.974],[-122.35869,37.97413],[-122.3586,37.97427],[-122.35855,37.97437],[-122.35852,37.97446],[-122.35845,37.9753],[-122.35841,37.97588],[-122.35836,37.97648],[-122.35814,37.97713],[-122.35808,37.978],[-122.35805,37.97818],[-122.35801,37.97834],[-122.35795,37.97865],[-122.35785,37.97964],[-122.35795,37.97865],[-122.3584,37.97357],[-122.35874,37.97017],[-122.35898,37.96696],[-122.35912,37.96553],[-122.35924,37.96404],[-122.35951,37.96105],[-122.35975,37.95856],[-122.35997,37.95599],[-122.36007,37.95549],[-122.36022,37.9537],[-122.36025,37.95278],[-122.36024,37.95228],[-122.36024,37.95179],[-122.3602,37.95108],[-122.36013,37.95035],[-122.36004,37.94957],[-122.3599,37.94872],[-122.35971,37.94779],[-122.3595,37.94694],[-122.35925,37.94611],[-122.35895,37.94523],[-122.35864,37.94445],[-122.35828,37.94361],[-122.35807,37.94315],[-122.35762,37.94228],[-122.35716,37.94144],[-122.35692,37.94105],[-122.35651,37.9404],[-122.35618,37.93991],[-122.35588,37.93947],[-122.35521,37.93857],[-122.3544,37.93759],[-122.3539,37.93677],[-122.3538,37.93682],[-122.35375,37.93685],[-122.3544,37.93759],[-122.35521,37.93857],[-122.35588,37.93947],[-122.35618,37.93991],[-122.35651,37.9404],[-122.35692,37.94105],[-122.35716,37.94144],[-122.35762,37.94228],[-122.35807,37.94315],[-122.35828,37.94361],[-122.35864,37.94445],[-122.35895,37.94523],[-122.35925,37.94611],[-122.3595,37.94694],[-122.35971,37.94779],[-122.3599,37.94872],[-122.36004,37.94957],[-122.36013,37.95035],[-122.3602,37.95108],[-122.36024,37.95179],[-122.36025,37.95278],[-122.36022,37.9537],[-122.36007,37.95549],[-122.35997,37.95599],[-122.35975,37.95856],[-122.35951,37.96105],[-122.35924,37.96404],[-122.35912,37.96553],[-122.35898,37.96696],[-122.35874,37.97017],[-122.3584,37.97357],[-122.35795,37.97865],[-122.35785,37.97964],[-122.35771,37.98073],[-122.35768,37.98103],[-122.35867,37.97016],[-122.35888,37.96763],[-122.35895,37.96672],[-122.35909,37.96537],[-122.35915,37.96449],[-122.3597,37.95856],[-122.36004,37.95474],[-122.36012,37.95372],[-122.36015,37.95265],[-122.36013,37.95155],[-122.3601,37.95096],[-122.36005,37.95042],[-122.35995,37.94957],[-122.35981,37.94871],[-122.35951,37.94736],[-122.3593,37.94661],[-122.359,37.94566],[-122.3587,37.94485],[-122.35837,37.94405],[-122.3582,37.94364],[-122.35777,37.94276],[-122.35731,37.94188],[-122.35707,37.94147],[-122.35645,37.94047],[-122.35611,37.93996],[-122.35579,37.93952],[-122.35541,37.93902],[-122.35507,37.93858],[-122.35427,37.93766],[-122.35362,37.93694],[-122.35295,37.93625],[-122.35251,37.93581],[-122.35192,37.93526],[-122.35118,37.93461],[-122.35043,37.93398],[-122.34958,37.9333],[-122.34576,37.93049],[-122.34408,37.92928],[-122.34275,37.92829],[-122.34154,37.92741],[-122.33911,37.92562],[-122.3391,37.92561],[-122.3386,37.92525],[-122.33825,37.925],[-122.33714,37.92417],[-122.33048,37.91928],[-122.32927,37.91839],[-122.32844,37.91773],[-122.32745,37.91687],[-122.32662,37.91611],[-122.3256,37.91503],[-122.32463,37.91392],[-122.32171,37.91031],[-122.32033,37.90862],[-122.32026,37.90852],[-122.31823,37.906],[-122.31009,37.89589],[-122.30993,37.89569],[-122.30954,37.89513],[-122.3093,37.89471],[-122.30906,37.89426],[-122.30885,37.89378],[-122.30868,37.89332],[-122.30854,37.89286],[-122.30676,37.88584],[-122.30632,37.88415],[-122.30613,37.88349],[-122.30595,37.88288],[-122.30091,37.86744],[-122.30088,37.86735],[-122.29181,37.84042],[-122.29192,37.8404],[-122.29213,37.84036],[-122.29207,37.84012],[-122.29205,37.83998],[-122.29204,37.83972],[-122.29201,37.83946],[-122.29192,37.83908],[-122.29171,37.83835],[-122.29158,37.83782],[-122.29119,37.83571],[-122.2911,37.83513],[-122.29104,37.83458],[-122.29097,37.83371],[-122.29089,37.83223],[-122.29091,37.83116],[-122.29091,37.83034],[-122.29098,37.82917],[-122.29099,37.82886],[-122.29104,37.82836],[-122.29125,37.82671],[-122.29152,37.82542],[-122.29165,37.82492],[-122.29196,37.82385],[-122.29214,37.82332],[-122.29232,37.82283],[-122.29243,37.82259],[-122.29251,37.82242],[-122.29277,37.82194],[-122.29308,37.82153],[-122.29364,37.82087],[-122.29395,37.82056],[-122.29434,37.82022],[-122.29528,37.81949],[-122.29571,37.81914],[-122.29644,37.81852],[-122.29791,37.81743],[-122.29824,37.81715],[-122.29896,37.81657],[-122.30297,37.8132],[-122.30344,37.81281],[-122.3037,37.81257],[-122.30392,37.81235],[-122.30414,37.81211],[-122.30435,37.81185],[-122.30463,37.81147],[-122.30484,37.81113],[-122.30496,37.81091],[-122.30508,37.81067],[-122.30522,37.81031],[-122.30534,37.80997],[-122.30545,37.80951],[-122.30551,37.80919],[-122.30554,37.80885],[-122.30556,37.80852],[-122.30555,37.80819],[-122.30551,37.80784],[-122.30545,37.80749],[-122.30541,37.80729],[-122.3052,37.80671],[-122.30507,37.8064],[-122.30472,37.80576],[-122.3046,37.80559],[-122.30434,37.80524],[-122.30402,37.80484],[-122.30373,37.80452],[-122.30348,37.80427],[-122.30317,37.804],[-122.30294,37.80382],[-122.30246,37.80348],[-122.30208,37.80325],[-122.3017,37.80304],[-122.30009,37.80225],[-122.29955,37.80201],[-122.29923,37.8019],[-122.29762,37.80142],[-122.29699,37.80125],[-122.29449,37.80069],[-122.29029,37.79972],[-122.28825,37.79928],[-122.28759,37.79913],[-122.2861,37.79877],[-122.28511,37.79852],[-122.2845,37.79834],[-122.28377,37.79811],[-122.28295,37.79781],[-122.27408,37.79433],[-122.27369,37.79419],[-122.27314,37.794],[-122.27152,37.79371],[-122.27155,37.79367],[-122.2717,37.79344],[-122.27024,37.79286],[-122.27007,37.7928],[-122.26971,37.79269],[-122.26862,37.79242],[-122.26819,37.79231],[-122.26746,37.79208],[-122.26599,37.79172],[-122.2655,37.79162],[-122.2632,37.7912],[-122.25585,37.78992],[-122.25475,37.78971],[-122.2538,37.78952],[-122.25298,37.78932],[-122.2522,37.78912],[-122.25096,37.78877],[-122.25034,37.78858],[-122.24954,37.78831],[-122.24851,37.78795],[-122.24808,37.78779],[-122.24715,37.78744],[-122.24617,37.78705],[-122.24535,37.78668],[-122.24461,37.78634],[-122.24254,37.78526],[-122.24212,37.78501],[-122.24115,37.78442],[-122.2402,37.7838],[-122.23648,37.78126],[-122.23129,37.77768],[-122.22919,37.77625],[-122.22529,37.77354],[-122.22129,37.7708],[-122.21864,37.76896],[-122.21667,37.76763],[-122.21441,37.76607],[-122.21332,37.76531],[-122.21192,37.76424],[-122.21085,37.76335],[-122.20446,37.75777],[-122.20446,37.75777],[-122.20122,37.75493],[-122.19994,37.75382],[-122.19921,37.75327],[-122.19896,37.75307],[-122.1986,37.75275],[-122.19822,37.75248],[-122.19825,37.75245],[-122.19823,37.75243],[-122.19748,37.7518],[-122.19717,37.75152],[-122.19676,37.75109],[-122.19646,37.75079],[-122.19617,37.75054],[-122.19511,37.74953],[-122.19381,37.7484],[-122.19351,37.74815],[-122.19259,37.74737],[-122.19076,37.74578],[-122.1904,37.74547],[-122.18987,37.74499],[-122.18808,37.74343],[-122.18188,37.73802],[-122.18113,37.73736],[-122.18041,37.73674],[-122.15981,37.71875],[-122.14254,37.70364],[-122.14229,37.7034],[-122.1417,37.70291],[-122.13229,37.69467],[-122.09932,37.66596],[-122.09938,37.66592],[-122.0994,37.66591],[-122.07665,37.64599],[-122.05984,37.63126],[-122.05701,37.62879],[-122.05259,37.6249],[-122.02428,37.60005],[-122.02317,37.59908],[-122.02131,37.5975],[-122.01876,37.5954],[-122.01757,37.59444],[-122.01553,37.59284],[-122.0138,37.59153],[-122.01227,37.59043],[-122.01076,37.5894],[-122.00996,37.58888],[-122.00908,37.58833],[-122.00786,37.58759],[-122.00587,37.58647],[-122.00514,37.58607],[-122.00431,37.58564],[-122.00345,37.5852],[-122.00245,37.58471],[-122.00146,37.58424],[-122.00021,37.58368],[-122.0002,37.58368],[-121.99931,37.58329],[-121.99819,37.58283],[-121.99706,37.58239],[-121.99581,37.58192],[-121.99454,37.58147],[-121.99326,37.58104],[-121.99193,37.58062],[-121.99067,37.58026],[-121.98924,37.57985],[-121.98771,37.57945],[-121.98614,37.57908],[-121.98451,37.57873],[-121.98253,37.57834],[-121.9816,37.57818],[-121.97728,37.5775],[-121.9769,37.57743],[-121.9765,37.57733],[-121.97614,37.57718],[-121.97578,37.577],[-121.97548,37.57679],[-121.97064,37.57256],[-121.97041,37.57232],[-121.97027,37.57216],[-121.97018,37.57202],[-121.97012,37.57189],[-121.97005,37.57172],[-121.97001,37.57151],[-121.97001,37.57143],[-121.97002,37.57115],[-121.97005,37.57103],[-121.97009,37.57092],[-121.97018,37.57073],[-121.97033,37.57053],[-121.9705,37.57035],[-121.97075,37.57018],[-121.97104,37.57002],[-121.97119,37.56996],[-121.97152,37.56985],[-121.97226,37.56965],[-122.00476,37.56064],[-122.00505,37.56054],[-122.00531,37.56043],[-122.00559,37.5603],[-122.00582,37.56018],[-122.00608,37.56004],[-122.00631,37.55989],[-122.00654,37.55973],[-122.00691,37.55942],[-122.00711,37.55921],[-122.00738,37.55914],[-122.00735,37.55912],[-122.00724,37.55906],[-122.00842,37.55757],[-122.01097,37.5543],[-122.0136,37.55091],[-122.01733,37.54616],[-122.02672,37.53467],[-122.02826,37.53277],[-122.0314,37.52892],[-122.03194,37.52819],[-122.03278,37.52716],[-122.03293,37.52688],[-122.033,37.52664],[-122.03304,37.52642],[-122.03304,37.52621],[-122.033,37.52595],[-122.03291,37.52573],[-122.03279,37.52551],[-122.03263,37.52531],[-122.03247,37.52515],[-122.03227,37.52501],[-122.03207,37.5249],[-122.02927,37.52358],[-122.0263,37.52221],[-122.02405,37.52116],[-122.02265,37.52052],[-122.01974,37.51916],[-122.01008,37.51468],[-122.00969,37.51448],[-122.00939,37.51431],[-122.00884,37.51396],[-122.00813,37.51343],[-122.00747,37.51284],[-122.00326,37.50886],[-122.00243,37.50806],[-121.99439,37.50045],[-121.99096,37.49718],[-121.98117,37.4879],[-121.97801,37.48486],[-121.97583,37.48284],[-121.97543,37.48243],[-121.97525,37.48224],[-121.97507,37.48204],[-121.97475,37.48165],[-121.9746,37.48144],[-121.97436,37.48108],[-121.97412,37.48064],[-121.97401,37.48043],[-121.97381,37.47997],[-121.97373,37.47974],[-121.9736,37.4793],[-121.97354,37.47907],[-121.97349,37.47884],[-121.97342,37.47839],[-121.97339,37.47795],[-121.97338,37.47751],[-121.97462,37.46149],[-121.97467,37.4608],[-121.9753,37.45271],[-121.9756,37.44862],[-121.97628,37.4397],[-121.97633,37.43924],[-121.97644,37.43873],[-121.97658,37.43825],[-121.97707,37.43694],[-121.97721,37.43653],[-121.97735,37.43609],[-121.97745,37.43561],[-121.97752,37.43516],[-121.97755,37.43464],[-121.97754,37.42714],[-121.97755,37.42633],[-121.97752,37.42571],[-121.97724,37.42204],[-121.97713,37.42135],[-121.97694,37.42071],[-121.9768,37.42038],[-121.97662,37.42006],[-121.97644,37.41979],[-121.97624,37.41951],[-121.97604,37.41927],[-121.97582,37.41902],[-121.97497,37.41816],[-121.97497,37.41816],[-121.9743,37.41747],[-121.97403,37.41718],[-121.97375,37.41684],[-121.96919,37.41011],[-121.96713,37.40688],[-121.96708,37.4069],[-121.96705,37.40691],[-121.96619,37.40563],[-121.96377,37.40208],[-121.96377,37.40208],[-121.96067,37.39749],[-121.95548,37.38977],[-121.95363,37.38706],[-121.95314,37.3863],[-121.95265,37.38559],[-121.9515,37.38385],[-121.9484,37.37926],[-121.94776,37.37814],[-121.9469,37.3766],[-121.94654,37.37591],[-121.94637,37.37556],[-121.94623,37.37521],[-121.94605,37.37464],[-121.94583,37.3738],[-121.94576,37.37349],[-121.94565,37.3728],[-121.94554,37.37194],[-121.94552,37.37126],[-121.94552,37.36929],[-121.94546,37.36853],[-121.94546,37.36407],[-121.94544,37.36369],[-121.9454,37.36334],[-121.94535,37.36309],[-121.94528,37.36279],[-121.94516,37.3624],[-121.945,37.36198],[-121.94482,37.36158],[-121.94462,37.3612],[-121.94384,37.35981],[-121.94345,37.35909],[-121.94226,37.35691],[-121.94159,37.3562],[-121.94038,37.35535],[-121.93645,37.35322],[-121.9364,37.35321],[-121.93588,37.35311],[-121.92314,37.3469],[-121.923,37.34682],[-121.92256,37.34653],[-121.92183,37.3461],[-121.91451,37.34242],[-121.91388,37.34205],[-121.91302,37.34162],[-121.9126,37.34144],[-121.91203,37.34126],[-121.91126,37.34103],[-121.91084,37.34087],[-121.91053,37.34073],[-121.91025,37.34057],[-121.90998,37.3404],[-121.90973,37.34021],[-121.90948,37.34001],[-121.90897,37.33955],[-121.90876,37.33934],[-121.90851,37.33905],[-121.90834,37.33881],[-121.90826,37.33867],[-121.90782,37.33779],[-121.90767,37.33752],[-121.90746,37.33722],[-121.9073,37.33704],[-121.90712,37.33686],[-121.9067,37.33646],[-121.90473,37.33466],[-121.90464,37.33458],[-121.90447,37.33442],[-121.90419,37.33415],[-121.90399,37.33393],[-121.90381,37.3337],[-121.90365,37.33349],[-121.90355,37.33334],[-121.90347,37.33318],[-121.90342,37.33306],[-121.90333,37.33277],[-121.90319,37.33178],[-121.90313,37.33153],[-121.90292,37.33083],[-121.90289,37.33065],[-121.9025,37.32993]]},"properties":{"routeId":"CC","name":"Capitol Corridor","shortName":"CC","color":"#1C4E8A","textColor":"#ffffff","system":"capitolcorridor"}}]}