{"type":"FeatureCollection","features":[{"type":"Feature","geometry":{"type":"Point","coordinates":[-121.08292,38.90383]},"properties":{"name":"Auburn-Conheim","stopId":"ARN","system":"capitolcorridor","routes":["S","CC"],"colors":["#1C4E8A"]}},{"type":"Feature","geometry":{"type":"Point","coordinates":[-122.30091,37.86744]},"properties":{"name":"Berkeley","stopId":"BKY","system":"capitolcorridor","routes":["CC"],"colors":["#1C4E8A"]}},{"type":"Feature","geometry":{"type":"Point","coordinates":[-121.73776,38.54349]},"properties":{"name":"Davis","stopId":"DAV","system":"capitolcorridor","routes":["CC"],"colors":["#1C4E8A"]}},{"type":"Feature","geometry":{"type":"Point","coordinates":[-122.29181,37.84042]},"properties":{"name":"Emeryville","stopId":"EMY","system":"capitolcorridor","routes":["CC","SF"],"colors":["#1C4E8A"]}},{"type":"Feature","geometry":{"type":"Point","coordinates":[-121.96807,38.2854]},"properties":{"name":"Fairfield-Vacaville","stopId":"FFV","system":"capitolcorridor","routes":["CC"],"colors":["#1C4E8A"]}},{"type":"Feature","geometry":{"type":"Point","coordinates":[-122.00738,37.55914]},"properties":{"name":"Fremont","stopId":"FMT","system":"capitolcorridor","routes":["CC"],"colors":["#1C4E8A"]}},{"type":"Feature","geometry":{"type":"Point","coordinates":[-121.96713,37.40688]},"properties":{"name":"Great America-Santa Clara","stopId":"GAC","system":"capitolcorridor","routes":["CC"],"colors":["#1C4E8A"]}},{"type":"Feature","geometry":{"type":"Point","coordinates":[-122.09932,37.66596]},"properties":{"name":"Hayward","stopId":"HAY","system":"capitolcorridor","routes":["CC"],"colors":["#1C4E8A"]}},{"type":"Feature","geometry":{"type":"Point","coordinates":[-122.13883,38.01908]},"properties":{"name":"Martinez","stopId":"MTZ","system":"capitolcorridor","routes":["CC"],"colors":["#1C4E8A"]}},{"type":"Feature","geometry":{"type":"Point","coordinates":[-122.19822,37.75248]},"properties":{"name":"Oakland Coliseum","stopId":"OAC","system":"capitolcorridor","routes":["CC"],"colors":["#1C4E8A"]}},{"type":"Feature","geometry":{"type":"Point","coordinates":[-122.27152,37.79371]},"properties":{"name":"Oakland Jack London","stopId":"OKJ","system":"capitolcorridor","routes":["CC"],"colors":["#1C4E8A"]}},{"type":"Feature","geometry":{"type":"Point","coordinates":[-122.3539,37.93677]},"properties":{"name":"Richmond","stopId":"RIC","system":"capitolcorridor","routes":["CC"],"colors":["#1C4E8A"]}},{"type":"Feature","geometry":{"type":"Point","coordinates":[-121.2374,38.79105]},"properties":{"name":"Rocklin","stopId":"RLN","system":"capitolcorridor","routes":["S","CC"],"colors":["#1C4E8A"]}},{"type":"Feature","geometry":{"type":"Point","coordinates":[-121.28627,38.74996]},"properties":{"name":"Roseville","stopId":"RSV","system":"capitolcorridor","routes":["S","CC"],"colors":["#1C4E8A"]}},{"type":"Feature","geometry":{"type":"Point","coordinates":[-121.5007,38.584]},"properties":{"name":"Sacramento","stopId":"SAC","system":"capitolcorridor","routes":["CC","S"],"colors":["#1C4E8A"]}},{"type":"Feature","geometry":{"type":"Point","coordinates":[-121.93645,37.35322]},"properties":{"name":"University-Santa Clara","stopId":"SCC","system":"capitolcorridor","routes":["CC"],"colors":["#1C4E8A"]}},{"type":"Feature","geometry":{"type":"Point","coordinates":[-121.9025,37.32993]},"properties":{"name":"San Jose","stopId":"SJC","system":"capitolcorridor","routes":["CC"],"colors":["#1C4E8A"]}},{"type":"Feature","geometry":{"type":"Point","coordinates":[-122.04119,38.24345]},"properties":{"name":"Suisun-Fairfield","stopId":"SUI","system":"capitolcorridor","routes":["CC"],"colors":["#1C4E8A"]}},{"type":"Feature","geometry":{"type":"Point","coordinates":[-120.95269,39.09981]},"properties":{"name":"Colfax","stopId":"COX","system":"capitolcorridor","routes":["S"],"colors":["#1C4E8A"]}},{"type":"Feature","geometry":{"type":"Point","coordinates":[-122.39659,37.79021]},"properties":{"name":"San Francisco - Transbay Terminal","stopId":"SFC","system":"capitolcorridor","routes":["SF"],"colors":["#1C4E8A"]}}]}