{"type":"FeatureCollection","features":[{"type":"Feature","geometry":{"type":"Point","coordinates":[-117.37821,33.19055]},"properties":{"name":"Oceanside","stopId":"28000","system":"coaster","routes":["398"],"colors":["#00459D"]}},{"type":"Feature","geometry":{"type":"Point","coordinates":[-117.35187,33.16179]},"properties":{"name":"Carlsbad Village","stopId":"28001","system":"coaster","routes":["398"],"colors":["#00459D"]}},{"type":"Feature","geometry":{"type":"Point","coordinates":[-117.31961,33.10979]},"properties":{"name":"Carlsbad Poinsettia","stopId":"28002","system":"coaster","routes":["398"],"colors":["#00459D"]}},{"type":"Feature","geometry":{"type":"Point","coordinates":[-117.29336,33.04793]},"properties":{"name":"Encinitas","stopId":"28003","system":"coaster","routes":["398"],"colors":["#00459D"]}},{"type":"Feature","geometry":{"type":"Point","coordinates":[-117.27205,32.99493]},"properties":{"name":"Solana Beach","stopId":"28004","system":"coaster","routes":["398"],"colors":["#00459D"]}},{"type":"Feature","geometry":{"type":"Point","coordinates":[-117.22568,32.90337]},"properties":{"name":"Sorrento Valley","stopId":"28005","system":"coaster","routes":["398"],"colors":["#00459D"]}},{"type":"Feature","geometry":{"type":"Point","coordinates":[-117.19975,32.75528]},"properties":{"name":"San Diego — Old Town","stopId":"28006","system":"coaster","routes":["398"],"colors":["#00459D"]}},{"type":"Feature","geometry":{"type":"Point","coordinates":[-117.17007,32.71887]},"properties":{"name":"San Diego — Santa Fe Depot","stopId":"28007","system":"coaster","routes":["398"],"colors":["#00459D"]}}]}