{"type":"FeatureCollection","features":[{"type":"Feature","geometry":{"type":"Point","coordinates":[-118.23678,34.05618]},"properties":{"name":"Los Angeles","stopId":"LAX","system":"coaststarlight","routes":["36924"],"colors":["#1C3F6E"]}},{"type":"Feature","geometry":{"type":"Point","coordinates":[-118.35377,34.19307]},"properties":{"name":"Burbank","stopId":"BUR","system":"coaststarlight","routes":["36924"],"colors":["#1C3F6E"]}},{"type":"Feature","geometry":{"type":"Point","coordinates":[-119.17598,34.19924]},"properties":{"name":"Oxnard","stopId":"OXN","system":"coaststarlight","routes":["36924"],"colors":["#1C3F6E"]}},{"type":"Feature","geometry":{"type":"Point","coordinates":[-118.44821,34.21129]},"properties":{"name":"Van Nuys","stopId":"VNC","system":"coaststarlight","routes":["36924"],"colors":["#1C3F6E"]}},{"type":"Feature","geometry":{"type":"Point","coordinates":[-118.69516,34.2702]},"properties":{"name":"Simi Valley","stopId":"SIM","system":"coaststarlight","routes":["36924"],"colors":["#1C3F6E"]}},{"type":"Feature","geometry":{"type":"Point","coordinates":[-119.69279,34.41372]},"properties":{"name":"Santa Barbara","stopId":"SBA","system":"coaststarlight","routes":["36924"],"colors":["#1C3F6E"]}},{"type":"Feature","geometry":{"type":"Point","coordinates":[-120.6547,35.27643]},"properties":{"name":"San Luis Obispo","stopId":"SLO","system":"coaststarlight","routes":["36924"],"colors":["#1C3F6E"]}},{"type":"Feature","geometry":{"type":"Point","coordinates":[-120.68786,35.62268]},"properties":{"name":"Paso Robles","stopId":"PRB","system":"coaststarlight","routes":["36924"],"colors":["#1C3F6E"]}},{"type":"Feature","geometry":{"type":"Point","coordinates":[-121.65675,36.67914]},"properties":{"name":"Salinas","stopId":"SNS","system":"coaststarlight","routes":["36924"],"colors":["#1C3F6E"]}},{"type":"Feature","geometry":{"type":"Point","coordinates":[-121.90239,37.32993]},"properties":{"name":"San Jose","stopId":"SJC","system":"coaststarlight","routes":["36924"],"colors":["#1C3F6E"]}},{"type":"Feature","geometry":{"type":"Point","coordinates":[-122.27167,37.79387]},"properties":{"name":"Oakland","stopId":"OKJ","system":"coaststarlight","routes":["36924"],"colors":["#1C3F6E"]}},{"type":"Feature","geometry":{"type":"Point","coordinates":[-122.29161,37.84047]},"properties":{"name":"Emeryville","stopId":"EMY","system":"coaststarlight","routes":["36924"],"colors":["#1C3F6E"]}},{"type":"Feature","geometry":{"type":"Point","coordinates":[-122.13878,38.01892]},"properties":{"name":"Martinez","stopId":"MTZ","system":"coaststarlight","routes":["36924"],"colors":["#1C3F6E"]}},{"type":"Feature","geometry":{"type":"Point","coordinates":[-121.73771,38.54356]},"properties":{"name":"Davis","stopId":"DAV","system":"coaststarlight","routes":["36924"],"colors":["#1C3F6E"]}},{"type":"Feature","geometry":{"type":"Point","coordinates":[-121.5007,38.584]},"properties":{"name":"Sacramento","stopId":"SAC","system":"coaststarlight","routes":["36924"],"colors":["#1C3F6E"]}},{"type":"Feature","geometry":{"type":"Point","coordinates":[-121.84586,39.72326]},"properties":{"name":"Chico","stopId":"CIC","system":"coaststarlight","routes":["36924"],"colors":["#1C3F6E"]}},{"type":"Feature","geometry":{"type":"Point","coordinates":[-122.39337,40.5836]},"properties":{"name":"Redding","stopId":"RDD","system":"coaststarlight","routes":["36924"],"colors":["#1C3F6E"]}},{"type":"Feature","geometry":{"type":"Point","coordinates":[-122.27059,41.21113]},"properties":{"name":"Dunsmuir","stopId":"DUN","system":"coaststarlight","routes":["36924"],"colors":["#1C3F6E"]}},{"type":"Feature","geometry":{"type":"Point","coordinates":[-121.77195,42.22551]},"properties":{"name":"Klamath Falls","stopId":"KFS","system":"coaststarlight","routes":["36924"],"colors":["#1C3F6E"]}}]}