{"type":"FeatureCollection","features":[{"type":"Feature","geometry":{"type":"LineString","coordinates":[[-117.17006,32.71887],[-117.17004,32.71985],[-117.17004,32.7219],[-117.17007,32.7223],[-117.17024,32.72352],[-117.17037,32.724],[-117.17064,32.7248],[-117.17124,32.72627],[-117.17155,32.72693],[-117.17206,32.72814],[-117.17364,32.73169],[-117.17398,32.73236],[-117.17421,32.73271],[-117.17441,32.73297],[-117.17737,32.73632],[-117.17836,32.73747],[-117.17943,32.73855],[-117.17981,32.73885],[-117.18096,32.73964],[-117.18274,32.74065],[-117.19212,32.7456],[-117.19286,32.74603],[-117.19322,32.74629],[-117.19369,32.74666],[-117.19442,32.74733],[-117.19593,32.74911],[-117.19673,32.75001],[-117.19746,32.75088],[-117.19803,32.75151],[-117.19844,32.75205],[-117.19874,32.75256],[-117.19918,32.75361],[-117.19943,32.75424],[-117.19961,32.75469],[-117.19974,32.75497],[-117.19983,32.75526],[-117.19983,32.75526],[-117.20028,32.75653],[-117.20055,32.75721],[-117.20311,32.76415],[-117.20438,32.7675],[-117.20548,32.77051],[-117.20646,32.77317],[-117.20762,32.77622],[-117.20776,32.77668],[-117.2079,32.77734],[-117.20798,32.77804],[-117.20798,32.77871],[-117.2077,32.78058],[-117.20708,32.78416],[-117.20694,32.78489],[-117.20643,32.78779],[-117.2063,32.78878],[-117.20627,32.78957],[-117.20631,32.79051],[-117.20642,32.79121],[-117.20657,32.79182],[-117.20672,32.79237],[-117.20696,32.79305],[-117.20789,32.79515],[-117.20845,32.79635],[-117.20892,32.79718],[-117.2144,32.80609],[-117.21493,32.80695],[-117.21559,32.80801],[-117.21606,32.80889],[-117.21627,32.80939],[-117.2169,32.81112],[-117.21732,32.81198],[-117.21801,32.81301],[-117.21831,32.81336],[-117.21885,32.81391],[-117.22022,32.81519],[-117.22222,32.81702],[-117.22407,32.81869],[-117.22803,32.8223],[-117.22867,32.8229],[-117.22918,32.82347],[-117.22954,32.82398],[-117.22984,32.82444],[-117.23012,32.82498],[-117.23032,32.82555],[-117.23058,32.82643],[-117.2307,32.82714],[-117.23074,32.82756],[-117.23074,32.82795],[-117.23072,32.82835],[-117.23062,32.82909],[-117.2304,32.83052],[-117.23035,32.8309],[-117.23038,32.83121],[-117.23047,32.83156],[-117.23062,32.83189],[-117.23148,32.83318],[-117.23173,32.83354],[-117.23184,32.83377],[-117.23283,32.83715],[-117.23308,32.83782],[-117.23341,32.83841],[-117.23383,32.83894],[-117.23423,32.83954],[-117.23469,32.84031],[-117.23506,32.84109],[-117.23535,32.84185],[-117.23553,32.8426],[-117.23565,32.84341],[-117.23567,32.84425],[-117.23562,32.8452],[-117.23552,32.84582],[-117.23533,32.84649],[-117.23511,32.8471],[-117.23485,32.84763],[-117.23441,32.84841],[-117.23397,32.8491],[-117.23394,32.84915],[-117.23345,32.84992],[-117.23254,32.85125],[-117.23196,32.85195],[-117.23125,32.85265],[-117.23045,32.85327],[-117.22976,32.85369],[-117.22888,32.85413],[-117.22449,32.85596],[-117.21943,32.85806],[-117.21226,32.86108],[-117.2115,32.8614],[-117.20886,32.86254],[-117.20771,32.8629],[-117.20651,32.86313],[-117.20503,32.86322],[-117.20424,32.86315],[-117.19995,32.86256],[-117.19844,32.86241],[-117.19736,32.86242],[-117.19619,32.86256],[-117.19464,32.86288],[-117.19258,32.86333],[-117.1919,32.86352],[-117.19092,32.86389],[-117.18996,32.86439],[-117.18986,32.86445],[-117.18976,32.86452],[-117.18855,32.86533],[-117.18553,32.86723],[-117.18381,32.86833],[-117.18259,32.86899],[-117.17779,32.87151],[-117.17715,32.87195],[-117.17668,32.87234],[-117.17622,32.87292],[-117.17583,32.87351],[-117.17554,32.87405],[-117.1751,32.87489],[-117.17484,32.87568],[-117.17435,32.87794],[-117.17415,32.87894],[-117.17415,32.87926],[-117.17421,32.87961],[-117.17458,32.88056],[-117.17471,32.88098],[-117.1748,32.88127],[-117.17493,32.88148],[-117.17512,32.88179],[-117.17539,32.88205],[-117.17697,32.88321],[-117.17735,32.88343],[-117.17836,32.88387],[-117.17907,32.88416],[-117.17943,32.88426],[-117.17984,32.88428],[-117.18018,32.88424],[-117.18064,32.88409],[-117.1811,32.88393],[-117.18148,32.88388],[-117.18183,32.8839],[-117.18218,32.88395],[-117.18365,32.88441],[-117.18455,32.88473],[-117.18485,32.88489],[-117.1851,32.88506],[-117.18526,32.88521],[-117.18547,32.88544],[-117.18574,32.88571],[-117.18609,32.88593],[-117.18645,32.88606],[-117.18678,32.88613],[-117.18712,32.88617],[-117.19099,32.88612],[-117.19128,32.88615],[-117.19162,32.88623],[-117.19195,32.88641],[-117.1921,32.88651],[-117.19226,32.88667],[-117.1925,32.88702],[-117.19276,32.8876],[-117.19314,32.88825],[-117.19352,32.88874],[-117.19379,32.88894],[-117.19419,32.88919],[-117.19456,32.88928],[-117.19503,32.88934],[-117.19529,32.88934],[-117.19562,32.8893],[-117.19598,32.88921],[-117.19628,32.8891],[-117.19658,32.88896],[-117.19709,32.88873],[-117.19749,32.88863],[-117.19805,32.88851],[-117.19909,32.88835],[-117.20034,32.88822],[-117.20099,32.88807],[-117.2017,32.8878],[-117.20224,32.88757],[-117.20254,32.88745],[-117.20301,32.88736],[-117.20349,32.88733],[-117.20637,32.88714],[-117.20688,32.88711],[-117.20723,32.88712],[-117.20768,32.88719],[-117.20803,32.88727],[-117.20845,32.88738],[-117.20882,32.88751],[-117.20935,32.88775],[-117.21226,32.88956],[-117.21295,32.89019],[-117.21431,32.89156],[-117.21668,32.89402],[-117.21887,32.89628],[-117.22348,32.90111],[-117.22393,32.90154],[-117.22419,32.9018],[-117.2245,32.90211],[-117.22501,32.90265],[-117.22569,32.90336],[-117.22569,32.90336],[-117.2272,32.90494],[-117.22814,32.90591],[-117.23234,32.91045],[-117.23724,32.91585],[-117.23815,32.91686],[-117.23881,32.91749],[-117.23942,32.91802],[-117.24478,32.9223],[-117.2477,32.92466],[-117.24895,32.92573],[-117.25005,32.92686],[-117.2564,32.93339],[-117.2572,32.93422],[-117.25832,32.93536],[-117.2605,32.93761],[-117.2611,32.93835],[-117.26145,32.93896],[-117.26188,32.94029],[-117.26255,32.94291],[-117.26323,32.94537],[-117.26385,32.94711],[-117.26463,32.94897],[-117.26615,32.95272],[-117.26665,32.95394],[-117.26692,32.95469],[-117.26782,32.95826],[-117.2679,32.95882],[-117.26788,32.95929],[-117.26782,32.95967],[-117.26769,32.96001],[-117.26732,32.96094],[-117.2659,32.96454],[-117.26568,32.96523],[-117.26551,32.96607],[-117.26544,32.96687],[-117.26549,32.96769],[-117.26561,32.96838],[-117.26615,32.97059],[-117.26831,32.97969],[-117.26879,32.98156],[-117.27129,32.99194],[-117.27176,32.99388],[-117.27198,32.99466],[-117.27207,32.99493],[-117.27207,32.99493],[-117.27221,32.9953],[-117.27248,32.99594],[-117.2732,32.99746],[-117.27385,32.99895],[-117.27433,32.99998],[-117.27474,33.00102],[-117.27551,33.00349],[-117.27562,33.00387],[-117.27683,33.00811],[-117.27768,33.01106],[-117.27826,33.01254],[-117.27867,33.01334],[-117.27928,33.01446],[-117.28159,33.01854],[-117.28245,33.02001],[-117.2843,33.02302],[-117.28588,33.0254],[-117.28744,33.02783],[-117.28971,33.03216],[-117.29021,33.03308],[-117.291,33.03465],[-117.29131,33.03538],[-117.29162,33.03634],[-117.2919,33.03767],[-117.29289,33.04507],[-117.29295,33.04549],[-117.29334,33.04793],[-117.29334,33.04793],[-117.29347,33.04875],[-117.29368,33.0495],[-117.29407,33.05049],[-117.29447,33.05126],[-117.29898,33.05826],[-117.30002,33.05988],[-117.30063,33.06099],[-117.30142,33.06276],[-117.30184,33.06398],[-117.30357,33.06922],[-117.30526,33.07436],[-117.3072,33.08019],[-117.30769,33.08196],[-117.30842,33.08393],[-117.3097,33.08805],[-117.31019,33.08936],[-117.31102,33.09114],[-117.31183,33.09304],[-117.31269,33.09482],[-117.31687,33.10411],[-117.31954,33.10982],[-117.31954,33.10982],[-117.31974,33.11024],[-117.32112,33.11302],[-117.32211,33.11503],[-117.32359,33.11791],[-117.3251,33.1209],[-117.32559,33.12187],[-117.32711,33.12482],[-117.32888,33.12833],[-117.33088,33.13216],[-117.33234,33.13494],[-117.33596,33.14204],[-117.33694,33.14369],[-117.33702,33.1438],[-117.3371,33.14392],[-117.3379,33.14509],[-117.3385,33.14588],[-117.33905,33.14656],[-117.33958,33.14723],[-117.34215,33.15041],[-117.34543,33.15435],[-117.34745,33.15679],[-117.3485,33.15808],[-117.3494,33.15916],[-117.35095,33.1609],[-117.35187,33.16179],[-117.35187,33.16179],[-117.35502,33.16479],[-117.35679,33.16649],[-117.35708,33.16675],[-117.35729,33.16694],[-117.35807,33.16769],[-117.35925,33.16882],[-117.36224,33.1717],[-117.36469,33.1745],[-117.36531,33.17519],[-117.36799,33.17837],[-117.36817,33.1786],[-117.37001,33.18071],[-117.37109,33.18203],[-117.37259,33.1838],[-117.37509,33.18676],[-117.37795,33.19013],[-117.37827,33.19051]]},"properties":{"routeId":"398","name":"COASTER","shortName":"","color":"#00459D","textColor":"#FFFFFF","system":"coaster"}}]}