{"type":"FeatureCollection","features":[{"type":"Feature","geometry":{"type":"Point","coordinates":[-118.19292,33.76807]},"properties":{"name":"Downtown Long Beach Station","stopId":"80101S","system":"lametro","routes":["801"],"colors":["#0072BC"]}},{"type":"Feature","geometry":{"type":"Point","coordinates":[-118.1937,33.77226]},"properties":{"name":"Pacific Ave Station","stopId":"80102S","system":"lametro","routes":["801"],"colors":["#0072BC"]}},{"type":"Feature","geometry":{"type":"Point","coordinates":[-118.18938,33.78183]},"properties":{"name":"Anaheim Street Station","stopId":"80105S","system":"lametro","routes":["801"],"colors":["#0072BC"]}},{"type":"Feature","geometry":{"type":"Point","coordinates":[-118.18938,33.78909]},"properties":{"name":"Pacific Coast Hwy Station","stopId":"80106S","system":"lametro","routes":["801"],"colors":["#0072BC"]}},{"type":"Feature","geometry":{"type":"Point","coordinates":[-118.18983,33.80708]},"properties":{"name":"Willow Street Station","stopId":"80107S","system":"lametro","routes":["801"],"colors":["#0072BC"]}},{"type":"Feature","geometry":{"type":"Point","coordinates":[-118.19609,33.81987]},"properties":{"name":"Wardlow Station","stopId":"80108S","system":"lametro","routes":["801"],"colors":["#0072BC"]}},{"type":"Feature","geometry":{"type":"Point","coordinates":[-118.21102,33.84822]},"properties":{"name":"Del Amo Station","stopId":"80109S","system":"lametro","routes":["801"],"colors":["#0072BC"]}},{"type":"Feature","geometry":{"type":"Point","coordinates":[-118.2225,33.87608]},"properties":{"name":"Artesia Station","stopId":"80110S","system":"lametro","routes":["801"],"colors":["#0072BC"]}},{"type":"Feature","geometry":{"type":"Point","coordinates":[-118.22425,33.89749]},"properties":{"name":"Compton Station","stopId":"80111S","system":"lametro","routes":["801"],"colors":["#0072BC"]}},{"type":"Feature","geometry":{"type":"Point","coordinates":[-118.23756,33.92805]},"properties":{"name":"Willowbrook - Rosa Parks Station","stopId":"80112S","system":"lametro","routes":["801","803"],"colors":["#0072BC","#58A738"]}},{"type":"Feature","geometry":{"type":"Point","coordinates":[-118.24316,33.94222]},"properties":{"name":"103rd Street / Watts Towers Station","stopId":"80113S","system":"lametro","routes":["801"],"colors":["#0072BC"]}},{"type":"Feature","geometry":{"type":"Point","coordinates":[-118.24321,33.95961]},"properties":{"name":"Firestone Station","stopId":"80114S","system":"lametro","routes":["801"],"colors":["#0072BC"]}},{"type":"Feature","geometry":{"type":"Point","coordinates":[-118.24327,33.97374]},"properties":{"name":"Florence Station","stopId":"80115S","system":"lametro","routes":["801"],"colors":["#0072BC"]}},{"type":"Feature","geometry":{"type":"Point","coordinates":[-118.2434,33.98876]},"properties":{"name":"Slauson Station","stopId":"80116S","system":"lametro","routes":["801"],"colors":["#0072BC"]}},{"type":"Feature","geometry":{"type":"Point","coordinates":[-118.2433,34.00292]},"properties":{"name":"Vernon Station","stopId":"80117S","system":"lametro","routes":["801"],"colors":["#0072BC"]}},{"type":"Feature","geometry":{"type":"Point","coordinates":[-118.24308,34.01965]},"properties":{"name":"Washington Station","stopId":"80118S","system":"lametro","routes":["801"],"colors":["#0072BC"]}},{"type":"Feature","geometry":{"type":"Point","coordinates":[-118.2555,34.02681]},"properties":{"name":"San Pedro Street Station","stopId":"80119S","system":"lametro","routes":["801"],"colors":["#0072BC"]}},{"type":"Feature","geometry":{"type":"Point","coordinates":[-118.26933,34.03316]},"properties":{"name":"Grand / LATTC Station","stopId":"80120S","system":"lametro","routes":["801"],"colors":["#0072BC"]}},{"type":"Feature","geometry":{"type":"Point","coordinates":[-118.26612,34.04073]},"properties":{"name":"Pico Station","stopId":"80121S","system":"lametro","routes":["801","804"],"colors":["#0072BC","#FDB913"]}},{"type":"Feature","geometry":{"type":"Point","coordinates":[-118.25882,34.04861]},"properties":{"name":"7th Street / Metro Center Station","stopId":"80122S","system":"lametro","routes":["801","804","802","805"],"colors":["#0072BC","#FDB913","#EB131B","#A05DA5"]}},{"type":"Feature","geometry":{"type":"Point","coordinates":[-118.2736,34.02911]},"properties":{"name":"LATTC / Ortho Institute Station","stopId":"80123S","system":"lametro","routes":["804"],"colors":["#FDB913"]}},{"type":"Feature","geometry":{"type":"Point","coordinates":[-118.27812,34.02212]},"properties":{"name":"Jefferson / USC Station","stopId":"80124S","system":"lametro","routes":["804"],"colors":["#FDB913"]}},{"type":"Feature","geometry":{"type":"Point","coordinates":[-118.28573,34.01823]},"properties":{"name":"Expo Park / USC Station","stopId":"80125S","system":"lametro","routes":["804"],"colors":["#FDB913"]}},{"type":"Feature","geometry":{"type":"Point","coordinates":[-118.29154,34.01825]},"properties":{"name":"Expo / Vermont Station","stopId":"80126S","system":"lametro","routes":["804"],"colors":["#FDB913"]}},{"type":"Feature","geometry":{"type":"Point","coordinates":[-118.30891,34.01833]},"properties":{"name":"Expo / Western Station","stopId":"80127S","system":"lametro","routes":["804"],"colors":["#FDB913"]}},{"type":"Feature","geometry":{"type":"Point","coordinates":[-118.33508,34.02253]},"properties":{"name":"Expo / Crenshaw E-Line Station","stopId":"80128S","system":"lametro","routes":["804"],"colors":["#FDB913"]}},{"type":"Feature","geometry":{"type":"Point","coordinates":[-118.3461,34.02398]},"properties":{"name":"Farmdale Station","stopId":"80129S","system":"lametro","routes":["804"],"colors":["#FDB913"]}},{"type":"Feature","geometry":{"type":"Point","coordinates":[-118.35516,34.0248]},"properties":{"name":"Expo / La Brea / Ethel Bradley Station","stopId":"80130S","system":"lametro","routes":["804"],"colors":["#FDB913"]}},{"type":"Feature","geometry":{"type":"Point","coordinates":[-118.37212,34.02636]},"properties":{"name":"La Cienega / Jefferson Station","stopId":"80131S","system":"lametro","routes":["804"],"colors":["#FDB913"]}},{"type":"Feature","geometry":{"type":"Point","coordinates":[-118.38899,34.0279]},"properties":{"name":"Culver City Station","stopId":"80132S","system":"lametro","routes":["804"],"colors":["#FDB913"]}},{"type":"Feature","geometry":{"type":"Point","coordinates":[-118.40426,34.02932]},"properties":{"name":"Palms Station","stopId":"80133S","system":"lametro","routes":["804"],"colors":["#FDB913"]}},{"type":"Feature","geometry":{"type":"Point","coordinates":[-118.42458,34.03682]},"properties":{"name":"Westwood / Rancho Park Station","stopId":"80134S","system":"lametro","routes":["804"],"colors":["#FDB913"]}},{"type":"Feature","geometry":{"type":"Point","coordinates":[-118.43423,34.03541]},"properties":{"name":"Expo / Sepulveda Station","stopId":"80135S","system":"lametro","routes":["804"],"colors":["#FDB913"]}},{"type":"Feature","geometry":{"type":"Point","coordinates":[-118.4529,34.03171]},"properties":{"name":"Expo / Bundy Station","stopId":"80136S","system":"lametro","routes":["804"],"colors":["#FDB913"]}},{"type":"Feature","geometry":{"type":"Point","coordinates":[-118.46912,34.02799]},"properties":{"name":"26th Street / Bergamot Station","stopId":"80137S","system":"lametro","routes":["804"],"colors":["#FDB913"]}},{"type":"Feature","geometry":{"type":"Point","coordinates":[-118.48037,34.02316]},"properties":{"name":"17th Street / SMC Station","stopId":"80138S","system":"lametro","routes":["804"],"colors":["#FDB913"]}},{"type":"Feature","geometry":{"type":"Point","coordinates":[-118.49138,34.01401]},"properties":{"name":"Downtown Santa Monica Station","stopId":"80139S","system":"lametro","routes":["804"],"colors":["#FDB913"]}},{"type":"Feature","geometry":{"type":"Point","coordinates":[-118.18936,33.76874]},"properties":{"name":"1st Street Station","stopId":"80153S","system":"lametro","routes":["801"],"colors":["#0072BC"]}},{"type":"Feature","geometry":{"type":"Point","coordinates":[-118.18941,33.7736]},"properties":{"name":"5th Street Station","stopId":"80154S","system":"lametro","routes":["801"],"colors":["#0072BC"]}},{"type":"Feature","geometry":{"type":"Point","coordinates":[-117.8663,34.1319]},"properties":{"name":"Glendora Station","stopId":"801100S","system":"lametro","routes":["801"],"colors":["#0072BC"]}},{"type":"Feature","geometry":{"type":"Point","coordinates":[-117.8058,34.1052]},"properties":{"name":"San Dimas Station","stopId":"801101S","system":"lametro","routes":["801"],"colors":["#0072BC"]}},{"type":"Feature","geometry":{"type":"Point","coordinates":[-117.7681,34.0972]},"properties":{"name":"La Verne / Fairplex Station","stopId":"801102S","system":"lametro","routes":["801"],"colors":["#0072BC"]}},{"type":"Feature","geometry":{"type":"Point","coordinates":[-117.7522,34.094]},"properties":{"name":"Pomona North Station","stopId":"801103S","system":"lametro","routes":["801"],"colors":["#0072BC"]}},{"type":"Feature","geometry":{"type":"Point","coordinates":[-118.37681,34.1685]},"properties":{"name":"North Hollywood Station","stopId":"80201S","system":"lametro","routes":["802"],"colors":["#EB131B"]}},{"type":"Feature","geometry":{"type":"Point","coordinates":[-118.3627,34.14]},"properties":{"name":"Universal / Studio City Station","stopId":"80202S","system":"lametro","routes":["802"],"colors":["#EB131B"]}},{"type":"Feature","geometry":{"type":"Point","coordinates":[-118.33855,34.10155]},"properties":{"name":"Hollywood / Highland Station","stopId":"80203S","system":"lametro","routes":["802"],"colors":["#EB131B"]}},{"type":"Feature","geometry":{"type":"Point","coordinates":[-118.32518,34.10163]},"properties":{"name":"Hollywood / Vine Station","stopId":"80204S","system":"lametro","routes":["802"],"colors":["#EB131B"]}},{"type":"Feature","geometry":{"type":"Point","coordinates":[-118.30812,34.10174]},"properties":{"name":"Hollywood / Western Station","stopId":"80205S","system":"lametro","routes":["802"],"colors":["#EB131B"]}},{"type":"Feature","geometry":{"type":"Point","coordinates":[-118.29176,34.09771]},"properties":{"name":"Vermont / Sunset Station","stopId":"80206S","system":"lametro","routes":["802"],"colors":["#EB131B"]}},{"type":"Feature","geometry":{"type":"Point","coordinates":[-118.29173,34.08991]},"properties":{"name":"Vermont / Santa Monica Station","stopId":"80207S","system":"lametro","routes":["802"],"colors":["#EB131B"]}},{"type":"Feature","geometry":{"type":"Point","coordinates":[-118.29169,34.07653]},"properties":{"name":"Vermont / Beverly Station","stopId":"80208S","system":"lametro","routes":["802"],"colors":["#EB131B"]}},{"type":"Feature","geometry":{"type":"Point","coordinates":[-118.29008,34.0627]},"properties":{"name":"Wilshire / Vermont Station","stopId":"80209S","system":"lametro","routes":["802","805"],"colors":["#EB131B","#A05DA5"]}},{"type":"Feature","geometry":{"type":"Point","coordinates":[-118.27488,34.05637]},"properties":{"name":"Westlake / MacArthur Park Station","stopId":"80210S","system":"lametro","routes":["802","805"],"colors":["#EB131B","#A05DA5"]}},{"type":"Feature","geometry":{"type":"Point","coordinates":[-118.25126,34.04932]},"properties":{"name":"Pershing Square Station","stopId":"80212S","system":"lametro","routes":["802","805"],"colors":["#EB131B","#A05DA5"]}},{"type":"Feature","geometry":{"type":"Point","coordinates":[-118.24606,34.0549]},"properties":{"name":"Civic Center / Grand Park Station","stopId":"80213S","system":"lametro","routes":["802","805"],"colors":["#EB131B","#A05DA5"]}},{"type":"Feature","geometry":{"type":"Point","coordinates":[-118.23425,34.0562]},"properties":{"name":"Union Station","stopId":"80214S","system":"lametro","routes":["802","805","801"],"colors":["#EB131B","#A05DA5","#0072BC"]}},{"type":"Feature","geometry":{"type":"Point","coordinates":[-118.30146,34.06175]},"properties":{"name":"Wilshire / Normandie Station","stopId":"80215S","system":"lametro","routes":["805"],"colors":["#A05DA5"]}},{"type":"Feature","geometry":{"type":"Point","coordinates":[-118.30876,34.06169]},"properties":{"name":"Wilshire / Western Station","stopId":"80216S","system":"lametro","routes":["805"],"colors":["#A05DA5"]}},{"type":"Feature","geometry":{"type":"Point","coordinates":[-118.3692,33.89464]},"properties":{"name":"Redondo Beach Station","stopId":"80301S","system":"lametro","routes":["807"],"colors":["#E56DB1"]}},{"type":"Feature","geometry":{"type":"Point","coordinates":[-118.38311,33.9053]},"properties":{"name":"Douglas Station","stopId":"80302S","system":"lametro","routes":["807"],"colors":["#E56DB1"]}},{"type":"Feature","geometry":{"type":"Point","coordinates":[-118.38654,33.91606]},"properties":{"name":"El Segundo Station","stopId":"80303S","system":"lametro","routes":["807"],"colors":["#E56DB1"]}},{"type":"Feature","geometry":{"type":"Point","coordinates":[-118.38757,33.9232]},"properties":{"name":"Mariposa Station","stopId":"80304S","system":"lametro","routes":["807"],"colors":["#E56DB1"]}},{"type":"Feature","geometry":{"type":"Point","coordinates":[-118.37713,33.92962]},"properties":{"name":"Aviation / Imperial Station","stopId":"80305S","system":"lametro","routes":["803"],"colors":["#58A738"]}},{"type":"Feature","geometry":{"type":"Point","coordinates":[-118.3516,33.93341]},"properties":{"name":"Hawthorne / Lennox Station","stopId":"80306S","system":"lametro","routes":["803"],"colors":["#58A738"]}},{"type":"Feature","geometry":{"type":"Point","coordinates":[-118.32655,33.9252]},"properties":{"name":"Crenshaw Station","stopId":"80307S","system":"lametro","routes":["803"],"colors":["#58A738"]}},{"type":"Feature","geometry":{"type":"Point","coordinates":[-118.29173,33.92868]},"properties":{"name":"Vermont / Athens Station","stopId":"80308S","system":"lametro","routes":["803"],"colors":["#58A738"]}},{"type":"Feature","geometry":{"type":"Point","coordinates":[-118.2811,33.92871]},"properties":{"name":"Harbor Freeway Station","stopId":"80309S","system":"lametro","routes":["803"],"colors":["#58A738"]}},{"type":"Feature","geometry":{"type":"Point","coordinates":[-118.26522,33.92746]},"properties":{"name":"Avalon Station","stopId":"80310S","system":"lametro","routes":["803"],"colors":["#58A738"]}},{"type":"Feature","geometry":{"type":"Point","coordinates":[-118.20995,33.92488]},"properties":{"name":"Lynwood Station","stopId":"80312S","system":"lametro","routes":["803"],"colors":["#58A738"]}},{"type":"Feature","geometry":{"type":"Point","coordinates":[-118.1406,33.91307]},"properties":{"name":"Lakewood Blvd Station","stopId":"80313S","system":"lametro","routes":["803"],"colors":["#58A738"]}},{"type":"Feature","geometry":{"type":"Point","coordinates":[-118.10472,33.91403]},"properties":{"name":"Norwalk Station","stopId":"80314S","system":"lametro","routes":["803"],"colors":["#58A738"]}},{"type":"Feature","geometry":{"type":"Point","coordinates":[-118.15447,34.0334]},"properties":{"name":"Atlantic Station","stopId":"80401S","system":"lametro","routes":["804"],"colors":["#FDB913"]}},{"type":"Feature","geometry":{"type":"Point","coordinates":[-118.16121,34.03336]},"properties":{"name":"East LA Civic Center Station","stopId":"80402S","system":"lametro","routes":["804"],"colors":["#FDB913"]}},{"type":"Feature","geometry":{"type":"Point","coordinates":[-118.16814,34.03332]},"properties":{"name":"Maravilla Station","stopId":"80403S","system":"lametro","routes":["804"],"colors":["#FDB913"]}},{"type":"Feature","geometry":{"type":"Point","coordinates":[-118.19218,34.0343]},"properties":{"name":"Indiana Station","stopId":"80404S","system":"lametro","routes":["804"],"colors":["#FDB913"]}},{"type":"Feature","geometry":{"type":"Point","coordinates":[-118.21006,34.04375]},"properties":{"name":"Soto Station","stopId":"80405S","system":"lametro","routes":["804"],"colors":["#FDB913"]}},{"type":"Feature","geometry":{"type":"Point","coordinates":[-118.21965,34.04722]},"properties":{"name":"Mariachi Plaza / Boyle Heights Station","stopId":"80406S","system":"lametro","routes":["804"],"colors":["#FDB913"]}},{"type":"Feature","geometry":{"type":"Point","coordinates":[-118.22594,34.04763]},"properties":{"name":"Pico / Aliso Station","stopId":"80407S","system":"lametro","routes":["804"],"colors":["#FDB913"]}},{"type":"Feature","geometry":{"type":"Point","coordinates":[-118.23584,34.06386]},"properties":{"name":"Chinatown Station","stopId":"80410S","system":"lametro","routes":["801"],"colors":["#0072BC"]}},{"type":"Feature","geometry":{"type":"Point","coordinates":[-118.22043,34.08095]},"properties":{"name":"Lincoln Heights / Cypress Park Station","stopId":"80411S","system":"lametro","routes":["801"],"colors":["#0072BC"]}},{"type":"Feature","geometry":{"type":"Point","coordinates":[-118.21321,34.08723]},"properties":{"name":"Heritage Square / Arroyo Station","stopId":"80412S","system":"lametro","routes":["801"],"colors":["#0072BC"]}},{"type":"Feature","geometry":{"type":"Point","coordinates":[-118.20671,34.09824]},"properties":{"name":"Southwest Museum Station","stopId":"80413S","system":"lametro","routes":["801"],"colors":["#0072BC"]}},{"type":"Feature","geometry":{"type":"Point","coordinates":[-118.19261,34.11118]},"properties":{"name":"Highland Park Station","stopId":"80414S","system":"lametro","routes":["801"],"colors":["#0072BC"]}},{"type":"Feature","geometry":{"type":"Point","coordinates":[-118.15789,34.11519]},"properties":{"name":"South Pasadena Station","stopId":"80415S","system":"lametro","routes":["801"],"colors":["#0072BC"]}},{"type":"Feature","geometry":{"type":"Point","coordinates":[-118.14813,34.13352]},"properties":{"name":"Fillmore Station","stopId":"80416S","system":"lametro","routes":["801"],"colors":["#0072BC"]}},{"type":"Feature","geometry":{"type":"Point","coordinates":[-118.14821,34.14191]},"properties":{"name":"Del Mar Station","stopId":"80417S","system":"lametro","routes":["801"],"colors":["#0072BC"]}},{"type":"Feature","geometry":{"type":"Point","coordinates":[-118.14751,34.14836]},"properties":{"name":"Memorial Park Station","stopId":"80418S","system":"lametro","routes":["801"],"colors":["#0072BC"]}},{"type":"Feature","geometry":{"type":"Point","coordinates":[-118.13139,34.15181]},"properties":{"name":"Lake Station","stopId":"80419S","system":"lametro","routes":["801"],"colors":["#0072BC"]}},{"type":"Feature","geometry":{"type":"Point","coordinates":[-118.11435,34.15242]},"properties":{"name":"Allen Station","stopId":"80420S","system":"lametro","routes":["801"],"colors":["#0072BC"]}},{"type":"Feature","geometry":{"type":"Point","coordinates":[-118.08121,34.14775]},"properties":{"name":"Sierra Madre Villa Station","stopId":"80421S","system":"lametro","routes":["801"],"colors":["#0072BC"]}},{"type":"Feature","geometry":{"type":"Point","coordinates":[-118.0292,34.14286]},"properties":{"name":"Arcadia Station","stopId":"80422S","system":"lametro","routes":["801"],"colors":["#0072BC"]}},{"type":"Feature","geometry":{"type":"Point","coordinates":[-118.00347,34.13316]},"properties":{"name":"Monrovia Station","stopId":"80423S","system":"lametro","routes":["801"],"colors":["#0072BC"]}},{"type":"Feature","geometry":{"type":"Point","coordinates":[-117.96768,34.13252]},"properties":{"name":"Duarte / City of Hope Station","stopId":"80424S","system":"lametro","routes":["801"],"colors":["#0072BC"]}},{"type":"Feature","geometry":{"type":"Point","coordinates":[-117.93251,34.12905]},"properties":{"name":"Irwindale Station","stopId":"80425S","system":"lametro","routes":["801"],"colors":["#0072BC"]}},{"type":"Feature","geometry":{"type":"Point","coordinates":[-117.90663,34.13586]},"properties":{"name":"Azusa Downtown Station","stopId":"80426S","system":"lametro","routes":["801"],"colors":["#0072BC"]}},{"type":"Feature","geometry":{"type":"Point","coordinates":[-117.89164,34.13681]},"properties":{"name":"APU / Citrus College Station","stopId":"80427S","system":"lametro","routes":["801"],"colors":["#0072BC"]}},{"type":"Feature","geometry":{"type":"Point","coordinates":[-118.37868,33.94557]},"properties":{"name":"Aviation / Century Station","stopId":"80701S","system":"lametro","routes":["803","807"],"colors":["#58A738","#E56DB1"]}},{"type":"Feature","geometry":{"type":"Point","coordinates":[-118.37866,33.95008]},"properties":{"name":"LAX / Metro Transit Center","stopId":"80702S","system":"lametro","routes":["803","807"],"colors":["#58A738","#E56DB1"]}},{"type":"Feature","geometry":{"type":"Point","coordinates":[-118.37438,33.96203]},"properties":{"name":"Westchester / Veterans Station","stopId":"80703S","system":"lametro","routes":["807"],"colors":["#E56DB1"]}},{"type":"Feature","geometry":{"type":"Point","coordinates":[-118.3515,33.96716]},"properties":{"name":"Downtown Inglewood Station","stopId":"80704S","system":"lametro","routes":["807"],"colors":["#E56DB1"]}},{"type":"Feature","geometry":{"type":"Point","coordinates":[-118.33607,33.97525]},"properties":{"name":"Fairview Heights Station","stopId":"80705S","system":"lametro","routes":["807"],"colors":["#E56DB1"]}},{"type":"Feature","geometry":{"type":"Point","coordinates":[-118.33082,33.98819]},"properties":{"name":"Hyde Park Station","stopId":"80706S","system":"lametro","routes":["807"],"colors":["#E56DB1"]}},{"type":"Feature","geometry":{"type":"Point","coordinates":[-118.33202,34.00391]},"properties":{"name":"Leimert Park Station","stopId":"80707S","system":"lametro","routes":["807"],"colors":["#E56DB1"]}},{"type":"Feature","geometry":{"type":"Point","coordinates":[-118.33536,34.00956]},"properties":{"name":"Martin Luther King Jr Station","stopId":"80708S","system":"lametro","routes":["807"],"colors":["#E56DB1"]}},{"type":"Feature","geometry":{"type":"Point","coordinates":[-118.33485,34.02216]},"properties":{"name":"Expo / Crenshaw K-Line Station","stopId":"80709S","system":"lametro","routes":["807"],"colors":["#E56DB1"]}},{"type":"Feature","geometry":{"type":"Point","coordinates":[-118.25153,34.05472]},"properties":{"name":"Grand Ave Arts / Bunker Hill Station","stopId":"81401S","system":"lametro","routes":["801","804"],"colors":["#0072BC","#FDB913"]}},{"type":"Feature","geometry":{"type":"Point","coordinates":[-118.24632,34.05216]},"properties":{"name":"Historic Broadway Station","stopId":"81402S","system":"lametro","routes":["801","804"],"colors":["#0072BC","#FDB913"]}},{"type":"Feature","geometry":{"type":"Point","coordinates":[-118.23876,34.04885]},"properties":{"name":"Little Tokyo / Arts District Station","stopId":"81403S","system":"lametro","routes":["801","804"],"colors":["#0072BC","#FDB913"]}}]}