{"type":"FeatureCollection","features":[{"type":"Feature","geometry":{"type":"Point","coordinates":[-117.878,33.80258]},"properties":{"name":"Anaheim — ARTIC","stopId":"128","system":"metrolink","routes":["Orange County Line"],"colors":["#FF8400"]}},{"type":"Feature","geometry":{"type":"Point","coordinates":[-117.84052,33.85418]},"properties":{"name":"Anaheim Canyon","stopId":"171","system":"metrolink","routes":["Inland Emp.-Orange Co. Line"],"colors":["#E92076"]}},{"type":"Feature","geometry":{"type":"Point","coordinates":[-117.9574,34.08643]},"properties":{"name":"Baldwin Park","stopId":"101","system":"metrolink","routes":["San Bernardino Line"],"colors":["#A32136"]}},{"type":"Feature","geometry":{"type":"Point","coordinates":[-117.98686,33.87597]},"properties":{"name":"Buena Park","stopId":"130","system":"metrolink","routes":["Orange County Line","91 Line"],"colors":["#FF8400","#0071CE"]}},{"type":"Feature","geometry":{"type":"Point","coordinates":[-118.31287,34.17894]},"properties":{"name":"Burbank — Downtown","stopId":"102","system":"metrolink","routes":["Antelope Valley Line","Ventura County Line"],"colors":["#00AF43","#FFB81D"]}},{"type":"Feature","geometry":{"type":"Point","coordinates":[-118.35,34.20639]},"properties":{"name":"Burbank Airport — North (AV Line)","stopId":"186","system":"metrolink","routes":["Antelope Valley Line"],"colors":["#00AF43"]}},{"type":"Feature","geometry":{"type":"Point","coordinates":[-118.3526,34.19279]},"properties":{"name":"Burbank Airport — South (VC Line)","stopId":"170","system":"metrolink","routes":["Ventura County Line"],"colors":["#FFB81D"]}},{"type":"Feature","geometry":{"type":"Point","coordinates":[-118.17165,34.06212]},"properties":{"name":"Cal State LA","stopId":"115","system":"metrolink","routes":["San Bernardino Line"],"colors":["#A32136"]}},{"type":"Feature","geometry":{"type":"Point","coordinates":[-119.03383,34.21666]},"properties":{"name":"Camarillo","stopId":"166","system":"metrolink","routes":["Ventura County Line"],"colors":["#FFB81D"]}},{"type":"Feature","geometry":{"type":"Point","coordinates":[-118.59941,34.2532]},"properties":{"name":"Chatsworth","stopId":"103","system":"metrolink","routes":["Ventura County Line"],"colors":["#FFB81D"]}},{"type":"Feature","geometry":{"type":"Point","coordinates":[-117.71635,34.09388]},"properties":{"name":"Claremont","stopId":"114","system":"metrolink","routes":["San Bernardino Line"],"colors":["#A32136"]}},{"type":"Feature","geometry":{"type":"Point","coordinates":[-118.14378,33.99073]},"properties":{"name":"Commerce","stopId":"135","system":"metrolink","routes":["Orange County Line"],"colors":["#FF8400"]}},{"type":"Feature","geometry":{"type":"Point","coordinates":[-117.56345,33.8822]},"properties":{"name":"Corona — North Main","stopId":"147","system":"metrolink","routes":["Inland Emp.-Orange Co. Line","91 Line"],"colors":["#E92076","#0071CE"]}},{"type":"Feature","geometry":{"type":"Point","coordinates":[-117.61359,33.88576]},"properties":{"name":"Corona — West","stopId":"173","system":"metrolink","routes":["Inland Emp.-Orange Co. Line","91 Line"],"colors":["#E92076","#0071CE"]}},{"type":"Feature","geometry":{"type":"Point","coordinates":[-117.88889,34.09214]},"properties":{"name":"Covina","stopId":"104","system":"metrolink","routes":["San Bernardino Line"],"colors":["#A32136"]}},{"type":"Feature","geometry":{"type":"Point","coordinates":[-118.0355,34.07681]},"properties":{"name":"El Monte","stopId":"105","system":"metrolink","routes":["San Bernardino Line"],"colors":["#A32136"]}},{"type":"Feature","geometry":{"type":"Point","coordinates":[-117.4381,34.09517]},"properties":{"name":"Fontana","stopId":"116","system":"metrolink","routes":["San Bernardino Line"],"colors":["#A32136"]}},{"type":"Feature","geometry":{"type":"Point","coordinates":[-117.9223,33.8687]},"properties":{"name":"Fullerton","stopId":"174","system":"metrolink","routes":["Orange County Line","91 Line"],"colors":["#FF8400","#0071CE"]}},{"type":"Feature","geometry":{"type":"Point","coordinates":[-118.25893,34.12334]},"properties":{"name":"Glendale","stopId":"106","system":"metrolink","routes":["Antelope Valley Line","Ventura County Line"],"colors":["#00AF43","#FFB81D"]}},{"type":"Feature","geometry":{"type":"Point","coordinates":[-117.84558,34.00793]},"properties":{"name":"Industry","stopId":"127","system":"metrolink","routes":["Riverside Line"],"colors":["#682E86"]}},{"type":"Feature","geometry":{"type":"Point","coordinates":[-117.73293,33.65705]},"properties":{"name":"Irvine","stopId":"140","system":"metrolink","routes":["Inland Emp.-Orange Co. Line","Orange County Line"],"colors":["#E92076","#FF8400"]}},{"type":"Feature","geometry":{"type":"Point","coordinates":[-117.47627,33.97812]},"properties":{"name":"Jurupa Valley / Pedley","stopId":"119","system":"metrolink","routes":["Riverside Line"],"colors":["#682E86"]}},{"type":"Feature","geometry":{"type":"Point","coordinates":[-118.23351,34.05573]},"properties":{"name":"L.A. Union","stopId":"107","system":"metrolink","routes":["Antelope Valley Line","Ventura County Line","San Bernardino Line","Riverside Line","Orange County Line","91 Line"],"colors":["#00AF43","#FFB81D","#A32136","#682E86","#FF8400","#0071CE"]}},{"type":"Feature","geometry":{"type":"Point","coordinates":[-117.675,33.5539]},"properties":{"name":"Laguna Niguel / Mission Viejo","stopId":"141","system":"metrolink","routes":["Inland Emp.-Orange Co. Line","Orange County Line"],"colors":["#E92076","#FF8400"]}},{"type":"Feature","geometry":{"type":"Point","coordinates":[-118.13613,34.69658]},"properties":{"name":"Lancaster","stopId":"162","system":"metrolink","routes":["Antelope Valley Line"],"colors":["#00AF43"]}},{"type":"Feature","geometry":{"type":"Point","coordinates":[-117.69558,34.09409]},"properties":{"name":"Montclair","stopId":"118","system":"metrolink","routes":["San Bernardino Line"],"colors":["#A32136"]}},{"type":"Feature","geometry":{"type":"Point","coordinates":[-118.12561,34.00696]},"properties":{"name":"Montebello / Commerce","stopId":"126","system":"metrolink","routes":["Riverside Line"],"colors":["#682E86"]}},{"type":"Feature","geometry":{"type":"Point","coordinates":[-118.87788,34.28532]},"properties":{"name":"Moorpark","stopId":"108","system":"metrolink","routes":["Ventura County Line"],"colors":["#FFB81D"]}},{"type":"Feature","geometry":{"type":"Point","coordinates":[-117.33442,33.9975]},"properties":{"name":"Moreno Valley / March Field","stopId":"182","system":"metrolink","routes":["91 Line"],"colors":["#0071CE"]}},{"type":"Feature","geometry":{"type":"Point","coordinates":[-118.52731,34.37991]},"properties":{"name":"Newhall","stopId":"175","system":"metrolink","routes":["Antelope Valley Line"],"colors":["#00AF43"]}},{"type":"Feature","geometry":{"type":"Point","coordinates":[-118.5451,34.23061]},"properties":{"name":"Northridge","stopId":"167","system":"metrolink","routes":["Ventura County Line"],"colors":["#FFB81D"]}},{"type":"Feature","geometry":{"type":"Point","coordinates":[-118.06016,33.9162]},"properties":{"name":"Norwalk / Santa Fe Springs","stopId":"143","system":"metrolink","routes":["Orange County Line","91 Line"],"colors":["#FF8400","#0071CE"]}},{"type":"Feature","geometry":{"type":"Point","coordinates":[-117.37987,33.19255]},"properties":{"name":"Oceanside","stopId":"144","system":"metrolink","routes":["Orange County Line","Inland Emp.-Orange Co. Line"],"colors":["#FF8400","#E92076"]}},{"type":"Feature","geometry":{"type":"Point","coordinates":[-117.57952,34.03991]},"properties":{"name":"Ontario — East","stopId":"117","system":"metrolink","routes":["Riverside Line"],"colors":["#682E86"]}},{"type":"Feature","geometry":{"type":"Point","coordinates":[-117.8573,33.78878]},"properties":{"name":"Orange","stopId":"145","system":"metrolink","routes":["Inland Emp.-Orange Co. Line","Orange County Line"],"colors":["#E92076","#FF8400"]}},{"type":"Feature","geometry":{"type":"Point","coordinates":[-119.17631,34.19928]},"properties":{"name":"Oxnard","stopId":"168","system":"metrolink","routes":["Ventura County Line"],"colors":["#FFB81D"]}},{"type":"Feature","geometry":{"type":"Point","coordinates":[-118.11929,34.59077]},"properties":{"name":"Palmdale","stopId":"163","system":"metrolink","routes":["Antelope Valley Line"],"colors":["#00AF43"]}},{"type":"Feature","geometry":{"type":"Point","coordinates":[-117.22984,33.78528]},"properties":{"name":"Perris — Downtown","stopId":"183","system":"metrolink","routes":["91 Line"],"colors":["#0071CE"]}},{"type":"Feature","geometry":{"type":"Point","coordinates":[-117.20571,33.76375]},"properties":{"name":"Perris — South","stopId":"184","system":"metrolink","routes":["91 Line"],"colors":["#0071CE"]}},{"type":"Feature","geometry":{"type":"Point","coordinates":[-117.75055,34.05877]},"properties":{"name":"Pomona — Downtown","stopId":"120","system":"metrolink","routes":["Riverside Line"],"colors":["#682E86"]}},{"type":"Feature","geometry":{"type":"Point","coordinates":[-117.75305,34.09364]},"properties":{"name":"Pomona — North","stopId":"109","system":"metrolink","routes":["San Bernardino Line"],"colors":["#A32136"]}},{"type":"Feature","geometry":{"type":"Point","coordinates":[-117.55994,34.09185]},"properties":{"name":"Rancho Cucamonga","stopId":"121","system":"metrolink","routes":["San Bernardino Line"],"colors":["#A32136"]}},{"type":"Feature","geometry":{"type":"Point","coordinates":[-117.18452,34.05907]},"properties":{"name":"Redlands — Downtown","stopId":"190","system":"metrolink","routes":["San Bernardino Line"],"colors":["#A32136"]}},{"type":"Feature","geometry":{"type":"Point","coordinates":[-117.19645,34.06014]},"properties":{"name":"Redlands — Esri","stopId":"189","system":"metrolink","routes":["San Bernardino Line"],"colors":["#A32136"]}},{"type":"Feature","geometry":{"type":"Point","coordinates":[-117.16573,34.05887]},"properties":{"name":"Redlands — University","stopId":"191","system":"metrolink","routes":["San Bernardino Line"],"colors":["#A32136"]}},{"type":"Feature","geometry":{"type":"Point","coordinates":[-117.37189,34.09679]},"properties":{"name":"Rialto","stopId":"122","system":"metrolink","routes":["San Bernardino Line"],"colors":["#A32136"]}},{"type":"Feature","geometry":{"type":"Point","coordinates":[-117.36989,33.97555]},"properties":{"name":"Riverside — Downtown","stopId":"123","system":"metrolink","routes":["Inland Emp.-Orange Co. Line","Riverside Line","91 Line"],"colors":["#E92076","#682E86","#0071CE"]}},{"type":"Feature","geometry":{"type":"Point","coordinates":[-117.3345,33.99876]},"properties":{"name":"Riverside — Hunter Park / UCR","stopId":"181","system":"metrolink","routes":["91 Line"],"colors":["#0071CE"]}},{"type":"Feature","geometry":{"type":"Point","coordinates":[-117.4702,33.89993]},"properties":{"name":"Riverside — La Sierra","stopId":"148","system":"metrolink","routes":["Inland Emp.-Orange Co. Line","91 Line"],"colors":["#E92076","#0071CE"]}},{"type":"Feature","geometry":{"type":"Point","coordinates":[-117.29602,34.0995]},"properties":{"name":"San Bernardino — Downtown","stopId":"185","system":"metrolink","routes":["Inland Emp.-Orange Co. Line","San Bernardino Line"],"colors":["#E92076","#A32136"]}},{"type":"Feature","geometry":{"type":"Point","coordinates":[-117.2604,34.0735]},"properties":{"name":"San Bernardino — Tippecanoe","stopId":"188","system":"metrolink","routes":["San Bernardino Line"],"colors":["#A32136"]}},{"type":"Feature","geometry":{"type":"Point","coordinates":[-117.31009,34.10453]},"properties":{"name":"San Bernardino Depot","stopId":"124","system":"metrolink","routes":["Inland Emp.-Orange Co. Line","San Bernardino Line"],"colors":["#E92076","#A32136"]}},{"type":"Feature","geometry":{"type":"Point","coordinates":[-117.63274,33.43208]},"properties":{"name":"San Clemente","stopId":"152","system":"metrolink","routes":["Orange County Line","Inland Emp.-Orange Co. Line"],"colors":["#FF8400","#E92076"]}},{"type":"Feature","geometry":{"type":"Point","coordinates":[-117.6196,33.41948]},"properties":{"name":"San Clemente Pier","stopId":"133","system":"metrolink","routes":["Orange County Line","Inland Emp.-Orange Co. Line"],"colors":["#FF8400","#E92076"]}},{"type":"Feature","geometry":{"type":"Point","coordinates":[-117.6637,33.5014]},"properties":{"name":"San Juan Capistrano","stopId":"153","system":"metrolink","routes":["Orange County Line","Inland Emp.-Orange Co. Line"],"colors":["#FF8400","#E92076"]}},{"type":"Feature","geometry":{"type":"Point","coordinates":[-117.85598,33.75152]},"properties":{"name":"Santa Ana","stopId":"154","system":"metrolink","routes":["Inland Emp.-Orange Co. Line","Orange County Line"],"colors":["#E92076","#FF8400"]}},{"type":"Feature","geometry":{"type":"Point","coordinates":[-118.52482,34.41344]},"properties":{"name":"Santa Clarita","stopId":"111","system":"metrolink","routes":["Antelope Valley Line"],"colors":["#00AF43"]}},{"type":"Feature","geometry":{"type":"Point","coordinates":[-118.69555,34.27041]},"properties":{"name":"Simi Valley","stopId":"112","system":"metrolink","routes":["Ventura County Line"],"colors":["#FFB81D"]}},{"type":"Feature","geometry":{"type":"Point","coordinates":[-118.3734,34.2224]},"properties":{"name":"Sun Valley","stopId":"129","system":"metrolink","routes":["Antelope Valley Line"],"colors":["#00AF43"]}},{"type":"Feature","geometry":{"type":"Point","coordinates":[-118.45017,34.29259]},"properties":{"name":"Sylmar / San Fernando","stopId":"110","system":"metrolink","routes":["Antelope Valley Line"],"colors":["#00AF43"]}},{"type":"Feature","geometry":{"type":"Point","coordinates":[-117.80602,33.70797]},"properties":{"name":"Tustin","stopId":"156","system":"metrolink","routes":["Inland Emp.-Orange Co. Line","Orange County Line"],"colors":["#E92076","#FF8400"]}},{"type":"Feature","geometry":{"type":"Point","coordinates":[-117.64751,34.0945]},"properties":{"name":"Upland","stopId":"125","system":"metrolink","routes":["San Bernardino Line"],"colors":["#A32136"]}},{"type":"Feature","geometry":{"type":"Point","coordinates":[-118.44822,34.21156]},"properties":{"name":"Van Nuys","stopId":"113","system":"metrolink","routes":["Ventura County Line"],"colors":["#FFB81D"]}},{"type":"Feature","geometry":{"type":"Point","coordinates":[-119.20503,34.25079]},"properties":{"name":"Ventura — East","stopId":"169","system":"metrolink","routes":["Ventura County Line"],"colors":["#FFB81D"]}},{"type":"Feature","geometry":{"type":"Point","coordinates":[-118.46941,34.40882]},"properties":{"name":"Via Princessa","stopId":"164","system":"metrolink","routes":["Antelope Valley Line"],"colors":["#00AF43"]}},{"type":"Feature","geometry":{"type":"Point","coordinates":[-118.1183,34.49786]},"properties":{"name":"Vincent Grade / Acton","stopId":"165","system":"metrolink","routes":["Antelope Valley Line"],"colors":["#00AF43"]}},{"type":"Feature","geometry":{"type":"Point","coordinates":[-118.4339,34.4131]},"properties":{"name":"Vista Canyon","stopId":"161","system":"metrolink","routes":["Antelope Valley Line"],"colors":["#00AF43"]}}]}