{"type":"FeatureCollection","features":[{"type":"Feature","geometry":{"type":"Point","coordinates":[-122.4498,37.76586]},"properties":{"name":"Carl St & Cole St","stopId":"3909","system":"munimetro","routes":["N"],"colors":["#005B95"]}},{"type":"Feature","geometry":{"type":"Point","coordinates":[-122.45656,37.765]},"properties":{"name":"Carl St & Hillway Ave","stopId":"3912","system":"munimetro","routes":["N"],"colors":["#005B95"]}},{"type":"Feature","geometry":{"type":"Point","coordinates":[-122.45259,37.7655]},"properties":{"name":"Carl St & Stanyan St","stopId":"3914","system":"munimetro","routes":["N"],"colors":["#005B95"]}},{"type":"Feature","geometry":{"type":"Point","coordinates":[-122.42872,37.76462]},"properties":{"name":"Church St & 16th St","stopId":"3984","system":"munimetro","routes":["J"],"colors":["#A96614"]}},{"type":"Feature","geometry":{"type":"Point","coordinates":[-122.42842,37.76147]},"properties":{"name":"Church St & 18th St","stopId":"3987","system":"munimetro","routes":["J"],"colors":["#A96614"]}},{"type":"Feature","geometry":{"type":"Point","coordinates":[-122.42764,37.75474]},"properties":{"name":"Church St & 22nd St","stopId":"3994","system":"munimetro","routes":["J"],"colors":["#A96614"]}},{"type":"Feature","geometry":{"type":"Point","coordinates":[-122.4275,37.7518]},"properties":{"name":"Church St & 24th St","stopId":"3995","system":"munimetro","routes":["J"],"colors":["#A96614"]}},{"type":"Feature","geometry":{"type":"Point","coordinates":[-122.42659,37.74359]},"properties":{"name":"Church St & 29th St","stopId":"3999","system":"munimetro","routes":["J"],"colors":["#A96614"]}},{"type":"Feature","geometry":{"type":"Point","coordinates":[-122.42646,37.74222]},"properties":{"name":"Church St & 30th St","stopId":"4000","system":"munimetro","routes":["J"],"colors":["#A96614"]}},{"type":"Feature","geometry":{"type":"Point","coordinates":[-122.42665,37.74281]},"properties":{"name":"Church St & Day St","stopId":"4004","system":"munimetro","routes":["J"],"colors":["#A96614"]}},{"type":"Feature","geometry":{"type":"Point","coordinates":[-122.42909,37.7693]},"properties":{"name":"Church St & Duboce Ave","stopId":"4006","system":"munimetro","routes":["J"],"colors":["#A96614"]}},{"type":"Feature","geometry":{"type":"Point","coordinates":[-122.42941,37.76947]},"properties":{"name":"Duboce Ave & Church St","stopId":"4447","system":"munimetro","routes":["N"],"colors":["#005B95"]}},{"type":"Feature","geometry":{"type":"Point","coordinates":[-122.40628,37.80694]},"properties":{"name":"The Embarcadero & Bay St","stopId":"4501","system":"munimetro","routes":["F"],"colors":["#B49A36"]}},{"type":"Feature","geometry":{"type":"Point","coordinates":[-122.39787,37.79955]},"properties":{"name":"The Embarcadero & Broadway","stopId":"4503","system":"munimetro","routes":["F"],"colors":["#B49A36"]}},{"type":"Feature","geometry":{"type":"Point","coordinates":[-122.38814,37.78436]},"properties":{"name":"The Embarcadero & Brannan St","stopId":"4506","system":"munimetro","routes":["N"],"colors":["#005B95"]}},{"type":"Feature","geometry":{"type":"Point","coordinates":[-122.38969,37.79048]},"properties":{"name":"The Embarcadero & Folsom St","stopId":"4509","system":"munimetro","routes":["K","L","M","N"],"colors":["#437C93","#942D83","#008547","#005B95"]}},{"type":"Feature","geometry":{"type":"Point","coordinates":[-122.39355,37.79489]},"properties":{"name":"The Embarcadero & Ferry Building","stopId":"4513","system":"munimetro","routes":["F"],"colors":["#B49A36"]}},{"type":"Feature","geometry":{"type":"Point","coordinates":[-122.40111,37.80326]},"properties":{"name":"The Embarcadero & Greenwich St","stopId":"4515","system":"munimetro","routes":["F"],"colors":["#B49A36"]}},{"type":"Feature","geometry":{"type":"Point","coordinates":[-122.39937,37.80126]},"properties":{"name":"The Embarcadero & Green St","stopId":"4517","system":"munimetro","routes":["F"],"colors":["#B49A36"]}},{"type":"Feature","geometry":{"type":"Point","coordinates":[-122.40331,37.80502]},"properties":{"name":"The Embarcadero & Sansome St","stopId":"4529","system":"munimetro","routes":["F"],"colors":["#B49A36"]}},{"type":"Feature","geometry":{"type":"Point","coordinates":[-122.41029,37.80835]},"properties":{"name":"The Embarcadero & Stockton St","stopId":"4530","system":"munimetro","routes":["F"],"colors":["#B49A36"]}},{"type":"Feature","geometry":{"type":"Point","coordinates":[-122.39567,37.79709]},"properties":{"name":"The Embarcadero & Washington St","stopId":"4532","system":"munimetro","routes":["F"],"colors":["#B49A36"]}},{"type":"Feature","geometry":{"type":"Point","coordinates":[-122.40131,37.78935]},"properties":{"name":"Market St & 2nd St","stopId":"5639","system":"munimetro","routes":["F"],"colors":["#B49A36"]}},{"type":"Feature","geometry":{"type":"Point","coordinates":[-122.40352,37.78753]},"properties":{"name":"Market St & 3rd St","stopId":"5640","system":"munimetro","routes":["F"],"colors":["#B49A36"]}},{"type":"Feature","geometry":{"type":"Point","coordinates":[-122.40585,37.78571]},"properties":{"name":"Market St & 4th St","stopId":"5643","system":"munimetro","routes":["F"],"colors":["#B49A36"]}},{"type":"Feature","geometry":{"type":"Point","coordinates":[-122.40814,37.78389]},"properties":{"name":"Market St & 5th St","stopId":"5645","system":"munimetro","routes":["F"],"colors":["#B49A36"]}},{"type":"Feature","geometry":{"type":"Point","coordinates":[-122.4104,37.7821]},"properties":{"name":"Market St & 6th St","stopId":"5647","system":"munimetro","routes":["F"],"colors":["#B49A36"]}},{"type":"Feature","geometry":{"type":"Point","coordinates":[-122.41261,37.78036]},"properties":{"name":"Market St & 7th St","stopId":"5650","system":"munimetro","routes":["F"],"colors":["#B49A36"]}},{"type":"Feature","geometry":{"type":"Point","coordinates":[-122.41483,37.77861]},"properties":{"name":"Market St & 8th St","stopId":"5651","system":"munimetro","routes":["F"],"colors":["#B49A36"]}},{"type":"Feature","geometry":{"type":"Point","coordinates":[-122.41634,37.77741]},"properties":{"name":"Market St & 9th St","stopId":"5652","system":"munimetro","routes":["F"],"colors":["#B49A36"]}},{"type":"Feature","geometry":{"type":"Point","coordinates":[-122.40799,37.78408]},"properties":{"name":"Market St & 5th  St","stopId":"5655","system":"munimetro","routes":["F"],"colors":["#B49A36"]}},{"type":"Feature","geometry":{"type":"Point","coordinates":[-122.39907,37.79111]},"properties":{"name":"Market St & Battery St","stopId":"5657","system":"munimetro","routes":["F"],"colors":["#B49A36"]}},{"type":"Feature","geometry":{"type":"Point","coordinates":[-122.42615,37.76979]},"properties":{"name":"Market St & Buchanan St","stopId":"5659","system":"munimetro","routes":["F"],"colors":["#B49A36"]}},{"type":"Feature","geometry":{"type":"Point","coordinates":[-122.42878,37.7677]},"properties":{"name":"Market St & Church St","stopId":"5661","system":"munimetro","routes":["F"],"colors":["#B49A36"]}},{"type":"Feature","geometry":{"type":"Point","coordinates":[-122.4271,37.76888]},"properties":{"name":"Market St & Dolores St","stopId":"5668","system":"munimetro","routes":["F"],"colors":["#B49A36"]}},{"type":"Feature","geometry":{"type":"Point","coordinates":[-122.39618,37.79347]},"properties":{"name":"Market St & Drumm St","stopId":"5669","system":"munimetro","routes":["F"],"colors":["#B49A36"]}},{"type":"Feature","geometry":{"type":"Point","coordinates":[-122.42177,37.77327]},"properties":{"name":"Market St & Gough St","stopId":"5672","system":"munimetro","routes":["F"],"colors":["#B49A36"]}},{"type":"Feature","geometry":{"type":"Point","coordinates":[-122.42497,37.77057]},"properties":{"name":"Market St & Guerrero St","stopId":"5675","system":"munimetro","routes":["F"],"colors":["#B49A36"]}},{"type":"Feature","geometry":{"type":"Point","coordinates":[-122.41438,37.77911]},"properties":{"name":"Market St & Hyde St","stopId":"5676","system":"munimetro","routes":["F"],"colors":["#B49A36"]}},{"type":"Feature","geometry":{"type":"Point","coordinates":[-122.40337,37.78773]},"properties":{"name":"Market St & Kearny St","stopId":"5678","system":"munimetro","routes":["F"],"colors":["#B49A36"]}},{"type":"Feature","geometry":{"type":"Point","coordinates":[-122.41624,37.7776]},"properties":{"name":"Market St & Larkin St","stopId":"5680","system":"munimetro","routes":["F"],"colors":["#B49A36"]}},{"type":"Feature","geometry":{"type":"Point","coordinates":[-122.42467,37.77095]},"properties":{"name":"Market St & Laguna St","stopId":"5681","system":"munimetro","routes":["F"],"colors":["#B49A36"]}},{"type":"Feature","geometry":{"type":"Point","coordinates":[-122.39663,37.79298]},"properties":{"name":"Market St & Main St","stopId":"5682","system":"munimetro","routes":["F"],"colors":["#B49A36"]}},{"type":"Feature","geometry":{"type":"Point","coordinates":[-122.40216,37.78861]},"properties":{"name":"Market St & New Montgomery St","stopId":"5685","system":"munimetro","routes":["F"],"colors":["#B49A36"]}},{"type":"Feature","geometry":{"type":"Point","coordinates":[-122.43281,37.76449]},"properties":{"name":"Market St & Noe St","stopId":"5686","system":"munimetro","routes":["F"],"colors":["#B49A36"]}},{"type":"Feature","geometry":{"type":"Point","coordinates":[-122.43071,37.76619]},"properties":{"name":"Market St & Sanchez St","stopId":"5690","system":"munimetro","routes":["F"],"colors":["#B49A36"]}},{"type":"Feature","geometry":{"type":"Point","coordinates":[-122.41932,37.77506]},"properties":{"name":"Market St & South Van Ness Ave","stopId":"5692","system":"munimetro","routes":["F"],"colors":["#B49A36"]}},{"type":"Feature","geometry":{"type":"Point","coordinates":[-122.40586,37.78578]},"properties":{"name":"Market St & Stockton St","stopId":"5694","system":"munimetro","routes":["F"],"colors":["#B49A36"]}},{"type":"Feature","geometry":{"type":"Point","coordinates":[-122.41023,37.78232]},"properties":{"name":"Market St & Taylor St","stopId":"5695","system":"munimetro","routes":["F"],"colors":["#B49A36"]}},{"type":"Feature","geometry":{"type":"Point","coordinates":[-122.41925,37.7752]},"properties":{"name":"Market St & Van Ness Ave","stopId":"5696","system":"munimetro","routes":["F"],"colors":["#B49A36"]}},{"type":"Feature","geometry":{"type":"Point","coordinates":[-122.42917,37.76719]},"properties":{"name":"Metro Church Station/Downtown","stopId":"5726","system":"munimetro","routes":["K","L","M"],"colors":["#437C93","#942D83","#008547"]}},{"type":"Feature","geometry":{"type":"Point","coordinates":[-122.41335,37.77971]},"properties":{"name":"Metro Civic Center Station/Downtn","stopId":"5727","system":"munimetro","routes":["J","K","L","M","N"],"colors":["#A96614","#437C93","#942D83","#008547","#005B95"]}},{"type":"Feature","geometry":{"type":"Point","coordinates":[-122.43523,37.76262]},"properties":{"name":"Metro Castro Station/Downtown","stopId":"5728","system":"munimetro","routes":["K","L","M"],"colors":["#437C93","#942D83","#008547"]}},{"type":"Feature","geometry":{"type":"Point","coordinates":[-122.45862,37.74835]},"properties":{"name":"Metro Forest Hill Station/Downtown","stopId":"5730","system":"munimetro","routes":["K","L","M"],"colors":["#437C93","#942D83","#008547"]}},{"type":"Feature","geometry":{"type":"Point","coordinates":[-122.40135,37.78922]},"properties":{"name":"Metro Montgomery Station/Downtown","stopId":"5731","system":"munimetro","routes":["J","K","L","M","N"],"colors":["#A96614","#437C93","#942D83","#008547","#005B95"]}},{"type":"Feature","geometry":{"type":"Point","coordinates":[-122.46756,37.72828]},"properties":{"name":"Ocean Ave & Aptos Ave","stopId":"5779","system":"munimetro","routes":["K"],"colors":["#437C93"]}},{"type":"Feature","geometry":{"type":"Point","coordinates":[-122.45145,37.72304]},"properties":{"name":"Ocean Ave/CCSF Pedestrian Bridge","stopId":"5784","system":"munimetro","routes":["K"],"colors":["#437C93"]}},{"type":"Feature","geometry":{"type":"Point","coordinates":[-122.46106,37.72496]},"properties":{"name":"Ocean Ave & Dorado Ter","stopId":"5787","system":"munimetro","routes":["K"],"colors":["#437C93"]}},{"type":"Feature","geometry":{"type":"Point","coordinates":[-122.46407,37.72601]},"properties":{"name":"Ocean Ave & Fairfield Way","stopId":"5788","system":"munimetro","routes":["K"],"colors":["#437C93"]}},{"type":"Feature","geometry":{"type":"Point","coordinates":[-122.46139,37.72496]},"properties":{"name":"Ocean Ave & Jules Ave","stopId":"5793","system":"munimetro","routes":["K"],"colors":["#437C93"]}},{"type":"Feature","geometry":{"type":"Point","coordinates":[-122.454,37.72346]},"properties":{"name":"Ocean Ave & Lee St","stopId":"5794","system":"munimetro","routes":["K"],"colors":["#437C93"]}},{"type":"Feature","geometry":{"type":"Point","coordinates":[-122.45808,37.72439]},"properties":{"name":"Ocean Ave & Miramar Ave","stopId":"5797","system":"munimetro","routes":["K"],"colors":["#437C93"]}},{"type":"Feature","geometry":{"type":"Point","coordinates":[-122.4691,37.72999]},"properties":{"name":"Ocean Ave & San Leandro Way","stopId":"5806","system":"munimetro","routes":["K"],"colors":["#437C93"]}},{"type":"Feature","geometry":{"type":"Point","coordinates":[-122.46434,37.72603]},"properties":{"name":"Ocean Ave & Victoria St","stopId":"5808","system":"munimetro","routes":["K"],"colors":["#437C93"]}},{"type":"Feature","geometry":{"type":"Point","coordinates":[-122.46259,37.71333]},"properties":{"name":"Orizaba Ave & Broad St","stopId":"5825","system":"munimetro","routes":["M"],"colors":["#008547"]}},{"type":"Feature","geometry":{"type":"Point","coordinates":[-122.46698,37.71434]},"properties":{"name":"Randolph St & Arch St","stopId":"6172","system":"munimetro","routes":["M"],"colors":["#008547"]}},{"type":"Feature","geometry":{"type":"Point","coordinates":[-122.46339,37.71435]},"properties":{"name":"Randolph St & Bright St","stopId":"6174","system":"munimetro","routes":["M"],"colors":["#008547"]}},{"type":"Feature","geometry":{"type":"Point","coordinates":[-122.42818,37.76119]},"properties":{"name":"Right Of Way/18th St","stopId":"6213","system":"munimetro","routes":["J"],"colors":["#A96614"]}},{"type":"Feature","geometry":{"type":"Point","coordinates":[-122.42792,37.75826]},"properties":{"name":"Right Of Way/20th St","stopId":"6214","system":"munimetro","routes":["J"],"colors":["#A96614"]}},{"type":"Feature","geometry":{"type":"Point","coordinates":[-122.42692,37.75664]},"properties":{"name":"Right Of Way/21st St","stopId":"6216","system":"munimetro","routes":["J"],"colors":["#A96614"]}},{"type":"Feature","geometry":{"type":"Point","coordinates":[-122.47435,37.73119]},"properties":{"name":"Right Of Way/Eucalyptus Dr","stopId":"6219","system":"munimetro","routes":["M"],"colors":["#008547"]}},{"type":"Feature","geometry":{"type":"Point","coordinates":[-122.427,37.75745]},"properties":{"name":"Right Of Way/Liberty St","stopId":"6221","system":"munimetro","routes":["J"],"colors":["#A96614"]}},{"type":"Feature","geometry":{"type":"Point","coordinates":[-122.47372,37.73202]},"properties":{"name":"Right Of Way/Ocean Ave","stopId":"6223","system":"munimetro","routes":["M"],"colors":["#008547"]}},{"type":"Feature","geometry":{"type":"Point","coordinates":[-122.45215,37.71415]},"properties":{"name":"San Jose Ave & Farallones St","stopId":"6257","system":"munimetro","routes":["M"],"colors":["#008547"]}},{"type":"Feature","geometry":{"type":"Point","coordinates":[-122.4472,37.7201]},"properties":{"name":"San Jose Ave & Geneva Ave","stopId":"6262","system":"munimetro","routes":["M"],"colors":["#008547"]}},{"type":"Feature","geometry":{"type":"Point","coordinates":[-122.45037,37.71633]},"properties":{"name":"San Jose Ave & Lakeview Ave","stopId":"6265","system":"munimetro","routes":["M"],"colors":["#008547"]}},{"type":"Feature","geometry":{"type":"Point","coordinates":[-122.44765,37.71942]},"properties":{"name":"San Jose Ave & Niagra Ave","stopId":"6269","system":"munimetro","routes":["M"],"colors":["#008547"]}},{"type":"Feature","geometry":{"type":"Point","coordinates":[-122.4447,37.72308]},"properties":{"name":"San Jose Ave & Ocean Ave","stopId":"6274","system":"munimetro","routes":["J"],"colors":["#A96614"]}},{"type":"Feature","geometry":{"type":"Point","coordinates":[-122.42416,37.73974]},"properties":{"name":"San Jose Ave & Randall St","stopId":"6277","system":"munimetro","routes":["J"],"colors":["#A96614"]}},{"type":"Feature","geometry":{"type":"Point","coordinates":[-122.43992,37.72899]},"properties":{"name":"San Jose Ave & Santa Rosa Ave","stopId":"6284","system":"munimetro","routes":["J"],"colors":["#A96614"]}},{"type":"Feature","geometry":{"type":"Point","coordinates":[-122.44236,37.72588]},"properties":{"name":"San Jose Ave & Santa Ynez Ave","stopId":"6287","system":"munimetro","routes":["J"],"colors":["#A96614"]}},{"type":"Feature","geometry":{"type":"Point","coordinates":[-122.39715,37.79271]},"properties":{"name":"Metro Embarcadero Station","stopId":"7217","system":"munimetro","routes":["J","K","L","M","N"],"colors":["#A96614","#437C93","#942D83","#008547","#005B95"]}},{"type":"Feature","geometry":{"type":"Point","coordinates":[-122.50868,37.76035]},"properties":{"name":"Judah/La Playa/Ocean Beach","stopId":"7219","system":"munimetro","routes":["N"],"colors":["#005B95"]}},{"type":"Feature","geometry":{"type":"Point","coordinates":[-122.43356,37.76936]},"properties":{"name":"Duboce St/Noe St/Duboce Park","stopId":"7252","system":"munimetro","routes":["N"],"colors":["#005B95"]}},{"type":"Feature","geometry":{"type":"Point","coordinates":[-122.3992,37.79094]},"properties":{"name":"Market St & 1st St","stopId":"7264","system":"munimetro","routes":["F"],"colors":["#B49A36"]}},{"type":"Feature","geometry":{"type":"Point","coordinates":[-122.40323,37.80515]},"properties":{"name":"Embarcadero & Sansome St","stopId":"7281","system":"munimetro","routes":["F"],"colors":["#B49A36"]}},{"type":"Feature","geometry":{"type":"Point","coordinates":[-122.43351,37.76929]},"properties":{"name":"Sunset Tunnel East Portal","stopId":"7318","system":"munimetro","routes":["N"],"colors":["#005B95"]}},{"type":"Feature","geometry":{"type":"Point","coordinates":[-122.39578,37.7222]},"properties":{"name":"Third Street/Gilman/Paul","stopId":"7342","system":"munimetro","routes":["T"],"colors":["#BF2B45"]}},{"type":"Feature","geometry":{"type":"Point","coordinates":[-122.39422,37.72549]},"properties":{"name":"Third Street & Carroll Ave","stopId":"7343","system":"munimetro","routes":["T"],"colors":["#BF2B45"]}},{"type":"Feature","geometry":{"type":"Point","coordinates":[-122.3926,37.72929]},"properties":{"name":"Third Street & Williams Ave","stopId":"7345","system":"munimetro","routes":["T"],"colors":["#BF2B45"]}},{"type":"Feature","geometry":{"type":"Point","coordinates":[-122.38792,37.74273]},"properties":{"name":"Third Street & Evans Ave","stopId":"7352","system":"munimetro","routes":["T"],"colors":["#BF2B45"]}},{"type":"Feature","geometry":{"type":"Point","coordinates":[-122.38744,37.749]},"properties":{"name":"Third Street & Marin St","stopId":"7353","system":"munimetro","routes":["T"],"colors":["#BF2B45"]}},{"type":"Feature","geometry":{"type":"Point","coordinates":[-122.388,37.75541]},"properties":{"name":"Third Street & 23rd St","stopId":"7354","system":"munimetro","routes":["T"],"colors":["#BF2B45"]}},{"type":"Feature","geometry":{"type":"Point","coordinates":[-122.38856,37.76052]},"properties":{"name":"Third Street & 20th St","stopId":"7355","system":"munimetro","routes":["T"],"colors":["#BF2B45"]}},{"type":"Feature","geometry":{"type":"Point","coordinates":[-122.38885,37.76439]},"properties":{"name":"UCSF Medical Center (Mariposa)","stopId":"7356","system":"munimetro","routes":["T"],"colors":["#BF2B45"]}},{"type":"Feature","geometry":{"type":"Point","coordinates":[-122.38918,37.7685]},"properties":{"name":"UCSF / Chase Center (16th St)","stopId":"7357","system":"munimetro","routes":["T"],"colors":["#BF2B45"]}},{"type":"Feature","geometry":{"type":"Point","coordinates":[-122.38968,37.77298]},"properties":{"name":"Third Street & Mission Rock St","stopId":"7358","system":"munimetro","routes":["T"],"colors":["#BF2B45"]}},{"type":"Feature","geometry":{"type":"Point","coordinates":[-122.38937,37.76824]},"properties":{"name":"UCSF / Chase Center (16th Street)","stopId":"7360","system":"munimetro","routes":["T"],"colors":["#BF2B45"]}},{"type":"Feature","geometry":{"type":"Point","coordinates":[-122.38893,37.73993]},"properties":{"name":"Third Street/Hudson/Innes","stopId":"7390","system":"munimetro","routes":["T"],"colors":["#BF2B45"]}},{"type":"Feature","geometry":{"type":"Point","coordinates":[-122.38973,37.73765]},"properties":{"name":"Third Street/Kirkwood/La Salle","stopId":"7391","system":"munimetro","routes":["T"],"colors":["#BF2B45"]}},{"type":"Feature","geometry":{"type":"Point","coordinates":[-122.39089,37.73435]},"properties":{"name":"Third Street/Oakdale/Palou","stopId":"7392","system":"munimetro","routes":["T"],"colors":["#BF2B45"]}},{"type":"Feature","geometry":{"type":"Point","coordinates":[-122.3916,37.73229]},"properties":{"name":"Third Street/Revere/Shafter","stopId":"7393","system":"munimetro","routes":["T"],"colors":["#BF2B45"]}},{"type":"Feature","geometry":{"type":"Point","coordinates":[-122.3977,37.71864]},"properties":{"name":"Third Street & Le Conte Ave","stopId":"7394","system":"munimetro","routes":["T"],"colors":["#BF2B45"]}},{"type":"Feature","geometry":{"type":"Point","coordinates":[-122.40232,37.71225]},"properties":{"name":"Bayshore Blvd & Blanken Ave","stopId":"7395","system":"munimetro","routes":["T"],"colors":["#BF2B45"]}},{"type":"Feature","geometry":{"type":"Point","coordinates":[-122.40511,37.70897]},"properties":{"name":"Bayshore Blvd & Sunnydale Ave","stopId":"7396","system":"munimetro","routes":["T"],"colors":["#BF2B45"]}},{"type":"Feature","geometry":{"type":"Point","coordinates":[-122.39383,37.77613]},"properties":{"name":"4th St & King St","stopId":"7397","system":"munimetro","routes":["T"],"colors":["#BF2B45"]}},{"type":"Feature","geometry":{"type":"Point","coordinates":[-122.40234,37.71223]},"properties":{"name":"Bayshore Blvd & Areta Ave","stopId":"7399","system":"munimetro","routes":["T"],"colors":["#BF2B45"]}},{"type":"Feature","geometry":{"type":"Point","coordinates":[-122.47485,37.7272]},"properties":{"name":"19th Ave & Winston Dr","stopId":"7449","system":"munimetro","routes":["M"],"colors":["#008547"]}},{"type":"Feature","geometry":{"type":"Point","coordinates":[-122.50541,37.73699]},"properties":{"name":"47th Ave & Cutler Ave","stopId":"7869","system":"munimetro","routes":["L"],"colors":["#942D83"]}},{"type":"Feature","geometry":{"type":"Point","coordinates":[-122.39661,37.77834]},"properties":{"name":"4th & Brannan Southbound","stopId":"7872","system":"munimetro","routes":["T"],"colors":["#BF2B45"]}},{"type":"Feature","geometry":{"type":"Point","coordinates":[-122.40173,37.78238]},"properties":{"name":"Yerba Buena/Moscone Station Southbound","stopId":"7873","system":"munimetro","routes":["T"],"colors":["#BF2B45"]}},{"type":"Feature","geometry":{"type":"Point","coordinates":[-122.40652,37.78713]},"properties":{"name":"Union Square/Market St Station Southbound","stopId":"7874","system":"munimetro","routes":["T"],"colors":["#BF2B45"]}},{"type":"Feature","geometry":{"type":"Point","coordinates":[-122.40808,37.79481]},"properties":{"name":"Chinatown - Rose Pak Station","stopId":"7876","system":"munimetro","routes":["T"],"colors":["#BF2B45"]}},{"type":"Feature","geometry":{"type":"Point","coordinates":[-122.40648,37.78715]},"properties":{"name":"Union Square/Market St Station Northbound","stopId":"7877","system":"munimetro","routes":["T"],"colors":["#BF2B45"]}},{"type":"Feature","geometry":{"type":"Point","coordinates":[-122.40155,37.78236]},"properties":{"name":"Yerba Buena/Moscone Station Northbound","stopId":"7878","system":"munimetro","routes":["T"],"colors":["#BF2B45"]}},{"type":"Feature","geometry":{"type":"Point","coordinates":[-122.39659,37.7784]},"properties":{"name":"Fourth Street & Brannan Northbound","stopId":"7879","system":"munimetro","routes":["T"],"colors":["#BF2B45"]}},{"type":"Feature","geometry":{"type":"Point","coordinates":[-122.46543,37.76404]},"properties":{"name":"Irving St & 8th Ave","stopId":"7996","system":"munimetro","routes":["N"],"colors":["#005B95"]}},{"type":"Feature","geometry":{"type":"Point","coordinates":[-122.46634,37.76331]},"properties":{"name":"9th Ave & Irving St","stopId":"7999","system":"munimetro","routes":["N"],"colors":["#005B95"]}},{"type":"Feature","geometry":{"type":"Point","coordinates":[-122.46214,37.76418]},"properties":{"name":"Irving St & 5th Ave","stopId":"8031","system":"munimetro","routes":["N"],"colors":["#005B95"]}},{"type":"Feature","geometry":{"type":"Point","coordinates":[-122.46299,37.76424]},"properties":{"name":"Irving St & 6th Ave","stopId":"8032","system":"munimetro","routes":["N"],"colors":["#005B95"]}},{"type":"Feature","geometry":{"type":"Point","coordinates":[-122.42905,37.76729]},"properties":{"name":"Church St & Market St","stopId":"8059","system":"munimetro","routes":["J"],"colors":["#A96614"]}},{"type":"Feature","geometry":{"type":"Point","coordinates":[-122.46997,37.7415]},"properties":{"name":"Ulloa St & 14th Ave","stopId":"8136","system":"munimetro","routes":["L"],"colors":["#942D83"]}},{"type":"Feature","geometry":{"type":"Point","coordinates":[-122.42706,37.74842]},"properties":{"name":"Church St & 26th St","stopId":"8155","system":"munimetro","routes":["J"],"colors":["#A96614"]}},{"type":"Feature","geometry":{"type":"Point","coordinates":[-122.42674,37.74522]},"properties":{"name":"Church St & 28th St","stopId":"8157","system":"munimetro","routes":["J"],"colors":["#A96614"]}},{"type":"Feature","geometry":{"type":"Point","coordinates":[-122.41412,37.80741]},"properties":{"name":"Beach St & Mason St","stopId":"3092","system":"munimetro","routes":["F"],"colors":["#B49A36"]}},{"type":"Feature","geometry":{"type":"Point","coordinates":[-122.41081,37.80784]},"properties":{"name":"Beach St & Stockton St","stopId":"3095","system":"munimetro","routes":["F"],"colors":["#B49A36"]}},{"type":"Feature","geometry":{"type":"Point","coordinates":[-122.4713,37.74312]},"properties":{"name":"15th Ave & Taraval St","stopId":"3266","system":"munimetro","routes":["L"],"colors":["#942D83"]}},{"type":"Feature","geometry":{"type":"Point","coordinates":[-122.43498,37.76258]},"properties":{"name":"17th St & Castro St","stopId":"3311","system":"munimetro","routes":["F"],"colors":["#B49A36"]}},{"type":"Feature","geometry":{"type":"Point","coordinates":[-122.43299,37.76264]},"properties":{"name":"17th St & Noe St","stopId":"3318","system":"munimetro","routes":["F"],"colors":["#B49A36"]}},{"type":"Feature","geometry":{"type":"Point","coordinates":[-122.47525,37.72134]},"properties":{"name":"19th Ave & Holloway Ave","stopId":"3358","system":"munimetro","routes":["M"],"colors":["#008547"]}},{"type":"Feature","geometry":{"type":"Point","coordinates":[-122.47227,37.71689]},"properties":{"name":"19th Ave & Junipero Serra Blvd","stopId":"3361","system":"munimetro","routes":["M"],"colors":["#008547"]}},{"type":"Feature","geometry":{"type":"Point","coordinates":[-122.47167,37.7162]},"properties":{"name":"19th Ave & Randolph St","stopId":"3376","system":"munimetro","routes":["M"],"colors":["#008547"]}},{"type":"Feature","geometry":{"type":"Point","coordinates":[-122.42403,37.7423]},"properties":{"name":"30th St & Dolores St","stopId":"3537","system":"munimetro","routes":["J"],"colors":["#A96614"]}},{"type":"Feature","geometry":{"type":"Point","coordinates":[-122.50453,37.74168]},"properties":{"name":"46th Ave & Taraval St","stopId":"3599","system":"munimetro","routes":["L"],"colors":["#942D83"]}},{"type":"Feature","geometry":{"type":"Point","coordinates":[-122.50458,37.74]},"properties":{"name":"46th Ave & Ulloa St","stopId":"3600","system":"munimetro","routes":["L"],"colors":["#942D83"]}},{"type":"Feature","geometry":{"type":"Point","coordinates":[-122.50444,37.73814]},"properties":{"name":"46th Ave & Vicente St","stopId":"3602","system":"munimetro","routes":["L"],"colors":["#942D83"]}},{"type":"Feature","geometry":{"type":"Point","coordinates":[-122.45892,37.71319]},"properties":{"name":"Broad St & Capitol Ave","stopId":"3715","system":"munimetro","routes":["M"],"colors":["#008547"]}},{"type":"Feature","geometry":{"type":"Point","coordinates":[-122.46233,37.71318]},"properties":{"name":"Broad St & Orizaba Ave","stopId":"3717","system":"munimetro","routes":["M"],"colors":["#008547"]}},{"type":"Feature","geometry":{"type":"Point","coordinates":[-122.45593,37.71322]},"properties":{"name":"Broad St & Plymouth Ave","stopId":"3718","system":"munimetro","routes":["M"],"colors":["#008547"]}},{"type":"Feature","geometry":{"type":"Point","coordinates":[-122.39356,37.79398]},"properties":{"name":"Don Chee Way/Steuart St","stopId":"4726","system":"munimetro","routes":["F"],"colors":["#B49A36"]}},{"type":"Feature","geometry":{"type":"Point","coordinates":[-122.43342,37.73253]},"properties":{"name":"San Jose Ave/Glen Park Station","stopId":"4787","system":"munimetro","routes":["J"],"colors":["#A96614"]}},{"type":"Feature","geometry":{"type":"Point","coordinates":[-122.45864,37.76444]},"properties":{"name":"Irving St & 2nd Ave","stopId":"5118","system":"munimetro","routes":["N"],"colors":["#005B95"]}},{"type":"Feature","geometry":{"type":"Point","coordinates":[-122.45802,37.76437]},"properties":{"name":"Irving St & Arguello Blvd","stopId":"5124","system":"munimetro","routes":["N"],"colors":["#005B95"]}},{"type":"Feature","geometry":{"type":"Point","coordinates":[-122.41336,37.80859]},"properties":{"name":"Jefferson St & Powell St","stopId":"5174","system":"munimetro","routes":["F"],"colors":["#B49A36"]}},{"type":"Feature","geometry":{"type":"Point","coordinates":[-122.41551,37.80832]},"properties":{"name":"Jefferson St & Taylor St","stopId":"5175","system":"munimetro","routes":["F"],"colors":["#B49A36"]}},{"type":"Feature","geometry":{"type":"Point","coordinates":[-122.41732,37.80713]},"properties":{"name":"Jones St & Beach St","stopId":"5184","system":"munimetro","routes":["F"],"colors":["#B49A36"]}},{"type":"Feature","geometry":{"type":"Point","coordinates":[-122.46669,37.76223]},"properties":{"name":"Judah St & 9th Ave","stopId":"5193","system":"munimetro","routes":["N"],"colors":["#005B95"]}},{"type":"Feature","geometry":{"type":"Point","coordinates":[-122.46932,37.76207]},"properties":{"name":"Judah St & 12th Ave","stopId":"5195","system":"munimetro","routes":["N"],"colors":["#005B95"]}},{"type":"Feature","geometry":{"type":"Point","coordinates":[-122.47278,37.76185]},"properties":{"name":"Judah St & 15th Ave","stopId":"5197","system":"munimetro","routes":["N"],"colors":["#005B95"]}},{"type":"Feature","geometry":{"type":"Point","coordinates":[-122.47363,37.76194]},"properties":{"name":"Judah St & 16th Ave","stopId":"5198","system":"munimetro","routes":["N"],"colors":["#005B95"]}},{"type":"Feature","geometry":{"type":"Point","coordinates":[-122.47692,37.76174]},"properties":{"name":"Judah St & 19th Ave","stopId":"5199","system":"munimetro","routes":["N"],"colors":["#005B95"]}},{"type":"Feature","geometry":{"type":"Point","coordinates":[-122.47986,37.76153]},"properties":{"name":"Judah St & 22nd Ave","stopId":"5201","system":"munimetro","routes":["N"],"colors":["#005B95"]}},{"type":"Feature","geometry":{"type":"Point","coordinates":[-122.48116,37.76155]},"properties":{"name":"Judah St & 23rd Ave","stopId":"5202","system":"munimetro","routes":["N"],"colors":["#005B95"]}},{"type":"Feature","geometry":{"type":"Point","coordinates":[-122.4833,37.76145]},"properties":{"name":"Judah St & 25th Ave","stopId":"5203","system":"munimetro","routes":["N"],"colors":["#005B95"]}},{"type":"Feature","geometry":{"type":"Point","coordinates":[-122.48651,37.76131]},"properties":{"name":"Judah St & 28th Ave","stopId":"5205","system":"munimetro","routes":["N"],"colors":["#005B95"]}},{"type":"Feature","geometry":{"type":"Point","coordinates":[-122.48972,37.76117]},"properties":{"name":"Judah St & 31st Ave","stopId":"5207","system":"munimetro","routes":["N"],"colors":["#005B95"]}},{"type":"Feature","geometry":{"type":"Point","coordinates":[-122.49293,37.76103]},"properties":{"name":"Judah St & 34th Ave","stopId":"5209","system":"munimetro","routes":["N"],"colors":["#005B95"]}},{"type":"Feature","geometry":{"type":"Point","coordinates":[-122.49936,37.76074]},"properties":{"name":"Judah St & 40th Ave","stopId":"5211","system":"munimetro","routes":["N"],"colors":["#005B95"]}},{"type":"Feature","geometry":{"type":"Point","coordinates":[-122.50257,37.7606]},"properties":{"name":"Judah St & 43rd Ave","stopId":"5213","system":"munimetro","routes":["N"],"colors":["#005B95"]}},{"type":"Feature","geometry":{"type":"Point","coordinates":[-122.50583,37.76049]},"properties":{"name":"Judah St & 46th Ave","stopId":"5215","system":"munimetro","routes":["N"],"colors":["#005B95"]}},{"type":"Feature","geometry":{"type":"Point","coordinates":[-122.47033,37.76208]},"properties":{"name":"Judah St & Funston Ave","stopId":"5219","system":"munimetro","routes":["N"],"colors":["#005B95"]}},{"type":"Feature","geometry":{"type":"Point","coordinates":[-122.49567,37.76092]},"properties":{"name":"Judah St & Sunset Blvd","stopId":"5224","system":"munimetro","routes":["N"],"colors":["#005B95"]}},{"type":"Feature","geometry":{"type":"Point","coordinates":[-122.38987,37.77972]},"properties":{"name":"King St & 2nd St","stopId":"5234","system":"munimetro","routes":["N"],"colors":["#005B95"]}},{"type":"Feature","geometry":{"type":"Point","coordinates":[-122.39417,37.77627]},"properties":{"name":"King St & 4th St","stopId":"5239","system":"munimetro","routes":["N"],"colors":["#005B95"]}},{"type":"Feature","geometry":{"type":"Point","coordinates":[-122.40709,37.78465]},"properties":{"name":"Metro Powell Station/Downtown","stopId":"5417","system":"munimetro","routes":["J","K","L","M","N"],"colors":["#A96614","#437C93","#942D83","#008547","#005B95"]}},{"type":"Feature","geometry":{"type":"Point","coordinates":[-122.44742,37.72181]},"properties":{"name":"Balboa Park BART/Mezzanine Level","stopId":"5418","system":"munimetro","routes":["J","K","M"],"colors":["#A96614","#437C93","#008547"]}},{"type":"Feature","geometry":{"type":"Point","coordinates":[-122.41925,37.77513]},"properties":{"name":"Metro Van Ness Station","stopId":"5419","system":"munimetro","routes":["J","K","L","M","N"],"colors":["#A96614","#437C93","#942D83","#008547","#005B95"]}},{"type":"Feature","geometry":{"type":"Point","coordinates":[-122.47162,37.73481]},"properties":{"name":"West Portal/Sloat/St Francis Circle","stopId":"6503","system":"munimetro","routes":["K","M"],"colors":["#437C93","#008547"]}},{"type":"Feature","geometry":{"type":"Point","coordinates":[-122.47331,37.74313]},"properties":{"name":"Taraval St & 17th Ave","stopId":"6615","system":"munimetro","routes":["L"],"colors":["#942D83"]}},{"type":"Feature","geometry":{"type":"Point","coordinates":[-122.47544,37.74311]},"properties":{"name":"Taraval St & 19th Ave","stopId":"6616","system":"munimetro","routes":["L"],"colors":["#942D83"]}},{"type":"Feature","geometry":{"type":"Point","coordinates":[-122.47843,37.74289]},"properties":{"name":"Taraval St & 22nd Ave","stopId":"6619","system":"munimetro","routes":["L"],"colors":["#942D83"]}},{"type":"Feature","geometry":{"type":"Point","coordinates":[-122.48045,37.74287]},"properties":{"name":"Taraval St & 23rd Ave","stopId":"6620","system":"munimetro","routes":["L"],"colors":["#942D83"]}},{"type":"Feature","geometry":{"type":"Point","coordinates":[-122.48308,37.74278]},"properties":{"name":"Taraval St & 26th Ave","stopId":"6622","system":"munimetro","routes":["L"],"colors":["#942D83"]}},{"type":"Feature","geometry":{"type":"Point","coordinates":[-122.48734,37.74259]},"properties":{"name":"Taraval St & 30th Ave","stopId":"6626","system":"munimetro","routes":["L"],"colors":["#942D83"]}},{"type":"Feature","geometry":{"type":"Point","coordinates":[-122.4895,37.74249]},"properties":{"name":"Taraval St & 32nd Ave","stopId":"6628","system":"munimetro","routes":["L"],"colors":["#942D83"]}},{"type":"Feature","geometry":{"type":"Point","coordinates":[-122.49805,37.74212]},"properties":{"name":"Taraval St & 40th Ave","stopId":"6632","system":"munimetro","routes":["L"],"colors":["#942D83"]}},{"type":"Feature","geometry":{"type":"Point","coordinates":[-122.5002,37.74202]},"properties":{"name":"Taraval St & 42nd Ave","stopId":"6634","system":"munimetro","routes":["L"],"colors":["#942D83"]}},{"type":"Feature","geometry":{"type":"Point","coordinates":[-122.50235,37.74192]},"properties":{"name":"Taraval St & 44th Ave","stopId":"6636","system":"munimetro","routes":["L"],"colors":["#942D83"]}},{"type":"Feature","geometry":{"type":"Point","coordinates":[-122.50449,37.74182]},"properties":{"name":"Taraval St & 46th Ave","stopId":"6638","system":"munimetro","routes":["L"],"colors":["#942D83"]}},{"type":"Feature","geometry":{"type":"Point","coordinates":[-122.49436,37.74229]},"properties":{"name":"Taraval St & Sunset Blvd","stopId":"6640","system":"munimetro","routes":["L"],"colors":["#942D83"]}},{"type":"Feature","geometry":{"type":"Point","coordinates":[-122.46616,37.74112]},"properties":{"name":"Ulloa St & Lenox Way","stopId":"6738","system":"munimetro","routes":["L","M"],"colors":["#942D83","#008547"]}},{"type":"Feature","geometry":{"type":"Point","coordinates":[-122.46553,37.74139]},"properties":{"name":"West Portal Station","stopId":"6739","system":"munimetro","routes":["K","L","M"],"colors":["#437C93","#942D83","#008547"]}},{"type":"Feature","geometry":{"type":"Point","coordinates":[-122.46617,37.74101]},"properties":{"name":"Ulloa St & West Portal Ave","stopId":"6744","system":"munimetro","routes":["L","M"],"colors":["#942D83","#008547"]}},{"type":"Feature","geometry":{"type":"Point","coordinates":[-122.46904,37.73786]},"properties":{"name":"West Portal Ave & 14th Ave","stopId":"6898","system":"munimetro","routes":["K","M"],"colors":["#437C93","#008547"]}},{"type":"Feature","geometry":{"type":"Point","coordinates":[-122.50435,37.73613]},"properties":{"name":"Wawona/46th Ave /SF Zoo","stopId":"6932","system":"munimetro","routes":["L"],"colors":["#942D83"]}},{"type":"Feature","geometry":{"type":"Point","coordinates":[-122.43529,37.76268]},"properties":{"name":"Metro Castro Station/Outbound","stopId":"6991","system":"munimetro","routes":["K","L","M"],"colors":["#437C93","#942D83","#008547"]}},{"type":"Feature","geometry":{"type":"Point","coordinates":[-122.45919,37.74817]},"properties":{"name":"Forest Hill Station Outbound","stopId":"6993","system":"munimetro","routes":["K","L","M"],"colors":["#437C93","#942D83","#008547"]}},{"type":"Feature","geometry":{"type":"Point","coordinates":[-122.40213,37.78879]},"properties":{"name":"Metro Montgomery Station/Outbound","stopId":"6994","system":"munimetro","routes":["J","K","L","M","N"],"colors":["#A96614","#437C93","#942D83","#008547","#005B95"]}},{"type":"Feature","geometry":{"type":"Point","coordinates":[-122.40782,37.7843]},"properties":{"name":"Metro Powell Station/Outbound","stopId":"6995","system":"munimetro","routes":["J","K","L","M","N"],"colors":["#A96614","#437C93","#942D83","#008547","#005B95"]}},{"type":"Feature","geometry":{"type":"Point","coordinates":[-122.41934,37.77523]},"properties":{"name":"Van Ness Station Outbound","stopId":"6996","system":"munimetro","routes":["J","K","L","M","N"],"colors":["#A96614","#437C93","#942D83","#008547","#005B95"]}},{"type":"Feature","geometry":{"type":"Point","coordinates":[-122.41422,37.77924]},"properties":{"name":"Metro Civic Center Station/Outbd","stopId":"6997","system":"munimetro","routes":["J","K","L","M","N"],"colors":["#A96614","#437C93","#942D83","#008547","#005B95"]}},{"type":"Feature","geometry":{"type":"Point","coordinates":[-122.42932,37.76733]},"properties":{"name":"Metro Church Station/Outbound","stopId":"6998","system":"munimetro","routes":["K","L","M"],"colors":["#437C93","#942D83","#008547"]}},{"type":"Feature","geometry":{"type":"Point","coordinates":[-122.47171,37.73163]},"properties":{"name":"Junipero Serra Blvd & Ocean Ave","stopId":"7113","system":"munimetro","routes":["K"],"colors":["#437C93"]}}]}