{"type":"FeatureCollection","features":[{"type":"Feature","geometry":{"type":"LineString","coordinates":[[-122.40512,37.70886],[-122.40474,37.70965],[-122.40424,37.71041],[-122.40366,37.71119],[-122.40322,37.71179],[-122.40302,37.71197],[-122.4028,37.7121],[-122.40247,37.71218],[-122.40233,37.71223],[-122.40234,37.71223],[-122.40214,37.7123],[-122.40165,37.71241],[-122.40129,37.71255],[-122.40093,37.7128],[-122.40077,37.71296],[-122.40067,37.71306],[-122.40009,37.71361],[-122.39983,37.71389],[-122.39937,37.71437],[-122.399,37.71534],[-122.39885,37.71546],[-122.39849,37.71599],[-122.39831,37.71631],[-122.39824,37.71663],[-122.39825,37.71747],[-122.39818,37.71779],[-122.39799,37.71818],[-122.39751,37.71873],[-122.3975,37.71882],[-122.39749,37.71884],[-122.39697,37.71948],[-122.39663,37.72024],[-122.3964,37.72072],[-122.39629,37.72099],[-122.39596,37.72172],[-122.39564,37.72244],[-122.39563,37.72244],[-122.3955,37.72274],[-122.39528,37.72323],[-122.39494,37.72398],[-122.3946,37.72473],[-122.39426,37.72548],[-122.39426,37.72548],[-122.39392,37.72624],[-122.39358,37.72698],[-122.39324,37.72774],[-122.39291,37.72849],[-122.39278,37.72888],[-122.39263,37.72928],[-122.39263,37.72928],[-122.39235,37.73007],[-122.39215,37.73065],[-122.39207,37.73086],[-122.3918,37.73165],[-122.39158,37.73229],[-122.39152,37.73244],[-122.39125,37.73323],[-122.39096,37.73402],[-122.39085,37.73437],[-122.39069,37.7348],[-122.39041,37.7356],[-122.39013,37.73639],[-122.38985,37.73716],[-122.38969,37.73764],[-122.38957,37.73795],[-122.38928,37.73874],[-122.38918,37.73902],[-122.389,37.73953],[-122.38887,37.73991],[-122.38872,37.74031],[-122.38844,37.7411],[-122.38815,37.74188],[-122.38788,37.7427],[-122.38788,37.74273],[-122.38757,37.74352],[-122.3874,37.7441],[-122.3873,37.74424],[-122.38706,37.74506],[-122.3871,37.74616],[-122.38739,37.74902],[-122.38737,37.74902],[-122.3875,37.75027],[-122.38754,37.75156],[-122.38766,37.75285],[-122.38778,37.75413],[-122.3879,37.75541],[-122.38789,37.75541],[-122.3882,37.75795],[-122.38844,37.76051],[-122.38845,37.76054],[-122.38856,37.76178],[-122.38861,37.76306],[-122.38872,37.76434],[-122.38874,37.76441],[-122.38897,37.76692],[-122.38906,37.76789],[-122.38914,37.76852],[-122.38916,37.76884],[-122.38925,37.76978],[-122.38933,37.77067],[-122.38937,37.77113],[-122.38946,37.77201],[-122.38955,37.77295],[-122.38958,37.77298],[-122.38972,37.77457],[-122.38976,37.77466],[-122.38991,37.77472],[-122.39147,37.77462],[-122.39151,37.77461],[-122.39159,37.77464],[-122.39183,37.77474],[-122.39184,37.77475],[-122.39228,37.77509],[-122.39329,37.77585],[-122.39386,37.77628],[-122.39398,37.77639],[-122.39492,37.77714],[-122.3957,37.77775],[-122.39648,37.77838],[-122.39656,37.77842],[-122.39702,37.7788],[-122.3975,37.77918],[-122.39803,37.7796],[-122.39857,37.78001],[-122.39906,37.7804],[-122.3996,37.78082],[-122.40014,37.78124],[-122.40061,37.78161],[-122.40115,37.78204],[-122.40156,37.78234],[-122.4017,37.78247],[-122.40272,37.78326],[-122.40372,37.78405],[-122.40428,37.78448],[-122.40482,37.78491],[-122.40526,37.78526],[-122.40585,37.78574],[-122.40626,37.78575],[-122.40643,37.78662],[-122.40654,37.78713],[-122.40663,37.78757],[-122.40673,37.78804],[-122.40681,37.7885],[-122.40691,37.78899],[-122.407,37.78944],[-122.4072,37.79037],[-122.40739,37.7913],[-122.40759,37.79224],[-122.40778,37.79317],[-122.40796,37.79406],[-122.40813,37.79493]]},"properties":{"routeId":"T","name":"T-THIRD","shortName":"T","color":"#BF2B45","textColor":"#FFFFFF","system":"munimetro"}},{"type":"Feature","geometry":{"type":"LineString","coordinates":[[-122.44734,37.72202],[-122.44734,37.7221],[-122.44734,37.72219],[-122.44734,37.72229],[-122.44733,37.72243],[-122.44731,37.72272],[-122.44729,37.72283],[-122.44716,37.72291],[-122.44696,37.72295],[-122.44476,37.72295],[-122.44467,37.72307],[-122.44306,37.72498],[-122.44238,37.72579],[-122.44233,37.72587],[-122.44157,37.72675],[-122.44143,37.72694],[-122.4411,37.72744],[-122.44075,37.72795],[-122.4406,37.72818],[-122.44043,37.72843],[-122.44015,37.72885],[-122.44006,37.72892],[-122.44,37.72897],[-122.43955,37.72923],[-122.43899,37.72958],[-122.43886,37.72966],[-122.43846,37.72991],[-122.43816,37.73013],[-122.43801,37.73017],[-122.43785,37.73023],[-122.4375,37.73025],[-122.43655,37.73044],[-122.43644,37.73047],[-122.43626,37.73052],[-122.43597,37.73061],[-122.43576,37.73071],[-122.43554,37.7309],[-122.43546,37.73109],[-122.43537,37.73122],[-122.43526,37.73138],[-122.43517,37.73151],[-122.43508,37.73161],[-122.43491,37.73177],[-122.43467,37.73195],[-122.43435,37.73212],[-122.43384,37.73238],[-122.43258,37.733],[-122.43045,37.73402],[-122.42972,37.73438],[-122.42931,37.73459],[-122.42851,37.73503],[-122.42661,37.73637],[-122.42552,37.73729],[-122.42528,37.73755],[-122.42502,37.73782],[-122.42463,37.73841],[-122.42439,37.73899],[-122.42432,37.73931],[-122.42431,37.73938],[-122.42426,37.73949],[-122.42424,37.73963],[-122.42418,37.7398],[-122.42416,37.73987],[-122.4233,37.7423],[-122.42425,37.74224],[-122.42448,37.74224],[-122.42583,37.74215],[-122.42653,37.7421],[-122.42661,37.74283],[-122.42661,37.7429],[-122.42668,37.7437],[-122.42676,37.7445],[-122.42683,37.7453],[-122.42685,37.74542],[-122.4269,37.7461],[-122.42694,37.7465],[-122.42698,37.7469],[-122.42706,37.7477],[-122.42714,37.7485],[-122.42716,37.74862],[-122.42721,37.7493],[-122.42729,37.7501],[-122.42737,37.7509],[-122.42745,37.75171],[-122.42746,37.75182],[-122.42752,37.75245],[-122.4276,37.7533],[-122.42773,37.75462],[-122.42775,37.7549],[-122.42767,37.75496],[-122.42758,37.75504],[-122.42747,37.75515],[-122.42733,37.75531],[-122.42731,37.75541],[-122.42729,37.75548],[-122.42733,37.75589],[-122.42731,37.75596],[-122.42728,37.75604],[-122.42722,37.75612],[-122.42707,37.75623],[-122.42697,37.75634],[-122.42692,37.75643],[-122.4269,37.75656],[-122.42691,37.75667],[-122.42694,37.75706],[-122.42697,37.75736],[-122.42698,37.75746],[-122.42699,37.75746],[-122.42699,37.7575],[-122.42704,37.75755],[-122.42707,37.7576],[-122.42715,37.75764],[-122.42721,37.75765],[-122.42726,37.75767],[-122.42745,37.75766],[-122.42758,37.75768],[-122.42767,37.7577],[-122.42775,37.75773],[-122.42781,37.75777],[-122.42786,37.75782],[-122.42788,37.75785],[-122.42792,37.75791],[-122.42794,37.75799],[-122.42797,37.7581],[-122.42798,37.75828],[-122.42801,37.75894],[-122.42807,37.75942],[-122.4281,37.7596],[-122.42812,37.7597],[-122.42819,37.7603],[-122.42822,37.76061],[-122.42826,37.76072],[-122.42838,37.76105],[-122.42855,37.76124],[-122.42859,37.76148],[-122.42865,37.76208],[-122.42875,37.76288],[-122.42883,37.76357],[-122.42893,37.76449],[-122.42897,37.76462],[-122.42911,37.76611],[-122.42925,37.76728],[-122.42927,37.7675],[-122.42931,37.76771],[-122.42941,37.76866],[-122.4295,37.76948],[-122.42902,37.76969],[-122.42674,37.76984],[-122.42658,37.76985],[-122.42515,37.77098],[-122.4243,37.77168],[-122.42399,37.77194],[-122.42373,37.77215],[-122.42296,37.77277],[-122.42252,37.77313],[-122.4223,37.77332],[-122.42166,37.77384],[-122.42138,37.77407],[-122.42108,37.77431],[-122.42065,37.77466],[-122.41966,37.77546],[-122.41965,37.77547],[-122.4191,37.77591],[-122.41792,37.77687],[-122.41672,37.77783],[-122.41636,37.77813],[-122.41517,37.77906],[-122.41461,37.77952],[-122.41296,37.78082],[-122.41243,37.78126],[-122.41208,37.78154],[-122.41074,37.78259],[-122.40941,37.78365],[-122.40853,37.78436],[-122.40822,37.78459],[-122.4063,37.78611],[-122.40506,37.7871],[-122.40391,37.78801],[-122.40339,37.78846],[-122.40254,37.78911],[-122.40255,37.7891],[-122.40186,37.78964],[-122.40055,37.79069],[-122.39996,37.79113],[-122.39964,37.79139],[-122.39876,37.7921],[-122.39788,37.79279],[-122.39758,37.79302],[-122.397,37.79348],[-122.3968,37.79365],[-122.39611,37.79417],[-122.39566,37.79453],[-122.3956,37.79458],[-122.39557,37.7946],[-122.39549,37.79465],[-122.39541,37.7947],[-122.39544,37.79468],[-122.39541,37.7947],[-122.39535,37.79474],[-122.39527,37.79478],[-122.39535,37.79474],[-122.39522,37.79481],[-122.39509,37.79485],[-122.39542,37.79467],[-122.39524,37.79481],[-122.39507,37.79488],[-122.39503,37.79489],[-122.39503,37.79489],[-122.39501,37.79491],[-122.39494,37.79493],[-122.3949,37.79494],[-122.3948,37.79497],[-122.3946,37.79499],[-122.39481,37.79497],[-122.39479,37.79498],[-122.39454,37.79501],[-122.39475,37.79499],[-122.39473,37.795],[-122.39448,37.79503],[-122.39446,37.79503],[-122.39443,37.79503],[-122.39442,37.79504],[-122.39441,37.79504],[-122.39454,37.79503],[-122.39451,37.79504],[-122.39432,37.79505],[-122.39429,37.79506],[-122.39412,37.79505],[-122.39408,37.79504],[-122.39419,37.79505],[-122.39418,37.79505],[-122.39416,37.79505],[-122.39399,37.79504],[-122.39385,37.79501],[-122.39385,37.79502],[-122.39404,37.79504],[-122.39382,37.79502],[-122.39372,37.79499],[-122.39381,37.79501],[-122.39368,37.79499],[-122.3936,37.79496],[-122.39369,37.79499],[-122.3935,37.79493],[-122.39348,37.79492],[-122.39357,37.79494],[-122.39337,37.79488],[-122.39343,37.79489],[-122.39341,37.79489],[-122.39324,37.79481],[-122.39332,37.79484],[-122.39342,37.79488],[-122.39314,37.79477],[-122.39313,37.79475],[-122.39311,37.79474],[-122.39297,37.79467],[-122.39294,37.79465],[-122.39214,37.79419],[-122.39169,37.79391],[-122.39116,37.7935]]},"properties":{"routeId":"J","name":"J-CHURCH","shortName":"J","color":"#A96614","textColor":"#FFFFFF","system":"munimetro"}},{"type":"Feature","geometry":{"type":"LineString","coordinates":[[-122.44626,37.72128],[-122.44517,37.72268],[-122.44523,37.72288],[-122.44547,37.72293],[-122.44715,37.7229],[-122.44728,37.72297],[-122.44917,37.72297],[-122.44957,37.72298],[-122.45145,37.72301],[-122.45161,37.72301],[-122.45204,37.72302],[-122.45234,37.72309],[-122.45312,37.72326],[-122.45399,37.72345],[-122.45413,37.72347],[-122.45515,37.72369],[-122.45616,37.7239],[-122.45653,37.72398],[-122.45718,37.72412],[-122.45735,37.72415],[-122.45809,37.72432],[-122.4582,37.72433],[-122.45923,37.72455],[-122.45997,37.7247],[-122.46024,37.72476],[-122.46106,37.72494],[-122.46121,37.72496],[-122.46222,37.72529],[-122.46282,37.72551],[-122.46385,37.72589],[-122.46408,37.72599],[-122.46422,37.72603],[-122.46457,37.72616],[-122.46532,37.72643],[-122.46567,37.72658],[-122.46607,37.72681],[-122.46667,37.72726],[-122.46732,37.7278],[-122.46749,37.72805],[-122.46762,37.72825],[-122.46772,37.72834],[-122.46806,37.72899],[-122.46819,37.72925],[-122.46859,37.72962],[-122.4689,37.72986],[-122.4691,37.72994],[-122.46933,37.73001],[-122.4701,37.73034],[-122.47178,37.73106],[-122.47172,37.73165],[-122.47154,37.73471],[-122.47145,37.73485],[-122.47137,37.735],[-122.47104,37.7356],[-122.47055,37.73657],[-122.46989,37.7372],[-122.46908,37.73791],[-122.46904,37.73795],[-122.46697,37.73971],[-122.46581,37.74088],[-122.46563,37.74105],[-122.46523,37.74154],[-122.46401,37.74303],[-122.46383,37.74326],[-122.46364,37.74349],[-122.46345,37.74372],[-122.46288,37.74441],[-122.4627,37.74464],[-122.46231,37.74511],[-122.46221,37.74523],[-122.46202,37.74545],[-122.46192,37.74555],[-122.46172,37.74577],[-122.46151,37.74599],[-122.46129,37.74621],[-122.46107,37.74642],[-122.46084,37.74663],[-122.46061,37.74683],[-122.46045,37.74698],[-122.46015,37.74723],[-122.4599,37.74743],[-122.45966,37.74762],[-122.45864,37.74839],[-122.4584,37.74856],[-122.45422,37.75144],[-122.44795,37.75576],[-122.44707,37.75636],[-122.4469,37.75647],[-122.44664,37.75666],[-122.44655,37.75673],[-122.44639,37.75684],[-122.44613,37.75702],[-122.44586,37.7572],[-122.4456,37.75738],[-122.44534,37.75756],[-122.44508,37.75774],[-122.44482,37.75792],[-122.44456,37.7581],[-122.44429,37.75828],[-122.44403,37.75846],[-122.44388,37.75856],[-122.44377,37.75864],[-122.44351,37.75882],[-122.44325,37.759],[-122.44299,37.75918],[-122.4422,37.75972],[-122.44178,37.76001],[-122.44142,37.76026],[-122.44116,37.76044],[-122.44099,37.76056],[-122.4409,37.76062],[-122.44085,37.76066],[-122.44073,37.76074],[-122.4406,37.76084],[-122.44048,37.76091],[-122.44038,37.76098],[-122.44032,37.76102],[-122.44019,37.76111],[-122.44011,37.76116],[-122.44006,37.76118],[-122.43999,37.76122],[-122.43993,37.76125],[-122.43986,37.76129],[-122.43979,37.76132],[-122.43977,37.76134],[-122.43971,37.76137],[-122.43967,37.76139],[-122.43964,37.76139],[-122.43961,37.76141],[-122.43958,37.76142],[-122.43954,37.76144],[-122.43951,37.76145],[-122.43946,37.76147],[-122.4394,37.76149],[-122.43935,37.76151],[-122.43931,37.76153],[-122.43927,37.76154],[-122.43921,37.76156],[-122.43913,37.76158],[-122.43905,37.7616],[-122.43897,37.76162],[-122.43889,37.76164],[-122.4388,37.76166],[-122.43863,37.76169],[-122.43844,37.76173],[-122.43768,37.76186],[-122.43737,37.76191],[-122.43709,37.76196],[-122.43703,37.76197],[-122.43696,37.76199],[-122.4368,37.76202],[-122.43661,37.76208],[-122.43645,37.76211],[-122.43618,37.76221],[-122.43591,37.76233],[-122.43573,37.76241],[-122.43548,37.76254],[-122.43529,37.76268],[-122.43521,37.76269],[-122.43497,37.76286],[-122.43458,37.76315],[-122.43335,37.76405],[-122.4331,37.7642],[-122.43104,37.76587],[-122.43084,37.76602],[-122.42927,37.76728],[-122.42895,37.7675],[-122.42866,37.76773],[-122.42735,37.76877],[-122.42693,37.76909],[-122.4263,37.76959],[-122.42483,37.77073],[-122.42397,37.77141],[-122.42364,37.77166],[-122.42337,37.77186],[-122.42258,37.77247],[-122.42213,37.77282],[-122.42189,37.77299],[-122.42124,37.77351],[-122.42095,37.77373],[-122.42064,37.77395],[-122.42019,37.7743],[-122.41921,37.77506],[-122.41918,37.77508],[-122.41861,37.77552],[-122.41741,37.77647],[-122.4162,37.77742],[-122.41584,37.77772],[-122.41464,37.77863],[-122.41333,37.77967],[-122.41241,37.78039],[-122.41187,37.78082],[-122.41152,37.78109],[-122.41017,37.78214],[-122.40883,37.78319],[-122.40795,37.7839],[-122.40705,37.78459],[-122.4057,37.78564],[-122.40446,37.78663],[-122.4033,37.78754],[-122.40278,37.78798],[-122.40194,37.78861],[-122.40128,37.78912],[-122.40124,37.78916],[-122.39993,37.79019],[-122.39934,37.79063],[-122.39901,37.7909],[-122.39813,37.7916],[-122.39725,37.79229],[-122.39637,37.79298],[-122.39632,37.79302],[-122.39617,37.79314],[-122.39548,37.79366],[-122.39502,37.79403],[-122.39501,37.79403],[-122.39497,37.79407],[-122.39496,37.79408],[-122.39493,37.79409],[-122.3949,37.79411],[-122.39487,37.79413],[-122.39486,37.79414],[-122.39486,37.79414],[-122.3948,37.79417],[-122.39481,37.79417],[-122.39481,37.79417],[-122.39471,37.79423],[-122.39475,37.79421],[-122.39476,37.7942],[-122.39472,37.79422],[-122.39468,37.79423],[-122.39465,37.79424],[-122.39463,37.79425],[-122.39459,37.79427],[-122.39458,37.79428],[-122.3946,37.79428],[-122.39453,37.79428],[-122.39451,37.7943],[-122.39454,37.79429],[-122.39448,37.7943],[-122.39446,37.79432],[-122.39448,37.79431],[-122.39446,37.79432],[-122.39443,37.79432],[-122.39442,37.79432],[-122.39441,37.79432],[-122.39436,37.79433],[-122.39433,37.79434],[-122.39432,37.79434],[-122.39429,37.79435],[-122.39428,37.79435],[-122.39424,37.79434],[-122.39419,37.79434],[-122.39418,37.79435],[-122.39416,37.79435],[-122.39415,37.79435],[-122.39411,37.79435],[-122.39407,37.79434],[-122.39404,37.79434],[-122.39404,37.79434],[-122.39401,37.79434],[-122.39396,37.79433],[-122.39394,37.79433],[-122.39393,37.79433],[-122.3939,37.79433],[-122.39388,37.79433],[-122.39386,37.79432],[-122.39382,37.79431],[-122.39382,37.79432],[-122.3938,37.79431],[-122.39376,37.7943],[-122.39372,37.79429],[-122.39369,37.79427],[-122.39366,37.79427],[-122.39364,37.79427],[-122.39358,37.79423],[-122.39351,37.7942],[-122.39344,37.79418],[-122.3934,37.79415],[-122.3926,37.79371],[-122.3922,37.79346],[-122.39168,37.79307],[-122.39144,37.79289],[-122.39127,37.79277],[-122.39114,37.79266],[-122.39105,37.7926],[-122.39102,37.79257],[-122.391,37.79255],[-122.39094,37.79251],[-122.39087,37.79242],[-122.3908,37.79232],[-122.39076,37.79226],[-122.39068,37.79214],[-122.39061,37.79195],[-122.39049,37.79166],[-122.39046,37.79159],[-122.39044,37.79153],[-122.39037,37.79141],[-122.39031,37.79131],[-122.39025,37.79123],[-122.39021,37.79118],[-122.39017,37.79114],[-122.39013,37.7911],[-122.39011,37.79107],[-122.38992,37.79091],[-122.3898,37.79081],[-122.38941,37.79048]]},"properties":{"routeId":"K","name":"K-INGLESIDE","shortName":"K","color":"#437C93","textColor":"#FFFFFF","system":"munimetro"}},{"type":"Feature","geometry":{"type":"LineString","coordinates":[[-122.50537,37.73699],[-122.50538,37.73707],[-122.50544,37.73801],[-122.50437,37.73806],[-122.50437,37.73815],[-122.5045,37.73991],[-122.5045,37.74001],[-122.50463,37.74177],[-122.50447,37.74178],[-122.50356,37.74182],[-122.50249,37.74187],[-122.50231,37.74188],[-122.50142,37.74191],[-122.50034,37.74196],[-122.50017,37.74197],[-122.49927,37.74201],[-122.4982,37.74206],[-122.49803,37.74207],[-122.49713,37.74211],[-122.49606,37.74216],[-122.49499,37.7422],[-122.49446,37.74223],[-122.49433,37.74224],[-122.49392,37.74225],[-122.49285,37.7423],[-122.49178,37.74234],[-122.49071,37.74239],[-122.48963,37.74243],[-122.48948,37.74245],[-122.48856,37.74248],[-122.48749,37.74253],[-122.4873,37.74254],[-122.48642,37.74256],[-122.48535,37.74261],[-122.48428,37.74266],[-122.4832,37.74271],[-122.48305,37.74272],[-122.48213,37.74274],[-122.48106,37.74279],[-122.48042,37.74282],[-122.47999,37.74283],[-122.47892,37.74287],[-122.47785,37.74291],[-122.47678,37.74296],[-122.47566,37.74301],[-122.47541,37.74302],[-122.47464,37.74304],[-122.47356,37.74308],[-122.47248,37.74312],[-122.47138,37.74317],[-122.47146,37.74312],[-122.47134,37.74134],[-122.47011,37.74133],[-122.46993,37.74134],[-122.46903,37.74137],[-122.46867,37.74137],[-122.46857,37.74138],[-122.46777,37.74137],[-122.46765,37.74137],[-122.46752,37.74135],[-122.46704,37.74126],[-122.46681,37.74118],[-122.4667,37.74113],[-122.46626,37.7409],[-122.46583,37.74071],[-122.46546,37.74095],[-122.4652,37.74125],[-122.46381,37.74293],[-122.46362,37.74316],[-122.46343,37.74338],[-122.46323,37.74361],[-122.46265,37.7443],[-122.46246,37.74452],[-122.46207,37.74498],[-122.46197,37.74509],[-122.46176,37.7453],[-122.46166,37.74539],[-122.46145,37.74561],[-122.46124,37.74582],[-122.46102,37.74603],[-122.4608,37.74624],[-122.46057,37.74644],[-122.46034,37.74663],[-122.46017,37.74678],[-122.45987,37.74702],[-122.45962,37.74721],[-122.45939,37.74739],[-122.45876,37.74785],[-122.45813,37.74832],[-122.45395,37.7512],[-122.44768,37.75552],[-122.4468,37.75611],[-122.44663,37.75622],[-122.44636,37.7564],[-122.44626,37.75647],[-122.4461,37.75658],[-122.44584,37.75676],[-122.44557,37.75693],[-122.44531,37.75712],[-122.44505,37.75729],[-122.44479,37.75747],[-122.44452,37.75765],[-122.44427,37.75783],[-122.444,37.75801],[-122.44374,37.75819],[-122.44358,37.75829],[-122.44347,37.75837],[-122.44321,37.75855],[-122.44295,37.75873],[-122.44269,37.75891],[-122.4419,37.75945],[-122.44148,37.75974],[-122.44112,37.75999],[-122.44086,37.76017],[-122.44069,37.76029],[-122.4406,37.76035],[-122.44055,37.76039],[-122.44043,37.76048],[-122.4403,37.76057],[-122.4402,37.76063],[-122.44008,37.76071],[-122.44002,37.76075],[-122.4399,37.76084],[-122.43986,37.76087],[-122.43982,37.76088],[-122.43974,37.76093],[-122.43968,37.76096],[-122.43962,37.76099],[-122.43957,37.76101],[-122.43953,37.76103],[-122.43947,37.76107],[-122.43952,37.76105],[-122.43949,37.76105],[-122.43939,37.7611],[-122.43936,37.76111],[-122.43933,37.76113],[-122.43932,37.76114],[-122.43927,37.76116],[-122.43922,37.76118],[-122.43918,37.7612],[-122.43918,37.7612],[-122.43912,37.76122],[-122.43906,37.76124],[-122.439,37.76126],[-122.43892,37.76129],[-122.43885,37.76131],[-122.43877,37.76134],[-122.4387,37.76136],[-122.43855,37.76139],[-122.43836,37.76143],[-122.4376,37.76157],[-122.43729,37.76162],[-122.43701,37.76168],[-122.43693,37.7617],[-122.43687,37.76173],[-122.4367,37.76177],[-122.43651,37.76184],[-122.43634,37.7619],[-122.43605,37.76201],[-122.43578,37.76214],[-122.4356,37.76224],[-122.43533,37.76238],[-122.43515,37.76253],[-122.43509,37.76256],[-122.43484,37.76275],[-122.43446,37.76305],[-122.43324,37.76395],[-122.433,37.76413],[-122.43096,37.76581],[-122.43077,37.76596],[-122.4292,37.76723],[-122.42891,37.76747],[-122.42863,37.76771],[-122.42734,37.76875],[-122.42693,37.76909],[-122.42631,37.7696],[-122.42486,37.77075],[-122.424,37.77144],[-122.42369,37.7717],[-122.42343,37.77191],[-122.42266,37.77253],[-122.42222,37.77289],[-122.422,37.77308],[-122.42135,37.7736],[-122.42108,37.77383],[-122.42078,37.77406],[-122.42035,37.77442],[-122.41935,37.77521],[-122.41935,37.77522],[-122.41879,37.77566],[-122.41761,37.77663],[-122.4164,37.77758],[-122.41605,37.77789],[-122.41486,37.77881],[-122.4143,37.77927],[-122.41265,37.78058],[-122.41212,37.78101],[-122.41177,37.78129],[-122.41043,37.78234],[-122.40909,37.7834],[-122.40822,37.78411],[-122.40791,37.78434],[-122.40598,37.78586],[-122.40474,37.78685],[-122.40359,37.78776],[-122.40307,37.78821],[-122.40223,37.78885],[-122.40223,37.78885],[-122.40154,37.78939],[-122.40023,37.79043],[-122.39964,37.79087],[-122.39932,37.79114],[-122.39844,37.79184],[-122.39756,37.79254],[-122.39726,37.79277],[-122.39668,37.79323],[-122.39648,37.79339],[-122.39579,37.79391],[-122.39534,37.79428],[-122.3953,37.7943],[-122.39527,37.79433],[-122.39522,37.79436],[-122.39517,37.79439],[-122.39517,37.79439],[-122.39514,37.79442],[-122.3951,37.79444],[-122.39506,37.79446],[-122.39507,37.79445],[-122.39502,37.79449],[-122.39495,37.79451],[-122.39507,37.79445],[-122.39499,37.79451],[-122.39491,37.79454],[-122.39487,37.79455],[-122.39486,37.79456],[-122.39483,37.79457],[-122.39479,37.79459],[-122.39475,37.7946],[-122.39469,37.79462],[-122.3946,37.79463],[-122.39467,37.79463],[-122.39465,37.79464],[-122.39454,37.79465],[-122.39461,37.79464],[-122.3946,37.79466],[-122.39448,37.79467],[-122.39446,37.79468],[-122.39443,37.79468],[-122.39442,37.79468],[-122.39441,37.79468],[-122.39445,37.79468],[-122.39442,37.79469],[-122.39432,37.7947],[-122.39429,37.79471],[-122.3942,37.7947],[-122.39416,37.7947],[-122.39419,37.7947],[-122.39418,37.79471],[-122.39416,37.79471],[-122.39406,37.79471],[-122.39398,37.79469],[-122.39396,37.79469],[-122.39404,37.7947],[-122.39393,37.79469],[-122.39386,37.79468],[-122.39388,37.79468],[-122.3938,37.79468],[-122.39376,37.79466],[-122.39379,37.79468],[-122.39368,37.79465],[-122.39365,37.79464],[-122.39368,37.79465],[-122.39358,37.79462],[-122.3936,37.79463],[-122.39357,37.79463],[-122.39346,37.79458],[-122.39348,37.79459],[-122.39353,37.79462],[-122.39336,37.79455],[-122.39332,37.79453],[-122.39328,37.79452],[-122.39317,37.79446],[-122.39313,37.79444],[-122.39233,37.79399],[-122.3919,37.79373],[-122.39136,37.79333],[-122.39112,37.79314],[-122.39095,37.79302],[-122.39081,37.79291],[-122.39071,37.79284],[-122.39062,37.79273],[-122.39064,37.79277],[-122.39057,37.79272],[-122.39048,37.7926],[-122.39039,37.79248],[-122.39034,37.79241],[-122.39025,37.79225],[-122.39018,37.79206],[-122.39006,37.79177],[-122.39002,37.79169],[-122.39001,37.79166],[-122.38995,37.79156],[-122.3899,37.79148],[-122.38984,37.7914],[-122.38982,37.79137],[-122.3898,37.79134],[-122.38974,37.79128],[-122.38977,37.79131],[-122.38956,37.79113],[-122.38945,37.791],[-122.38937,37.79096]]},"properties":{"routeId":"L","name":"L-TARAVAL","shortName":"L","color":"#942D83","textColor":"#FFFFFF","system":"munimetro"}},{"type":"Feature","geometry":{"type":"LineString","coordinates":[[-122.44758,37.71949],[-122.44796,37.71893],[-122.44831,37.7186],[-122.44862,37.7184],[-122.4489,37.71818],[-122.4491,37.71789],[-122.44927,37.71754],[-122.44958,37.71712],[-122.45039,37.71617],[-122.45044,37.71612],[-122.45097,37.7155],[-122.45192,37.71439],[-122.45219,37.71411],[-122.45229,37.71398],[-122.45255,37.71371],[-122.45347,37.71322],[-122.45607,37.7132],[-122.45616,37.7132],[-122.45904,37.71318],[-122.45914,37.71318],[-122.46258,37.71316],[-122.46256,37.71334],[-122.46257,37.71391],[-122.4626,37.71403],[-122.46261,37.71431],[-122.46351,37.71431],[-122.46366,37.7143],[-122.46441,37.7143],[-122.46531,37.71429],[-122.46621,37.71428],[-122.46711,37.71427],[-122.46721,37.71427],[-122.46801,37.71426],[-122.46891,37.71425],[-122.46959,37.71424],[-122.46982,37.71428],[-122.47,37.71445],[-122.47001,37.71445],[-122.4705,37.71496],[-122.47074,37.71521],[-122.47161,37.71612],[-122.47167,37.7162],[-122.4726,37.71717],[-122.47478,37.71951],[-122.47503,37.71992],[-122.47528,37.72044],[-122.47528,37.72106],[-122.47526,37.72135],[-122.47517,37.72309],[-122.47508,37.72493],[-122.47505,37.72569],[-122.47499,37.72692],[-122.47498,37.72703],[-122.47491,37.72901],[-122.47488,37.72963],[-122.47492,37.73034],[-122.47474,37.73051],[-122.47468,37.73072],[-122.4745,37.7311],[-122.47449,37.73115],[-122.47443,37.73124],[-122.47435,37.73139],[-122.4739,37.73198],[-122.47383,37.73208],[-122.47274,37.73351],[-122.47213,37.73432],[-122.47174,37.73479],[-122.47172,37.73487],[-122.4716,37.73508],[-122.47129,37.73568],[-122.47079,37.73668],[-122.4701,37.73735],[-122.46926,37.7381],[-122.46914,37.7382],[-122.4672,37.73987],[-122.46606,37.74104],[-122.46589,37.7412],[-122.46567,37.74149],[-122.4643,37.74318],[-122.46413,37.74341],[-122.46394,37.74365],[-122.46376,37.74388],[-122.4632,37.74458],[-122.46302,37.74481],[-122.46264,37.74528],[-122.46254,37.7454],[-122.46234,37.74563],[-122.46224,37.74574],[-122.46205,37.74596],[-122.46184,37.74619],[-122.46162,37.74642],[-122.46139,37.74663],[-122.46116,37.74685],[-122.46093,37.74706],[-122.46076,37.74721],[-122.46046,37.74747],[-122.46021,37.74767],[-122.45996,37.74787],[-122.45934,37.74834],[-122.45869,37.74882],[-122.45451,37.75171],[-122.44825,37.75603],[-122.44736,37.75663],[-122.4472,37.75674],[-122.44694,37.75692],[-122.44684,37.75699],[-122.44668,37.7571],[-122.44642,37.75729],[-122.44615,37.75747],[-122.4459,37.75765],[-122.44564,37.75783],[-122.44538,37.75801],[-122.44512,37.75819],[-122.44485,37.75837],[-122.44458,37.75855],[-122.44433,37.75873],[-122.44418,37.75883],[-122.44407,37.75891],[-122.44381,37.75909],[-122.44355,37.75927],[-122.44329,37.75945],[-122.4425,37.75999],[-122.44208,37.76028],[-122.44172,37.76053],[-122.44146,37.76071],[-122.44129,37.76083],[-122.44121,37.76089],[-122.44115,37.76093],[-122.44104,37.76101],[-122.4409,37.76111],[-122.44077,37.76119],[-122.44068,37.76125],[-122.44062,37.76129],[-122.44048,37.76139],[-122.44037,37.76146],[-122.4403,37.76149],[-122.44025,37.76152],[-122.44019,37.76155],[-122.4401,37.7616],[-122.44001,37.76164],[-122.44001,37.76164],[-122.43995,37.76167],[-122.43983,37.76172],[-122.4398,37.76172],[-122.43982,37.76172],[-122.43979,37.76173],[-122.43975,37.76175],[-122.43969,37.76176],[-122.43964,37.76179],[-122.43958,37.7618],[-122.43951,37.76183],[-122.43944,37.76185],[-122.43942,37.76185],[-122.43935,37.76187],[-122.43925,37.76189],[-122.43917,37.76191],[-122.43909,37.76192],[-122.439,37.76194],[-122.43889,37.76196],[-122.43871,37.76199],[-122.43851,37.76201],[-122.43775,37.76214],[-122.43744,37.76218],[-122.43716,37.76222],[-122.43712,37.76222],[-122.43704,37.76223],[-122.4369,37.76225],[-122.43671,37.7623],[-122.43656,37.76232],[-122.43631,37.7624],[-122.43604,37.76251],[-122.43586,37.76257],[-122.43561,37.76268],[-122.43541,37.76281],[-122.43533,37.76281],[-122.43509,37.76296],[-122.43469,37.76324],[-122.43344,37.76413],[-122.43318,37.76427],[-122.43111,37.76593],[-122.4309,37.76606],[-122.4293,37.76731],[-122.42898,37.76753],[-122.42867,37.76774],[-122.42735,37.76877],[-122.42692,37.76908],[-122.42627,37.76957],[-122.42479,37.77069],[-122.42391,37.77137],[-122.42357,37.7716],[-122.42328,37.77179],[-122.42249,37.7724],[-122.42202,37.77273],[-122.42177,37.7729],[-122.4211,37.7734],[-122.42081,37.77361],[-122.42048,37.77383],[-122.42002,37.77416],[-122.41901,37.77494],[-122.41899,37.77493],[-122.41841,37.77536],[-122.4172,37.77631],[-122.41598,37.77725],[-122.41561,37.77754],[-122.41441,37.77845],[-122.41382,37.7789],[-122.41216,37.78019],[-122.41161,37.78061],[-122.41125,37.78088],[-122.40991,37.78193],[-122.40856,37.78297],[-122.40767,37.78367],[-122.40735,37.7839],[-122.40541,37.78541],[-122.40417,37.7864],[-122.403,37.78731],[-122.40248,37.78774],[-122.40164,37.78837],[-122.40163,37.78837],[-122.40094,37.78891],[-122.39963,37.78995],[-122.39904,37.79038],[-122.3987,37.79066],[-122.39782,37.79135],[-122.39694,37.79204],[-122.39664,37.79227],[-122.39605,37.79273],[-122.39586,37.79288],[-122.39517,37.79341],[-122.3947,37.79378],[-122.39472,37.79376],[-122.39467,37.7938],[-122.39469,37.79379],[-122.39469,37.79379],[-122.39462,37.79383],[-122.39459,37.79385],[-122.39462,37.79383],[-122.39465,37.79382],[-122.39453,37.79388],[-122.39461,37.79385],[-122.39468,37.79382],[-122.39436,37.794],[-122.39451,37.7939],[-122.3946,37.79387],[-122.39456,37.79388],[-122.3945,37.7939],[-122.39448,37.79391],[-122.39448,37.79392],[-122.39444,37.79393],[-122.39447,37.79393],[-122.3946,37.79392],[-122.3944,37.79394],[-122.39438,37.79395],[-122.39454,37.79393],[-122.39434,37.79396],[-122.39432,37.79397],[-122.39448,37.79395],[-122.39446,37.79396],[-122.39443,37.79396],[-122.39442,37.79396],[-122.39441,37.79397],[-122.39426,37.79398],[-122.39423,37.79399],[-122.39432,37.79398],[-122.39429,37.79399],[-122.39436,37.794],[-122.39432,37.79399],[-122.39419,37.79399],[-122.39418,37.79399],[-122.39416,37.79399],[-122.39423,37.794],[-122.39425,37.79401],[-122.39418,37.79399],[-122.39404,37.79398],[-122.39415,37.794],[-122.39417,37.794],[-122.39404,37.79398],[-122.39407,37.79399],[-122.39411,37.794],[-122.39401,37.79398],[-122.39409,37.79401],[-122.39406,37.794],[-122.39396,37.79397],[-122.39406,37.79402],[-122.39401,37.79399],[-122.39395,37.79398],[-122.39398,37.794],[-122.39389,37.79396],[-122.3938,37.79394],[-122.39391,37.794],[-122.39382,37.79395],[-122.39372,37.79391],[-122.3937,37.79391],[-122.39365,37.79388],[-122.39286,37.79344],[-122.39248,37.79321],[-122.39197,37.79284],[-122.39173,37.79265],[-122.39156,37.79254],[-122.39142,37.79244],[-122.39135,37.7924],[-122.39136,37.79242],[-122.3913,37.79236],[-122.39125,37.79234],[-122.39119,37.79228],[-122.39112,37.7922],[-122.39108,37.79215],[-122.391,37.79205],[-122.39093,37.79188],[-122.3908,37.79158],[-122.39076,37.79152],[-122.39072,37.79145],[-122.39063,37.79132],[-122.39056,37.79122],[-122.39048,37.79113],[-122.39043,37.79107],[-122.39037,37.79103],[-122.39033,37.791],[-122.39028,37.79096],[-122.39007,37.79079],[-122.38993,37.79067],[-122.38852,37.78955],[-122.38841,37.78945],[-122.38829,37.7893],[-122.38815,37.78902],[-122.38797,37.78848],[-122.3879,37.78826],[-122.38782,37.78792],[-122.38779,37.7871],[-122.38801,37.78478],[-122.38813,37.78324],[-122.38828,37.7818],[-122.38828,37.78149],[-122.38832,37.78124],[-122.38836,37.78105],[-122.38844,37.78087],[-122.38856,37.78069],[-122.38885,37.78037],[-122.38956,37.77983],[-122.3918,37.77809],[-122.394,37.7763]]},"properties":{"routeId":"M","name":"M-OCEAN VIEW","shortName":"M","color":"#008547","textColor":"#FFFFFF","system":"munimetro"}},{"type":"Feature","geometry":{"type":"LineString","coordinates":[[-122.50853,37.76035],[-122.50813,37.76036],[-122.50808,37.76033],[-122.50701,37.76038],[-122.50594,37.76043],[-122.5058,37.76044],[-122.50487,37.76048],[-122.5038,37.76052],[-122.50273,37.76057],[-122.50254,37.76058],[-122.50165,37.76062],[-122.50058,37.76067],[-122.49951,37.76071],[-122.49934,37.76073],[-122.49844,37.76076],[-122.49737,37.76081],[-122.4963,37.76085],[-122.49576,37.76088],[-122.49563,37.76089],[-122.49523,37.7609],[-122.49471,37.76093],[-122.49415,37.76095],[-122.49308,37.761],[-122.49291,37.76101],[-122.49201,37.76104],[-122.49093,37.76109],[-122.48987,37.76114],[-122.48969,37.76115],[-122.48879,37.76119],[-122.48772,37.76123],[-122.48665,37.76128],[-122.48648,37.76129],[-122.48558,37.76133],[-122.48451,37.76138],[-122.48344,37.76142],[-122.48327,37.76144],[-122.48237,37.76147],[-122.48129,37.76152],[-122.48114,37.76153],[-122.48022,37.76156],[-122.47915,37.76161],[-122.47808,37.76166],[-122.47702,37.7617],[-122.47689,37.76172],[-122.47594,37.76175],[-122.47487,37.7618],[-122.47379,37.76185],[-122.4736,37.76186],[-122.47267,37.7619],[-122.47155,37.76194],[-122.47048,37.76199],[-122.4703,37.762],[-122.4694,37.76204],[-122.4693,37.76205],[-122.46833,37.76209],[-122.46727,37.76212],[-122.46665,37.76216],[-122.46618,37.76218],[-122.46625,37.76332],[-122.46631,37.76403],[-122.46526,37.76408],[-122.46419,37.76412],[-122.46312,37.76416],[-122.46295,37.76417],[-122.46204,37.7642],[-122.46097,37.76425],[-122.4599,37.76429],[-122.45883,37.76433],[-122.45861,37.76435],[-122.45782,37.76436],[-122.45764,37.76454],[-122.45769,37.76476],[-122.45675,37.76487],[-122.45652,37.76491],[-122.4544,37.76516],[-122.45275,37.76536],[-122.45254,37.76538],[-122.45139,37.76551],[-122.44994,37.76569],[-122.44973,37.76571],[-122.44944,37.76576],[-122.44923,37.76588],[-122.4489,37.76618],[-122.44876,37.76623],[-122.44862,37.76625],[-122.43455,37.76906],[-122.43354,37.76909],[-122.43347,37.76908],[-122.43327,37.76901],[-122.43302,37.76894],[-122.43245,37.76895],[-122.43154,37.76899],[-122.43133,37.76899],[-122.43023,37.76905],[-122.42988,37.76904],[-122.42937,37.76906],[-122.42911,37.76905],[-122.42941,37.76908],[-122.42898,37.76895],[-122.42664,37.76907],[-122.42592,37.76923],[-122.4244,37.77039],[-122.42352,37.77107],[-122.4232,37.7713],[-122.42291,37.77149],[-122.42211,37.7721],[-122.42164,37.77243],[-122.42139,37.7726],[-122.42073,37.77311],[-122.42045,37.77331],[-122.42012,37.77353],[-122.41966,37.77388],[-122.41865,37.77465],[-122.41863,37.77464],[-122.41804,37.77508],[-122.41684,37.77603],[-122.41562,37.77697],[-122.41526,37.77726],[-122.41406,37.77817],[-122.41347,37.77862],[-122.41182,37.77992],[-122.41126,37.78034],[-122.41091,37.78061],[-122.40957,37.78166],[-122.40822,37.7827],[-122.40733,37.78341],[-122.40702,37.78363],[-122.40508,37.78515],[-122.40383,37.78614],[-122.40266,37.78705],[-122.40215,37.78748],[-122.40132,37.78811],[-122.4013,37.78811],[-122.40061,37.78865],[-122.3993,37.78969],[-122.39871,37.79012],[-122.39837,37.7904],[-122.39749,37.7911],[-122.39662,37.79178],[-122.39631,37.79201],[-122.39573,37.79248],[-122.39554,37.79262],[-122.39485,37.79315],[-122.39438,37.79353],[-122.39443,37.79348],[-122.39436,37.79353],[-122.39443,37.79349],[-122.39444,37.79348],[-122.39435,37.79354],[-122.39432,37.79356],[-122.39438,37.79353],[-122.39445,37.7935],[-122.39425,37.79359],[-122.3944,37.79353],[-122.39454,37.79348],[-122.394,37.79378],[-122.39426,37.7936],[-122.39445,37.79353],[-122.39441,37.79354],[-122.39433,37.79357],[-122.3943,37.79358],[-122.39432,37.79358],[-122.39428,37.79359],[-122.39436,37.79358],[-122.3946,37.79356],[-122.39426,37.7936],[-122.39424,37.79361],[-122.39454,37.79358],[-122.3942,37.79362],[-122.39418,37.79363],[-122.39448,37.79359],[-122.39446,37.7936],[-122.39443,37.7936],[-122.39442,37.7936],[-122.39441,37.79361],[-122.39417,37.79363],[-122.39414,37.79364],[-122.39432,37.79362],[-122.39429,37.79363],[-122.39444,37.79364],[-122.3944,37.79364],[-122.39419,37.79363],[-122.39418,37.79363],[-122.39416,37.79363],[-122.39431,37.79365],[-122.39439,37.79366],[-122.39429,37.79364],[-122.39404,37.79362],[-122.39426,37.79365],[-122.39432,37.79366],[-122.39412,37.79362],[-122.39421,37.79365],[-122.39428,37.79367],[-122.39413,37.79363],[-122.39429,37.79369],[-122.39427,37.79368],[-122.3941,37.79363],[-122.3943,37.79371],[-122.39421,37.79367],[-122.39415,37.79366],[-122.39425,37.79371],[-122.39409,37.79363],[-122.39393,37.7936],[-122.3942,37.79371],[-122.39408,37.79365],[-122.39396,37.7936],[-122.39398,37.79362],[-122.39392,37.79359],[-122.39313,37.79315],[-122.39278,37.79294],[-122.3923,37.79258],[-122.39205,37.79239],[-122.39189,37.79228],[-122.39176,37.79218],[-122.3917,37.79216],[-122.39177,37.79225],[-122.39167,37.79213],[-122.39162,37.79212],[-122.3916,37.7921],[-122.39154,37.79203],[-122.39151,37.792],[-122.39145,37.79193],[-122.39138,37.79177],[-122.39125,37.79147],[-122.39121,37.79141],[-122.39116,37.79132],[-122.39106,37.79116],[-122.39098,37.79105],[-122.3909,37.79096],[-122.39082,37.79087],[-122.39076,37.79082],[-122.39074,37.79081],[-122.39064,37.79071],[-122.39044,37.79057],[-122.39032,37.79042],[-122.39014,37.79032],[-122.38995,37.79019],[-122.38974,37.79003],[-122.38931,37.78969],[-122.38882,37.78933],[-122.38876,37.78928],[-122.38867,37.78917],[-122.38854,37.78892],[-122.38836,37.7884],[-122.3883,37.7882],[-122.38822,37.7879],[-122.38819,37.78712],[-122.38841,37.7848],[-122.38842,37.78463],[-122.38851,37.78326],[-122.38867,37.78182],[-122.38866,37.78151],[-122.38869,37.78129],[-122.38872,37.78113],[-122.38878,37.78099],[-122.38887,37.78084],[-122.38911,37.78056],[-122.3898,37.78004],[-122.39009,37.77981],[-122.39205,37.77829],[-122.39426,37.77649],[-122.39422,37.77615],[-122.39356,37.77564],[-122.39255,37.77488],[-122.39209,37.77452],[-122.39178,37.77437],[-122.39161,37.77431],[-122.39144,37.77431],[-122.38988,37.77441],[-122.39009,37.77449],[-122.39011,37.77454],[-122.38994,37.77293],[-122.38985,37.77199],[-122.38976,37.77111],[-122.38972,37.77065],[-122.38964,37.76976],[-122.38955,37.76882],[-122.38945,37.76786],[-122.38934,37.7669],[-122.38909,37.76432],[-122.38898,37.76304],[-122.38893,37.76176],[-122.3888,37.76049],[-122.38856,37.75792],[-122.38824,37.75538],[-122.38812,37.75411],[-122.38796,37.75274],[-122.3868,37.75272]]},"properties":{"routeId":"N","name":"N-JUDAH","shortName":"N","color":"#005B95","textColor":"#FFFFFF","system":"munimetro"}},{"type":"Feature","geometry":{"type":"LineString","coordinates":[[-122.435,37.76244],[-122.4353,37.76267],[-122.43504,37.76291],[-122.43465,37.76321],[-122.43348,37.76409],[-122.43343,37.76413],[-122.43319,37.76429],[-122.4314,37.76577],[-122.43117,37.76597],[-122.43097,37.76613],[-122.4294,37.7674],[-122.42911,37.76764],[-122.42883,37.76787],[-122.42755,37.76893],[-122.42737,37.7691],[-122.42716,37.76929],[-122.42655,37.76979],[-122.4253,37.77081],[-122.42514,37.77096],[-122.42429,37.77167],[-122.42394,37.77197],[-122.42296,37.77277],[-122.42253,37.77314],[-122.42246,37.77322],[-122.42236,37.77335],[-122.42172,37.77389],[-122.42146,37.77413],[-122.42117,37.77438],[-122.42074,37.77474],[-122.41986,37.77546],[-122.41978,37.77556],[-122.41923,37.77601],[-122.41807,37.77698],[-122.41694,37.77787],[-122.4169,37.77793],[-122.41653,37.77827],[-122.41547,37.7791],[-122.41537,37.7792],[-122.41328,37.78086],[-122.41317,37.78097],[-122.41263,37.78141],[-122.41228,37.7817],[-122.41109,37.78262],[-122.41097,37.78275],[-122.40962,37.78381],[-122.40884,37.78442],[-122.40874,37.78451],[-122.40654,37.78623],[-122.40651,37.78627],[-122.40525,37.78725],[-122.40421,37.78805],[-122.40412,37.78813],[-122.40356,37.78859],[-122.40283,37.78913],[-122.4027,37.78921],[-122.40202,37.78974],[-122.40068,37.79079],[-122.40007,37.79122],[-122.39984,37.79139],[-122.39973,37.79146],[-122.39884,37.79216],[-122.39794,37.79284],[-122.39718,37.79341],[-122.39703,37.7935],[-122.39681,37.79365],[-122.39612,37.79417],[-122.39472,37.795],[-122.39349,37.79414],[-122.39391,37.79428],[-122.39382,37.79433],[-122.39361,37.79416],[-122.39407,37.79457],[-122.39583,37.79643],[-122.39615,37.79681],[-122.39691,37.79773],[-122.39805,37.79902],[-122.3983,37.79932],[-122.39947,37.80071],[-122.39976,37.80104],[-122.40089,37.80236],[-122.40149,37.80304],[-122.40166,37.80328],[-122.4022,37.80391],[-122.40351,37.80492],[-122.40362,37.80502],[-122.40468,37.80579],[-122.40493,37.806],[-122.40583,37.80647],[-122.40634,37.80671],[-122.40643,37.80675],[-122.4074,37.80725],[-122.40912,37.80797],[-122.41035,37.80816],[-122.41053,37.80821],[-122.41243,37.8085],[-122.41251,37.80851],[-122.41335,37.80839],[-122.41415,37.80832],[-122.4155,37.80814],[-122.41579,37.80812],[-122.41738,37.80794],[-122.41721,37.80725]]},"properties":{"routeId":"F","name":"F-MARKET & WHARVES","shortName":"F","color":"#B49A36","textColor":"#000000","system":"munimetro"}}]}