{"type":"FeatureCollection","features":[{"type":"Feature","geometry":{"type":"Point","coordinates":[-121.38481,38.64492]},"properties":{"name":"Watt/I-80","stopId":"7000","system":"sacrt","routes":["533"],"colors":["#0000FF"]}},{"type":"Feature","geometry":{"type":"Point","coordinates":[-121.39505,38.64262]},"properties":{"name":"Watt/I-80 West","stopId":"7001","system":"sacrt","routes":["533"],"colors":["#0000FF"]}},{"type":"Feature","geometry":{"type":"Point","coordinates":[-121.40266,38.63801]},"properties":{"name":"Roseville Road","stopId":"7002","system":"sacrt","routes":["533"],"colors":["#0000FF"]}},{"type":"Feature","geometry":{"type":"Point","coordinates":[-121.42506,38.62109]},"properties":{"name":"Marconi/Arcade","stopId":"7003","system":"sacrt","routes":["533"],"colors":["#0000FF"]}},{"type":"Feature","geometry":{"type":"Point","coordinates":[-121.43078,38.61585]},"properties":{"name":"Employee Platform","stopId":"7004","system":"sacrt","routes":["533"],"colors":["#0000FF"]}},{"type":"Feature","geometry":{"type":"Point","coordinates":[-121.43985,38.60744]},"properties":{"name":"Swanston","stopId":"7005","system":"sacrt","routes":["533"],"colors":["#0000FF"]}},{"type":"Feature","geometry":{"type":"Point","coordinates":[-121.44818,38.60625]},"properties":{"name":"Royal Oaks","stopId":"7006","system":"sacrt","routes":["533"],"colors":["#0000FF"]}},{"type":"Feature","geometry":{"type":"Point","coordinates":[-121.45738,38.60632]},"properties":{"name":"Arden/Del Paso","stopId":"7007","system":"sacrt","routes":["533"],"colors":["#0000FF"]}},{"type":"Feature","geometry":{"type":"Point","coordinates":[-121.4664,38.60263]},"properties":{"name":"Globe Avenue","stopId":"7008","system":"sacrt","routes":["533"],"colors":["#0000FF"]}},{"type":"Feature","geometry":{"type":"Point","coordinates":[-121.4883,38.58521]},"properties":{"name":"Alkali Flat/La Valentina","stopId":"7009","system":"sacrt","routes":["533"],"colors":["#0000FF"]}},{"type":"Feature","geometry":{"type":"Point","coordinates":[-121.49023,38.58083]},"properties":{"name":"12th & I","stopId":"7010","system":"sacrt","routes":["533"],"colors":["#0000FF"]}},{"type":"Feature","geometry":{"type":"Point","coordinates":[-121.49358,38.57917]},"properties":{"name":"Cathedral Square","stopId":"7011","system":"sacrt","routes":["533"],"colors":["#0000FF"]}},{"type":"Feature","geometry":{"type":"Point","coordinates":[-121.49872,38.57826]},"properties":{"name":"7th & Capitol","stopId":"7013","system":"sacrt","routes":["507","519","533"],"colors":["#C4A600","#008040","#0000FF"]}},{"type":"Feature","geometry":{"type":"Point","coordinates":[-121.49868,38.57558]},"properties":{"name":"8th & O","stopId":"7014","system":"sacrt","routes":["507","519","533"],"colors":["#C4A600","#008040","#0000FF"]}},{"type":"Feature","geometry":{"type":"Point","coordinates":[-121.49472,38.5744]},"properties":{"name":"Archives Plaza","stopId":"7015","system":"sacrt","routes":["507","519","533"],"colors":["#C4A600","#008040","#0000FF"]}},{"type":"Feature","geometry":{"type":"Point","coordinates":[-121.49298,38.57084]},"properties":{"name":"13th Street","stopId":"7016","system":"sacrt","routes":["507","519","533"],"colors":["#C4A600","#008040","#0000FF"]}},{"type":"Feature","geometry":{"type":"Point","coordinates":[-121.48902,38.56977]},"properties":{"name":"16th Street","stopId":"7017","system":"sacrt","routes":["507","533"],"colors":["#C4A600","#0000FF"]}},{"type":"Feature","geometry":{"type":"Point","coordinates":[-121.48824,38.55918]},"properties":{"name":"Broadway","stopId":"7018","system":"sacrt","routes":["533"],"colors":["#0000FF"]}},{"type":"Feature","geometry":{"type":"Point","coordinates":[-121.488,38.55097]},"properties":{"name":"4th Ave/Wayne Hultgren","stopId":"7019","system":"sacrt","routes":["533"],"colors":["#0000FF"]}},{"type":"Feature","geometry":{"type":"Point","coordinates":[-121.48529,38.54165]},"properties":{"name":"City College","stopId":"7020","system":"sacrt","routes":["533"],"colors":["#0000FF"]}},{"type":"Feature","geometry":{"type":"Point","coordinates":[-121.47997,38.52519]},"properties":{"name":"Fruitridge","stopId":"7021","system":"sacrt","routes":["533"],"colors":["#0000FF"]}},{"type":"Feature","geometry":{"type":"Point","coordinates":[-121.47583,38.51145]},"properties":{"name":"47th Avenue","stopId":"7022","system":"sacrt","routes":["533"],"colors":["#0000FF"]}},{"type":"Feature","geometry":{"type":"Point","coordinates":[-121.47147,38.49732]},"properties":{"name":"Florin","stopId":"7023","system":"sacrt","routes":["533"],"colors":["#0000FF"]}},{"type":"Feature","geometry":{"type":"Point","coordinates":[-121.46698,38.48269]},"properties":{"name":"Meadowview","stopId":"7024","system":"sacrt","routes":["533"],"colors":["#0000FF"]}},{"type":"Feature","geometry":{"type":"Point","coordinates":[-121.49773,38.57752]},"properties":{"name":"8th & Capitol","stopId":"7036","system":"sacrt","routes":["507","519","533"],"colors":["#C4A600","#008040","#0000FF"]}},{"type":"Feature","geometry":{"type":"Point","coordinates":[-121.49549,38.57956]},"properties":{"name":"St Rose Of Lima Park","stopId":"7037","system":"sacrt","routes":["519","533"],"colors":["#008040","#0000FF"]}},{"type":"Feature","geometry":{"type":"Point","coordinates":[-121.47855,38.56643]},"properties":{"name":"23rd Street","stopId":"7050","system":"sacrt","routes":["507"],"colors":["#C4A600"]}},{"type":"Feature","geometry":{"type":"Point","coordinates":[-121.47055,38.56432]},"properties":{"name":"29th Street","stopId":"7051","system":"sacrt","routes":["507"],"colors":["#C4A600"]}},{"type":"Feature","geometry":{"type":"Point","coordinates":[-121.45658,38.56046]},"properties":{"name":"39th Street","stopId":"7052","system":"sacrt","routes":["507"],"colors":["#C4A600"]}},{"type":"Feature","geometry":{"type":"Point","coordinates":[-121.4483,38.5582]},"properties":{"name":"48th Street","stopId":"7053","system":"sacrt","routes":["507"],"colors":["#C4A600"]}},{"type":"Feature","geometry":{"type":"Point","coordinates":[-121.43524,38.55461]},"properties":{"name":"59th Street","stopId":"7054","system":"sacrt","routes":["507"],"colors":["#C4A600"]}},{"type":"Feature","geometry":{"type":"Point","coordinates":[-121.42657,38.5523]},"properties":{"name":"University/65th Street","stopId":"7055","system":"sacrt","routes":["507"],"colors":["#C4A600"]}},{"type":"Feature","geometry":{"type":"Point","coordinates":[-121.40692,38.54722]},"properties":{"name":"Power Inn","stopId":"7056","system":"sacrt","routes":["507"],"colors":["#C4A600"]}},{"type":"Feature","geometry":{"type":"Point","coordinates":[-121.39278,38.54708]},"properties":{"name":"College Greens","stopId":"7057","system":"sacrt","routes":["507"],"colors":["#C4A600"]}},{"type":"Feature","geometry":{"type":"Point","coordinates":[-121.37265,38.55407]},"properties":{"name":"Watt/Manlove","stopId":"7058","system":"sacrt","routes":["507"],"colors":["#C4A600"]}},{"type":"Feature","geometry":{"type":"Point","coordinates":[-121.36137,38.55973]},"properties":{"name":"Starfire","stopId":"7059","system":"sacrt","routes":["507"],"colors":["#C4A600"]}},{"type":"Feature","geometry":{"type":"Point","coordinates":[-121.35246,38.56421]},"properties":{"name":"Tiber","stopId":"7060","system":"sacrt","routes":["507"],"colors":["#C4A600"]}},{"type":"Feature","geometry":{"type":"Point","coordinates":[-121.34606,38.56736]},"properties":{"name":"Butterfield","stopId":"7061","system":"sacrt","routes":["507"],"colors":["#C4A600"]}},{"type":"Feature","geometry":{"type":"Point","coordinates":[-121.31061,38.58497]},"properties":{"name":"Mather Field/Mills","stopId":"7062","system":"sacrt","routes":["507"],"colors":["#C4A600"]}},{"type":"Feature","geometry":{"type":"Point","coordinates":[-121.28977,38.59529]},"properties":{"name":"Zinfandel","stopId":"7063","system":"sacrt","routes":["507"],"colors":["#C4A600"]}},{"type":"Feature","geometry":{"type":"Point","coordinates":[-121.2825,38.59887]},"properties":{"name":"Cordova Town Center","stopId":"7064","system":"sacrt","routes":["507"],"colors":["#C4A600"]}},{"type":"Feature","geometry":{"type":"Point","coordinates":[-121.26611,38.60697]},"properties":{"name":"Sunrise","stopId":"7065","system":"sacrt","routes":["507"],"colors":["#C4A600"]}},{"type":"Feature","geometry":{"type":"Point","coordinates":[-121.21168,38.63062]},"properties":{"name":"Hazel","stopId":"7082","system":"sacrt","routes":["507"],"colors":["#C4A600"]}},{"type":"Feature","geometry":{"type":"Point","coordinates":[-121.18968,38.64497]},"properties":{"name":"Iron Point","stopId":"7083","system":"sacrt","routes":["507"],"colors":["#C4A600"]}},{"type":"Feature","geometry":{"type":"Point","coordinates":[-121.18363,38.66367]},"properties":{"name":"Glenn","stopId":"7084","system":"sacrt","routes":["507"],"colors":["#C4A600"]}},{"type":"Feature","geometry":{"type":"Point","coordinates":[-121.18072,38.67635]},"properties":{"name":"Historic Folsom","stopId":"7085","system":"sacrt","routes":["507"],"colors":["#C4A600"]}},{"type":"Feature","geometry":{"type":"Point","coordinates":[-121.49686,38.58259]},"properties":{"name":"7th & I/County Center","stopId":"7090","system":"sacrt","routes":["507","519"],"colors":["#C4A600","#008040"]}},{"type":"Feature","geometry":{"type":"Point","coordinates":[-121.49652,38.58037]},"properties":{"name":"8th & K","stopId":"7091","system":"sacrt","routes":["507","519"],"colors":["#C4A600","#008040"]}},{"type":"Feature","geometry":{"type":"Point","coordinates":[-121.50044,38.58463]},"properties":{"name":"Sacramento Valley","stopId":"7092","system":"sacrt","routes":["507"],"colors":["#C4A600"]}},{"type":"Feature","geometry":{"type":"Point","coordinates":[-121.49281,38.59666]},"properties":{"name":"Township 9","stopId":"7094","system":"sacrt","routes":["519"],"colors":["#008040"]}},{"type":"Feature","geometry":{"type":"Point","coordinates":[-121.49539,38.58292]},"properties":{"name":"8th & H","stopId":"7095","system":"sacrt","routes":["507","519"],"colors":["#C4A600","#008040"]}},{"type":"Feature","geometry":{"type":"Point","coordinates":[-121.41832,38.45323]},"properties":{"name":"Crc","stopId":"7097","system":"sacrt","routes":["533"],"colors":["#0000FF"]}},{"type":"Feature","geometry":{"type":"Point","coordinates":[-121.46303,38.46576]},"properties":{"name":"Morrison Creek","stopId":"7099","system":"sacrt","routes":["533"],"colors":["#0000FF"]}},{"type":"Feature","geometry":{"type":"Point","coordinates":[-121.44806,38.46278]},"properties":{"name":"Franklin","stopId":"7101","system":"sacrt","routes":["533"],"colors":["#0000FF"]}},{"type":"Feature","geometry":{"type":"Point","coordinates":[-121.42937,38.4586]},"properties":{"name":"Center Parkway","stopId":"7103","system":"sacrt","routes":["533"],"colors":["#0000FF"]}}]}