{"type":"FeatureCollection","features":[{"type":"Feature","geometry":{"type":"LineString","coordinates":[[-121.50052,38.58462],[-121.49943,38.58432],[-121.49918,38.58428],[-121.49903,38.58424],[-121.49784,38.58392],[-121.49709,38.58372],[-121.49667,38.58361],[-121.49653,38.58358],[-121.49665,38.58331],[-121.49672,38.58313],[-121.49697,38.58246],[-121.49718,38.58198],[-121.49722,38.5819],[-121.49745,38.58137],[-121.4977,38.5808],[-121.49792,38.58028],[-121.49799,38.58007],[-121.49815,38.57972],[-121.49816,38.57969],[-121.4984,38.57919],[-121.49864,38.57865],[-121.49886,38.57817],[-121.49896,38.57796],[-121.49926,38.57726],[-121.49933,38.57711],[-121.4994,38.57694],[-121.49971,38.5762],[-121.49981,38.57597],[-121.49987,38.57584],[-121.49856,38.57548],[-121.4972,38.57512],[-121.49586,38.57476],[-121.49454,38.57441],[-121.49322,38.57406],[-121.49345,38.57353],[-121.49368,38.57297],[-121.49373,38.57286],[-121.49392,38.57242],[-121.49415,38.57188],[-121.49434,38.57151],[-121.49434,38.57139],[-121.49429,38.5713],[-121.49415,38.57122],[-121.49396,38.57116],[-121.49371,38.57109],[-121.49282,38.57085],[-121.4915,38.57047],[-121.49018,38.57014],[-121.48886,38.56976],[-121.48753,38.5694],[-121.48715,38.56931],[-121.4865,38.56913],[-121.48631,38.56908],[-121.48585,38.56897],[-121.48565,38.56889],[-121.48553,38.56882],[-121.48532,38.56864],[-121.4851,38.56843],[-121.48501,38.56833],[-121.48481,38.5682],[-121.4845,38.56808],[-121.48421,38.568],[-121.48373,38.56786],[-121.48241,38.5675],[-121.48107,38.56714],[-121.47972,38.56678],[-121.47839,38.56643],[-121.47809,38.56635],[-121.4775,38.5662],[-121.47731,38.56615],[-121.47707,38.56609],[-121.47573,38.56573],[-121.47506,38.56554],[-121.4744,38.56539],[-121.47307,38.56502],[-121.47235,38.56483],[-121.47174,38.56467],[-121.47165,38.56465],[-121.47121,38.56453],[-121.47091,38.56445],[-121.47039,38.56431],[-121.46979,38.56415],[-121.46905,38.56396],[-121.46553,38.56299],[-121.46514,38.56288],[-121.45849,38.56107],[-121.45786,38.56089],[-121.45409,38.55984],[-121.45019,38.55876],[-121.44806,38.55819],[-121.44438,38.55717],[-121.43875,38.55563],[-121.43664,38.55504],[-121.43406,38.55433],[-121.43276,38.55397],[-121.43186,38.55372],[-121.43124,38.55355],[-121.42903,38.553],[-121.42792,38.55271],[-121.42778,38.55267],[-121.4242,38.55164],[-121.42348,38.55143],[-121.42302,38.55128],[-121.42271,38.55114],[-121.42232,38.55092],[-121.42205,38.55073],[-121.42185,38.5506],[-121.42152,38.55046],[-121.42115,38.55036],[-121.42091,38.55032],[-121.42073,38.55031],[-121.4201,38.55035],[-121.41971,38.55036],[-121.4193,38.5503],[-121.41855,38.5501],[-121.4156,38.54928],[-121.41167,38.54821],[-121.41062,38.54795],[-121.4091,38.54766],[-121.40895,38.54764],[-121.4081,38.54745],[-121.40682,38.54725],[-121.40582,38.54712],[-121.40411,38.54693],[-121.4031,38.54685],[-121.40201,38.54678],[-121.4007,38.54674],[-121.3988,38.54673],[-121.39713,38.54678],[-121.39514,38.54688],[-121.39375,38.54701],[-121.39226,38.54718],[-121.3907,38.54746],[-121.38945,38.54771],[-121.38881,38.54784],[-121.38751,38.54813],[-121.38628,38.54846],[-121.38452,38.54897],[-121.38323,38.5494],[-121.38216,38.54979],[-121.37953,38.55081],[-121.37874,38.55116],[-121.37723,38.55183],[-121.37505,38.55293],[-121.37499,38.55296],[-121.37483,38.55303],[-121.36486,38.55806],[-121.36284,38.55904],[-121.36143,38.55975],[-121.35952,38.56072],[-121.35895,38.56101],[-121.3584,38.56127],[-121.35609,38.56245],[-121.35334,38.56383],[-121.35179,38.56459],[-121.35061,38.56517],[-121.34547,38.5677],[-121.34456,38.56819],[-121.34267,38.56909],[-121.33992,38.57046],[-121.33752,38.57166],[-121.33654,38.57217],[-121.3364,38.57225],[-121.33442,38.5732],[-121.33143,38.5747],[-121.32934,38.57577],[-121.32665,38.57708],[-121.32552,38.57764],[-121.3226,38.57908],[-121.31873,38.58104],[-121.3132,38.58374],[-121.31064,38.58499],[-121.30981,38.58543],[-121.30886,38.58589],[-121.3041,38.58827],[-121.3028,38.58892],[-121.30094,38.58984],[-121.29933,38.59061],[-121.29655,38.59201],[-121.29544,38.59253],[-121.29323,38.59363],[-121.29104,38.59469],[-121.28875,38.59585],[-121.28637,38.59702],[-121.28493,38.59776],[-121.282,38.59919],[-121.27748,38.60146],[-121.27704,38.60169],[-121.27676,38.60183],[-121.27567,38.60233],[-121.27415,38.60307],[-121.27035,38.60493],[-121.26927,38.60544],[-121.26908,38.60553],[-121.26843,38.60584],[-121.26764,38.60622],[-121.26587,38.60711],[-121.26393,38.60813],[-121.26249,38.60883],[-121.25871,38.61067],[-121.25702,38.6115],[-121.25557,38.61221],[-121.25466,38.61268],[-121.25376,38.61319],[-121.25186,38.61428],[-121.25005,38.61535],[-121.24912,38.61591],[-121.24793,38.61658],[-121.24666,38.61723],[-121.24501,38.61799],[-121.24403,38.6184],[-121.24236,38.61904],[-121.24039,38.61977],[-121.23838,38.62053],[-121.23704,38.62103],[-121.23146,38.62313],[-121.23128,38.6232],[-121.22987,38.62374],[-121.22963,38.62383],[-121.2288,38.62415],[-121.22702,38.62481],[-121.22544,38.62544],[-121.2205,38.62729],[-121.21631,38.62886],[-121.2157,38.62908],[-121.21218,38.6304],[-121.20983,38.6313],[-121.20863,38.63173],[-121.20737,38.63218],[-121.20582,38.63271],[-121.20577,38.63273],[-121.20354,38.63358],[-121.20318,38.63372],[-121.20262,38.63395],[-121.20226,38.63413],[-121.20184,38.63436],[-121.20137,38.63465],[-121.20107,38.63485],[-121.20069,38.63513],[-121.20044,38.63533],[-121.20019,38.63554],[-121.19987,38.63583],[-121.19957,38.63613],[-121.19933,38.6364],[-121.19895,38.63688],[-121.19854,38.63739],[-121.19795,38.63813],[-121.1974,38.63884],[-121.19715,38.63916],[-121.19679,38.63955],[-121.19663,38.63971],[-121.19646,38.6399],[-121.1963,38.64008],[-121.19577,38.64056],[-121.19535,38.64093],[-121.195,38.64122],[-121.19467,38.64148],[-121.19428,38.64179],[-121.19376,38.64215],[-121.19318,38.64253],[-121.1927,38.64282],[-121.19221,38.64315],[-121.19092,38.64407],[-121.19077,38.64419],[-121.18922,38.6453],[-121.18855,38.6458],[-121.18744,38.64656],[-121.18658,38.64718],[-121.18514,38.64822],[-121.18413,38.64893],[-121.18353,38.64943],[-121.18295,38.6499],[-121.18243,38.65039],[-121.1821,38.65079],[-121.18189,38.65109],[-121.18171,38.65137],[-121.18153,38.65172],[-121.1814,38.65207],[-121.18133,38.65236],[-121.18129,38.65259],[-121.18124,38.65298],[-121.18125,38.65345],[-121.1813,38.6538],[-121.18137,38.65415],[-121.18146,38.65454],[-121.1815,38.65466],[-121.18183,38.65586],[-121.18213,38.6568],[-121.18253,38.65824],[-121.18277,38.6591],[-121.183,38.65981],[-121.18345,38.66123],[-121.18357,38.66163],[-121.18365,38.66198],[-121.18368,38.6623],[-121.18368,38.66268],[-121.18367,38.66308],[-121.1836,38.66392],[-121.18355,38.66447],[-121.18349,38.66482],[-121.18324,38.66578],[-121.18256,38.66822],[-121.1825,38.66842],[-121.18217,38.66965],[-121.18173,38.67124],[-121.18165,38.67154],[-121.18142,38.6724],[-121.18132,38.67269],[-121.18118,38.67305],[-121.18102,38.67354],[-121.18077,38.67443],[-121.18064,38.67485],[-121.18055,38.67519],[-121.18051,38.67532],[-121.18051,38.67543],[-121.18052,38.6755],[-121.18067,38.6762],[-121.18073,38.67639]]},"properties":{"routeId":"507","name":"Downtown - Folsom","shortName":"Gold","color":"#C4A600","textColor":"#000000","system":"sacrt"}},{"type":"Feature","geometry":{"type":"LineString","coordinates":[[-121.49281,38.57086],[-121.49416,38.57121],[-121.49432,38.57146],[-121.49415,38.57186],[-121.49391,38.57242],[-121.49367,38.57296],[-121.49343,38.57351],[-121.49326,38.5739],[-121.4932,38.57405],[-121.49342,38.57411],[-121.49453,38.57441],[-121.49587,38.57476],[-121.4972,38.57512],[-121.49853,38.57547],[-121.49853,38.57547],[-121.49852,38.5755],[-121.49846,38.57564],[-121.49828,38.57604],[-121.49805,38.57658],[-121.49783,38.5771],[-121.49757,38.57769],[-121.49732,38.57827],[-121.49708,38.57882],[-121.49708,38.57882],[-121.49684,38.57937],[-121.49666,38.57978],[-121.49666,38.57978],[-121.49661,38.57991],[-121.49637,38.58046],[-121.49613,38.58102],[-121.49589,38.58157],[-121.49565,38.58211],[-121.49565,38.58211],[-121.49518,38.58321],[-121.49471,38.5843],[-121.49604,38.58465],[-121.49604,38.58465],[-121.49562,38.58577],[-121.49541,38.58632],[-121.49448,38.58878],[-121.49444,38.58887],[-121.49439,38.58896],[-121.49439,38.58897],[-121.49434,38.58906],[-121.4943,38.58915],[-121.49268,38.59236],[-121.49116,38.59589],[-121.49129,38.59609],[-121.49352,38.59672]]},"properties":{"routeId":"519","name":"13th - Richards/Township 9","shortName":"Green","color":"#008040","textColor":"#FFFFFF","system":"sacrt"}},{"type":"Feature","geometry":{"type":"LineString","coordinates":[[-121.4183,38.45303],[-121.41828,38.45455],[-121.41831,38.45494],[-121.41832,38.45572],[-121.41822,38.45664],[-121.41838,38.45742],[-121.41868,38.45775],[-121.41918,38.45797],[-121.42066,38.45806],[-121.42335,38.45815],[-121.42668,38.45828],[-121.42844,38.45838],[-121.42954,38.45865],[-121.43037,38.45889],[-121.43303,38.45957],[-121.43698,38.46061],[-121.44165,38.46173],[-121.44347,38.46222],[-121.44401,38.46236],[-121.44473,38.46244],[-121.44557,38.46243],[-121.44653,38.46235],[-121.44745,38.46262],[-121.44951,38.46348],[-121.45061,38.46359],[-121.45162,38.46334],[-121.45261,38.46263],[-121.4539,38.4619],[-121.4557,38.46148],[-121.45819,38.46118],[-121.45893,38.46122],[-121.46013,38.4614],[-121.46124,38.46207],[-121.46194,38.46318],[-121.46231,38.4643],[-121.46263,38.46543],[-121.46344,38.46707],[-121.46348,38.46761],[-121.46306,38.46854],[-121.46281,38.46919],[-121.46284,38.46964],[-121.46313,38.47124],[-121.46353,38.47232],[-121.46444,38.47477],[-121.46563,38.47845],[-121.46657,38.48154],[-121.46701,38.48313],[-121.46787,38.48573],[-121.469,38.48939],[-121.46996,38.49256],[-121.47103,38.49587],[-121.47166,38.49807],[-121.47251,38.50079],[-121.47347,38.50374],[-121.47443,38.50695],[-121.47516,38.50913],[-121.4757,38.51037],[-121.47632,38.51273],[-121.4773,38.516],[-121.47816,38.51882],[-121.47865,38.52036],[-121.47883,38.5213],[-121.47987,38.52506],[-121.48044,38.52656],[-121.48133,38.52928],[-121.48221,38.53214],[-121.48317,38.53546],[-121.48386,38.53775],[-121.48494,38.54112],[-121.48574,38.54354],[-121.48659,38.54619],[-121.48758,38.54938],[-121.4884,38.55211],[-121.48885,38.5541],[-121.48889,38.55527],[-121.48884,38.55628],[-121.48851,38.55851],[-121.4878,38.56041],[-121.48635,38.56369],[-121.48541,38.56588],[-121.48476,38.56727],[-121.48471,38.56762],[-121.48472,38.56795],[-121.48483,38.56826],[-121.48512,38.56852],[-121.48535,38.56875],[-121.48589,38.56899],[-121.48882,38.56978],[-121.49441,38.57128],[-121.49328,38.57406],[-121.4972,38.57513],[-121.49853,38.57547],[-121.49852,38.5755],[-121.49846,38.57564],[-121.49828,38.57604],[-121.49805,38.57658],[-121.49783,38.5771],[-121.49783,38.5771],[-121.49757,38.5777],[-121.49732,38.57827],[-121.49708,38.57882],[-121.49684,38.57937],[-121.49666,38.57978],[-121.49661,38.57991],[-121.49529,38.57955],[-121.49128,38.57851],[-121.48926,38.58321],[-121.4875,38.58726],[-121.48637,38.58986],[-121.48616,38.59035],[-121.48566,38.59063],[-121.48262,38.59215],[-121.48141,38.59271],[-121.48014,38.59312],[-121.47933,38.59366],[-121.47851,38.59432],[-121.47826,38.59452],[-121.47781,38.59545],[-121.47736,38.59589],[-121.47657,38.59642],[-121.47548,38.59711],[-121.47463,38.59766],[-121.47317,38.59825],[-121.47071,38.59924],[-121.46984,38.59956],[-121.46912,38.59972],[-121.46874,38.59991],[-121.46822,38.60031],[-121.46787,38.60063],[-121.46759,38.60137],[-121.46728,38.6019],[-121.46704,38.6022],[-121.46648,38.60252],[-121.4658,38.60294],[-121.46207,38.60471],[-121.4589,38.60628],[-121.45838,38.60632],[-121.45547,38.60625],[-121.45472,38.60627],[-121.45286,38.60626],[-121.44854,38.60623],[-121.44844,38.60623],[-121.44832,38.6062],[-121.44692,38.60586],[-121.44667,38.60582],[-121.44643,38.60569],[-121.44624,38.60556],[-121.44619,38.60537],[-121.44629,38.60509],[-121.44625,38.60486],[-121.44612,38.60462],[-121.44568,38.60445],[-121.44502,38.60432],[-121.44405,38.60435],[-121.44351,38.60445],[-121.44283,38.60476],[-121.44254,38.60491],[-121.44113,38.60612],[-121.43995,38.60722],[-121.43849,38.60862],[-121.43623,38.61067],[-121.43425,38.61247],[-121.43194,38.61462],[-121.42986,38.61654],[-121.42852,38.61781],[-121.42547,38.62057],[-121.42538,38.62066],[-121.42474,38.62126],[-121.42409,38.62186],[-121.42349,38.62242],[-121.42297,38.62291],[-121.42237,38.62347],[-121.42178,38.62403],[-121.42113,38.62468],[-121.42052,38.62529],[-121.41997,38.62577],[-121.41922,38.62645],[-121.41842,38.62716],[-121.41775,38.62777],[-121.41708,38.6284],[-121.41672,38.62886],[-121.41629,38.62946],[-121.41587,38.63002],[-121.41541,38.63065],[-121.41505,38.63112],[-121.41461,38.6316],[-121.41407,38.6321],[-121.41342,38.63259],[-121.41277,38.63307],[-121.41208,38.63354],[-121.41171,38.63375],[-121.411,38.63413],[-121.41061,38.6343],[-121.40986,38.63466],[-121.40922,38.63497],[-121.40864,38.63523],[-121.40798,38.63554],[-121.40738,38.6358],[-121.40671,38.63609],[-121.40627,38.63625],[-121.40579,38.63644],[-121.40513,38.63674],[-121.40457,38.63704],[-121.404,38.63734],[-121.40337,38.63768],[-121.40248,38.63802],[-121.40168,38.63835],[-121.40109,38.63858],[-121.40036,38.63894],[-121.39954,38.63946],[-121.39933,38.63963],[-121.39854,38.64024],[-121.39788,38.64074],[-121.39722,38.64122],[-121.39675,38.64155],[-121.39589,38.64211],[-121.39538,38.6424],[-121.39469,38.6427],[-121.3941,38.64297],[-121.3934,38.6433],[-121.39254,38.64359],[-121.39176,38.64377],[-121.39095,38.64393],[-121.3906,38.64401],[-121.39002,38.64409],[-121.38976,38.64412],[-121.38946,38.64417],[-121.38902,38.64423],[-121.38865,38.64428],[-121.38808,38.64436],[-121.38751,38.64443],[-121.38681,38.64451],[-121.38634,38.64458],[-121.38576,38.64463],[-121.38509,38.64474],[-121.38433,38.64484],[-121.38368,38.64494],[-121.38316,38.64501],[-121.38309,38.64502]]},"properties":{"routeId":"533","name":"Meadowview - Watt/I-80","shortName":"Blue","color":"#0000FF","textColor":"#FFFFFF","system":"sacrt"}}]}