{"type":"FeatureCollection","features":[{"type":"Feature","geometry":{"type":"LineString","coordinates":[[-122.27181,37.79349],[-122.27313,37.79398],[-122.27405,37.7943],[-122.27674,37.79535],[-122.27919,37.79631],[-122.28223,37.79749],[-122.28331,37.7979],[-122.28438,37.79826],[-122.2851,37.79849],[-122.28581,37.79868],[-122.28859,37.79931],[-122.29612,37.80102],[-122.29706,37.80124],[-122.29796,37.80149],[-122.29936,37.80193],[-122.30041,37.80239],[-122.30164,37.80298],[-122.30238,37.80341],[-122.30311,37.80391],[-122.30361,37.80434],[-122.30446,37.80533],[-122.30478,37.80582],[-122.30508,37.80638],[-122.30537,37.80703],[-122.30556,37.80805],[-122.30558,37.80894],[-122.30539,37.80989],[-122.30509,37.81074],[-122.30452,37.81169],[-122.30395,37.81238],[-122.30341,37.8129],[-122.29944,37.81617],[-122.29805,37.81735],[-122.29733,37.81792],[-122.29659,37.81844],[-122.29414,37.82045],[-122.29344,37.82111],[-122.29292,37.82189],[-122.29248,37.8226],[-122.29218,37.82328],[-122.29194,37.8241],[-122.29156,37.82538],[-122.2913,37.82654],[-122.2912,37.82741],[-122.29097,37.82974],[-122.29092,37.83096],[-122.29097,37.83251],[-122.29114,37.83464],[-122.29125,37.83573],[-122.29145,37.83694],[-122.2916,37.83773],[-122.29174,37.83819],[-122.29211,37.83979],[-122.2923,37.84039],[-122.29231,37.8404],[-122.29241,37.8407],[-122.29461,37.84767],[-122.2977,37.85727],[-122.3005,37.86579],[-122.30292,37.87344],[-122.30574,37.88225],[-122.30798,37.89056],[-122.30847,37.89256],[-122.30868,37.89326],[-122.30888,37.89383],[-122.30913,37.89437],[-122.30941,37.8949],[-122.30974,37.89543],[-122.31021,37.89604],[-122.3131,37.89956],[-122.31868,37.90657],[-122.32227,37.91097],[-122.32513,37.91443],[-122.32642,37.91587],[-122.32719,37.91658],[-122.32814,37.91737],[-122.32927,37.91828],[-122.33046,37.91923],[-122.33187,37.92026],[-122.33859,37.92519],[-122.34295,37.92835],[-122.34634,37.93085],[-122.34882,37.93265],[-122.3515,37.93476],[-122.35261,37.93571],[-122.35304,37.93613],[-122.35378,37.93687],[-122.35383,37.9369],[-122.35422,37.93739],[-122.35548,37.93907],[-122.35599,37.93971],[-122.35663,37.94068],[-122.35709,37.94142],[-122.35772,37.94258],[-122.35832,37.94382],[-122.35887,37.94511],[-122.35943,37.94692],[-122.35964,37.94775],[-122.35982,37.94856],[-122.36007,37.95021],[-122.36017,37.95122],[-122.36018,37.95298],[-122.36013,37.95418],[-122.36003,37.95538],[-122.35926,37.96369],[-122.35893,37.96767],[-122.35855,37.97212],[-122.35806,37.9771],[-122.35776,37.98048],[-122.35707,37.98812],[-122.35649,37.99457],[-122.35638,37.99544],[-122.35619,37.99635],[-122.35593,37.99708],[-122.35556,37.99785],[-122.35506,37.99857],[-122.35446,37.99928],[-122.35377,37.99995],[-122.35293,38.00058],[-122.35217,38.00104],[-122.35122,38.00149],[-122.35012,38.00189],[-122.34903,38.00216],[-122.34787,38.00236],[-122.3468,38.00239],[-122.34585,38.0024],[-122.34486,38.00229],[-122.33906,38.00113],[-122.33722,38.00075],[-122.33635,38.00061],[-122.33524,38.00053],[-122.33431,38.00055],[-122.33328,38.00064],[-122.33227,38.0008],[-122.33139,38.00104],[-122.33051,38.00134],[-122.32952,38.00178],[-122.32789,38.00275],[-122.32424,38.00507],[-122.32276,38.00613],[-122.3206,38.0078],[-122.31787,38.01019],[-122.31732,38.01058],[-122.31672,38.01084],[-122.31614,38.01101],[-122.31561,38.0111],[-122.31504,38.01113],[-122.31454,38.0111],[-122.31391,38.01098],[-122.31294,38.0107],[-122.31,38.00989],[-122.30943,38.00983],[-122.30892,38.0098],[-122.30833,38.00986],[-122.30703,38.01011],[-122.30613,38.01028],[-122.30555,38.01035],[-122.30497,38.01038],[-122.30438,38.01036],[-122.30035,38.01009],[-122.29964,38.01009],[-122.29895,38.01019],[-122.29822,38.01041],[-122.29771,38.01067],[-122.29731,38.01093],[-122.2968,38.01131],[-122.29415,38.01375],[-122.29313,38.01482],[-122.29214,38.01598],[-122.2899,38.01888],[-122.28943,38.0194],[-122.28889,38.01988],[-122.28835,38.0202],[-122.28784,38.02042],[-122.2868,38.02075],[-122.28431,38.02145],[-122.28347,38.0217],[-122.283,38.0219],[-122.28253,38.02218],[-122.28214,38.02249],[-122.28174,38.02287],[-122.28135,38.02339],[-122.28099,38.02392],[-122.28064,38.02452],[-122.28007,38.02567],[-122.27976,38.02629],[-122.2794,38.02672],[-122.27892,38.02712],[-122.27772,38.02791],[-122.27725,38.02829],[-122.27667,38.02885],[-122.2763,38.02939],[-122.27536,38.03132],[-122.27509,38.03219],[-122.2749,38.03327],[-122.27469,38.03462],[-122.27458,38.03525],[-122.27442,38.0357],[-122.27415,38.03611],[-122.27387,38.03649],[-122.2735,38.03682],[-122.27304,38.03713],[-122.27228,38.03745],[-122.26899,38.03842],[-122.26578,38.03939],[-122.26497,38.03971],[-122.26431,38.04011],[-122.26382,38.04048],[-122.26324,38.04115],[-122.26292,38.04176],[-122.26275,38.04235],[-122.26179,38.04869],[-122.26165,38.04905],[-122.2615,38.04932],[-122.26128,38.04964],[-122.26098,38.04996],[-122.26067,38.05022],[-122.26027,38.05046],[-122.2597,38.05073],[-122.25892,38.05099],[-122.25828,38.0511],[-122.25751,38.05113],[-122.25508,38.05119],[-122.25194,38.05133],[-122.25084,38.05147],[-122.25009,38.05172],[-122.24931,38.05216],[-122.2488,38.05256],[-122.24737,38.05432],[-122.24675,38.05491],[-122.24603,38.05543],[-122.2451,38.05596],[-122.24317,38.05707],[-122.24233,38.05748],[-122.24168,38.05773],[-122.24111,38.05788],[-122.24061,38.05796],[-122.24009,38.05797],[-122.23958,38.05798],[-122.23909,38.05789],[-122.23739,38.05734],[-122.2364,38.05713],[-122.23094,38.0566],[-122.22918,38.05646],[-122.22511,38.05599],[-122.22345,38.05577],[-122.22246,38.0557],[-122.22168,38.05575],[-122.22099,38.05589],[-122.21973,38.05633],[-122.21854,38.05673],[-122.21787,38.0569],[-122.21741,38.05698],[-122.21692,38.05697],[-122.21637,38.05692],[-122.21528,38.0567],[-122.20682,38.0548],[-122.19976,38.0532],[-122.19857,38.05298],[-122.1976,38.05284],[-122.19306,38.0526],[-122.19213,38.05256],[-122.1914,38.05247],[-122.19089,38.05235],[-122.19039,38.05218],[-122.18698,38.05027],[-122.18576,38.04954],[-122.18503,38.04902],[-122.18309,38.04717],[-122.18245,38.04672],[-122.18018,38.0454],[-122.17957,38.0449],[-122.17904,38.04439],[-122.17805,38.0429],[-122.17683,38.04076],[-122.17633,38.04015],[-122.17581,38.03954],[-122.17536,38.03901],[-122.1751,38.03845],[-122.17494,38.03792],[-122.17453,38.03511],[-122.17437,38.03465],[-122.17412,38.03422],[-122.17368,38.03367],[-122.17322,38.03329],[-122.17176,38.03238],[-122.17127,38.03198],[-122.17087,38.03148],[-122.17038,38.0306],[-122.17005,38.03014],[-122.16968,38.02978],[-122.16927,38.02951],[-122.16833,38.02903],[-122.16541,38.02765],[-122.16217,38.02611],[-122.16125,38.02573],[-122.15935,38.02514],[-122.15296,38.02261],[-122.14862,38.02086],[-122.14521,38.01967],[-122.14429,38.01939],[-122.14355,38.01923],[-122.14302,38.01912],[-122.14242,38.01907],[-122.14146,38.01907],[-122.14019,38.01916],[-122.13874,38.01929],[-122.13871,38.01931],[-122.13719,38.01957],[-122.1357,38.01981],[-122.13489,38.02003],[-122.1342,38.02029],[-122.13346,38.02054],[-122.13295,38.02077],[-122.1303,38.02249],[-122.1295,38.02282],[-122.12872,38.0231],[-122.12789,38.02335],[-122.12577,38.02383],[-122.12201,38.02465],[-122.12001,38.02509],[-122.11899,38.02528],[-122.11731,38.0254],[-122.11303,38.02564],[-122.10938,38.0258],[-122.10384,38.02616],[-122.09992,38.02637],[-122.09836,38.02651],[-122.09715,38.02672],[-122.09603,38.02695],[-122.09533,38.02714],[-122.08736,38.02939],[-122.08042,38.03135],[-122.07875,38.03183],[-122.06683,38.03515],[-122.05226,38.03928],[-122.03852,38.04311],[-122.02337,38.04742],[-122.01657,38.04931],[-122.01541,38.04959],[-122.01427,38.04979],[-122.01312,38.04995],[-122.01167,38.05006],[-122.0107,38.05009],[-122.00966,38.05007],[-122.00875,38.05003],[-122.00753,38.04994],[-122.00661,38.04979],[-122.00564,38.04962],[-122.00466,38.04941],[-122.00068,38.0484],[-121.99354,38.04658],[-121.9802,38.0432],[-121.96444,38.03923],[-121.95165,38.03598],[-121.93484,38.03169],[-121.93178,38.03118],[-121.92567,38.02962],[-121.9243,38.02923],[-121.9216,38.02853],[-121.91974,38.02812],[-121.91741,38.02763],[-121.91429,38.02715],[-121.91195,38.02684],[-121.90866,38.02656],[-121.90689,38.0265],[-121.90277,38.0265],[-121.89694,38.02652],[-121.89214,38.02655],[-121.88385,38.02653],[-121.88272,38.02648],[-121.88141,38.02632],[-121.88027,38.02606],[-121.86768,38.02337],[-121.85184,38.01975],[-121.85001,38.01938],[-121.84898,38.01923],[-121.84753,38.01912],[-121.84663,38.0191],[-121.83651,38.01903],[-121.82937,38.01897],[-121.82806,38.01894],[-121.82646,38.01883],[-121.82441,38.01866],[-121.81977,38.01822],[-121.81706,38.01797],[-121.81615,38.01789],[-121.81622,38.01789],[-121.81442,38.01773],[-121.8134,38.01763],[-121.81259,38.01752],[-121.8118,38.01739],[-121.80988,38.01697],[-121.80814,38.01659],[-121.80622,38.01618],[-121.80493,38.01593],[-121.80338,38.01562],[-121.80165,38.01525],[-121.80021,38.01494],[-121.79839,38.01455],[-121.79612,38.01408],[-121.79263,38.01336],[-121.78964,38.0127],[-121.78754,38.01228],[-121.78517,38.01177],[-121.78433,38.01159],[-121.78329,38.01139],[-121.7824,38.01127],[-121.78157,38.01121],[-121.78064,38.01115],[-121.77987,38.01118],[-121.77387,38.01115],[-121.76924,38.0111],[-121.76539,38.01106],[-121.76427,38.01098],[-121.76261,38.01078],[-121.75839,38.01017],[-121.7558,38.00977],[-121.75426,38.00954],[-121.75185,38.00918],[-121.74941,38.00882],[-121.74603,38.00834],[-121.7428,38.00787],[-121.74203,38.00773],[-121.7414,38.0076],[-121.7399,38.00723],[-121.73668,38.00619],[-121.72907,38.0036],[-121.71919,38.00032],[-121.70989,37.9972],[-121.7024,37.9947],[-121.70026,37.99392],[-121.69896,37.9933],[-121.69723,37.99226],[-121.6937,37.98992],[-121.68917,37.987],[-121.685,37.98429],[-121.68339,37.98324],[-121.68118,37.98173],[-121.67582,37.97782],[-121.67081,37.97421],[-121.66469,37.96984],[-121.65687,37.96424],[-121.64807,37.95791],[-121.6446,37.95531],[-121.64074,37.95253],[-121.63093,37.94547],[-121.62796,37.94331],[-121.62537,37.94144],[-121.62452,37.94093],[-121.62372,37.94056],[-121.62306,37.94035],[-121.6222,37.94017],[-121.62142,37.94007],[-121.61727,37.94003],[-121.6117,37.94001],[-121.60545,37.94001],[-121.59916,37.93999],[-121.5944,37.93999],[-121.58888,37.93998],[-121.58444,37.93998],[-121.58025,37.93997],[-121.57449,37.93999],[-121.56997,37.93997],[-121.56383,37.93995],[-121.55849,37.93993],[-121.55358,37.93992],[-121.547,37.93992],[-121.54461,37.93993],[-121.5381,37.9399],[-121.53061,37.93986],[-121.5234,37.9398],[-121.5199,37.93957],[-121.51326,37.93926],[-121.50567,37.93885],[-121.49087,37.93793],[-121.48306,37.93751],[-121.47633,37.93709],[-121.47095,37.93678],[-121.46537,37.93647],[-121.4591,37.93614],[-121.45418,37.93585],[-121.44818,37.93551],[-121.44074,37.93506],[-121.43523,37.93474],[-121.42442,37.93411],[-121.42296,37.9341],[-121.41658,37.93413],[-121.41006,37.93414],[-121.40382,37.93413],[-121.39729,37.93415],[-121.39076,37.93418],[-121.38497,37.93416],[-121.37776,37.93416],[-121.37097,37.93414],[-121.36239,37.93418],[-121.35549,37.93419],[-121.35377,37.93417],[-121.3525,37.93429],[-121.35131,37.93443],[-121.34956,37.93468],[-121.34339,37.93567],[-121.33838,37.93648],[-121.33488,37.93703],[-121.33076,37.93765],[-121.32776,37.93815],[-121.32259,37.93902],[-121.32173,37.93916],[-121.31893,37.9396],[-121.3163,37.94003],[-121.31305,37.94057],[-121.31089,37.94092],[-121.30829,37.94132],[-121.3051,37.94184],[-121.30318,37.94216],[-121.29884,37.94291],[-121.29579,37.9434],[-121.29235,37.94396],[-121.28958,37.94444],[-121.28687,37.94491],[-121.28558,37.94513],[-121.28548,37.94514],[-121.28248,37.94563],[-121.27996,37.94606],[-121.27724,37.94653],[-121.27232,37.94738],[-121.27058,37.94767],[-121.2688,37.94802],[-121.26565,37.94873],[-121.26061,37.94991],[-121.25757,37.95065],[-121.2561,37.95087],[-121.25483,37.95091],[-121.25328,37.95086],[-121.251,37.95047],[-121.25025,37.95023],[-121.24873,37.94964],[-121.24402,37.94762],[-121.23838,37.94528],[-121.23705,37.94474],[-121.23566,37.9441],[-121.23433,37.94335],[-121.23241,37.94193],[-121.23021,37.94059],[-121.22791,37.93924],[-121.22457,37.93724],[-121.22101,37.93514],[-121.21766,37.93315],[-121.21588,37.93203],[-121.21395,37.93092],[-121.21142,37.92941],[-121.20848,37.92762],[-121.20685,37.92667],[-121.20462,37.92533],[-121.20191,37.92371],[-121.19834,37.9216],[-121.19304,37.91839],[-121.18811,37.91549],[-121.18286,37.91235],[-121.182,37.91162],[-121.17829,37.90928],[-121.17217,37.90557],[-121.16474,37.90112],[-121.15531,37.89552],[-121.14548,37.89006],[-121.13644,37.88463],[-121.1317,37.88178],[-121.1282,37.87973],[-121.12743,37.87923],[-121.12415,37.87731],[-121.12078,37.87522],[-121.11737,37.87321],[-121.1136,37.87095],[-121.10942,37.86843],[-121.10533,37.866],[-121.09813,37.86166],[-121.09183,37.85793],[-121.08536,37.85408],[-121.08106,37.85147],[-121.07671,37.84886],[-121.07193,37.84601],[-121.06803,37.84371],[-121.0645,37.84158],[-121.06163,37.83982],[-121.0577,37.83751],[-121.05417,37.83535],[-121.053,37.83467],[-121.04986,37.83278],[-121.04679,37.83095],[-121.04252,37.82839],[-121.03856,37.82601],[-121.03431,37.82347],[-121.03061,37.82125],[-121.02632,37.81865],[-121.02427,37.81742],[-121.02195,37.81587],[-121.01571,37.81114],[-121.0105,37.80717],[-121.00509,37.80313],[-120.99963,37.79891],[-120.99698,37.79698],[-120.99364,37.79441],[-120.98959,37.79139],[-120.98611,37.78876],[-120.98265,37.78613],[-120.97868,37.78317],[-120.97505,37.78041],[-120.97154,37.77775],[-120.96774,37.77486],[-120.96434,37.7723],[-120.96145,37.77013],[-120.95737,37.76706],[-120.95235,37.76324],[-120.95029,37.76165],[-120.94928,37.76067],[-120.94828,37.75948],[-120.94755,37.75848],[-120.94623,37.75603],[-120.94516,37.75261],[-120.94433,37.74977],[-120.94352,37.74712],[-120.94265,37.74408],[-120.94197,37.74191],[-120.94149,37.74024],[-120.94103,37.73875],[-120.94071,37.73758],[-120.94022,37.73624],[-120.93957,37.73458],[-120.93643,37.7269],[-120.93358,37.72033],[-120.93293,37.71872],[-120.93108,37.71432],[-120.92907,37.70946],[-120.92827,37.70755],[-120.92512,37.70005],[-120.92379,37.69688],[-120.92255,37.69391],[-120.92022,37.68823],[-120.91928,37.68596],[-120.91786,37.68256],[-120.91741,37.6814],[-120.91629,37.67875],[-120.91521,37.6762],[-120.91411,37.67353],[-120.91312,37.67111],[-120.91227,37.66918],[-120.91227,37.66917],[-120.91169,37.66774],[-120.91103,37.6661],[-120.91052,37.66454],[-120.9101,37.66301],[-120.90952,37.66087],[-120.9092,37.65953],[-120.90786,37.65457],[-120.90626,37.64834],[-120.90346,37.6374],[-120.90208,37.63239],[-120.9015,37.63015],[-120.90071,37.62725],[-120.89931,37.62204],[-120.89916,37.62144],[-120.89894,37.62083],[-120.89872,37.62041],[-120.89841,37.61996],[-120.89795,37.6194],[-120.89712,37.61869],[-120.89621,37.61794],[-120.89533,37.61725],[-120.89378,37.61604],[-120.89217,37.61477],[-120.89038,37.61333],[-120.88841,37.61175],[-120.88704,37.61071],[-120.88542,37.60947],[-120.88435,37.60863],[-120.88274,37.60735],[-120.88119,37.60614],[-120.88014,37.60531],[-120.87854,37.60404],[-120.8771,37.6029],[-120.87552,37.60166],[-120.87381,37.60035],[-120.87226,37.59908],[-120.87067,37.59776],[-120.86944,37.59677],[-120.86835,37.5958],[-120.86507,37.59262],[-120.85336,37.5812],[-120.82647,37.55492],[-120.81247,37.54121],[-120.81112,37.53987],[-120.80939,37.53818],[-120.80528,37.5342],[-120.80251,37.53148],[-120.80071,37.52971],[-120.7988,37.52781],[-120.79817,37.52722],[-120.79817,37.52722],[-120.7963,37.52538],[-120.79455,37.52367],[-120.79277,37.52195],[-120.79131,37.52054],[-120.78952,37.51879],[-120.78699,37.51629],[-120.78437,37.51371],[-120.77075,37.50045],[-120.76612,37.49587],[-120.76321,37.49303],[-120.76093,37.49078],[-120.7581,37.48806],[-120.75577,37.48576],[-120.75402,37.48401],[-120.75258,37.48274],[-120.7415,37.47579],[-120.736,37.47234],[-120.73167,37.46966],[-120.7268,37.4666],[-120.72165,37.46339],[-120.71831,37.4613],[-120.7152,37.45936],[-120.71149,37.45706],[-120.70664,37.454],[-120.70248,37.45141],[-120.6979,37.44856],[-120.6938,37.44603],[-120.69066,37.44407],[-120.68713,37.44186],[-120.68298,37.43925],[-120.6798,37.43729],[-120.67842,37.43632],[-120.67723,37.4353],[-120.67672,37.43462],[-120.67608,37.43357],[-120.6756,37.4324],[-120.67467,37.42963],[-120.67358,37.42622],[-120.67258,37.42357],[-120.67197,37.42259],[-120.67144,37.42194],[-120.67063,37.42118],[-120.66988,37.42063],[-120.66789,37.41933],[-120.66517,37.41764],[-120.66196,37.41567],[-120.65823,37.41333],[-120.65634,37.41215],[-120.6529,37.41001],[-120.64948,37.4079],[-120.64658,37.40609],[-120.64384,37.40441],[-120.64069,37.40243],[-120.63854,37.40108],[-120.63597,37.3995],[-120.63342,37.39794],[-120.63066,37.3962],[-120.62796,37.39453],[-120.62553,37.393],[-120.62287,37.39137],[-120.62008,37.38961],[-120.61711,37.38776],[-120.61399,37.38583],[-120.61187,37.38452],[-120.60976,37.38319],[-120.60752,37.3818],[-120.60557,37.38058],[-120.60314,37.37906],[-120.60031,37.37731],[-120.59806,37.37591],[-120.59541,37.37425],[-120.59316,37.37286],[-120.5909,37.37147],[-120.58823,37.36982],[-120.58577,37.36828],[-120.5831,37.36662],[-120.57996,37.36467],[-120.57716,37.3629],[-120.57463,37.36134],[-120.57215,37.35979],[-120.56908,37.35789],[-120.56588,37.35586],[-120.56429,37.35487],[-120.56133,37.35304],[-120.55885,37.35148],[-120.55597,37.34969],[-120.55313,37.34792],[-120.5497,37.34579],[-120.54727,37.34424],[-120.5414,37.34058],[-120.53359,37.33573],[-120.5285,37.33255],[-120.5238,37.32961],[-120.51899,37.32657],[-120.51431,37.32366],[-120.51029,37.32119],[-120.50772,37.31958],[-120.50532,37.31824],[-120.50187,37.31671],[-120.49641,37.3147],[-120.49053,37.31256],[-120.48072,37.30893],[-120.47672,37.30747],[-120.47672,37.30747],[-120.47472,37.30673],[-120.47215,37.30579],[-120.47095,37.30537],[-120.46912,37.3047],[-120.46677,37.30381],[-120.46501,37.30319],[-120.46309,37.30249],[-120.46144,37.30187],[-120.45966,37.30122],[-120.45766,37.30049],[-120.45564,37.29975],[-120.45347,37.29896],[-120.45147,37.29823],[-120.44971,37.29756],[-120.44782,37.29684],[-120.44625,37.29628],[-120.44405,37.29546],[-120.44361,37.29533],[-120.44303,37.2952],[-120.44193,37.295],[-120.44011,37.29493],[-120.43777,37.29492],[-120.43541,37.29489],[-120.43323,37.2949],[-120.43129,37.2949],[-120.4292,37.29488],[-120.42774,37.29488],[-120.42617,37.29487],[-120.4233,37.29488],[-120.42048,37.2949],[-120.41453,37.29497],[-120.41169,37.29499],[-120.40908,37.29499],[-120.4063,37.29504],[-120.40397,37.29511],[-120.40034,37.29521],[-120.39712,37.29531],[-120.39223,37.29545],[-120.38848,37.29555],[-120.38569,37.29563],[-120.37875,37.29584],[-120.37439,37.29585],[-120.36305,37.29565],[-120.35314,37.29552],[-120.34718,37.29544],[-120.34316,37.29541],[-120.33853,37.2953],[-120.33362,37.29526],[-120.3315,37.29516],[-120.33029,37.29499],[-120.32936,37.29479],[-120.32809,37.29434],[-120.32665,37.29356],[-120.32515,37.29246],[-120.32099,37.28909],[-120.31927,37.28773],[-120.31519,37.28442],[-120.31202,37.28188],[-120.30949,37.2799],[-120.30685,37.27778],[-120.3049,37.27619],[-120.30241,37.2742],[-120.30026,37.2725],[-120.2978,37.27049],[-120.29628,37.26931],[-120.2946,37.26793],[-120.29296,37.26661],[-120.29115,37.26517],[-120.28742,37.26216],[-120.28392,37.25937],[-120.27723,37.25408],[-120.26858,37.2471],[-120.26075,37.24075],[-120.25608,37.23702],[-120.25281,37.23439],[-120.25049,37.23255],[-120.246,37.22897],[-120.24129,37.22522],[-120.23652,37.22137],[-120.23083,37.21679],[-120.2257,37.21263],[-120.22152,37.20925],[-120.21676,37.20545],[-120.21164,37.20129],[-120.20604,37.19686],[-120.20024,37.19216],[-120.19487,37.18784],[-120.18999,37.1839],[-120.18472,37.17969],[-120.18245,37.17775],[-120.18158,37.17677],[-120.18057,37.17547],[-120.17986,37.1742],[-120.1775,37.1694],[-120.17442,37.16303],[-120.1719,37.15881],[-120.1665,37.15002],[-120.16091,37.14098],[-120.15322,37.12955],[-120.14518,37.11836],[-120.14257,37.1149],[-120.1368,37.10692],[-120.13054,37.09823],[-120.12573,37.09148],[-120.12063,37.08446],[-120.11509,37.07669],[-120.11015,37.06989],[-120.1084,37.06739],[-120.10416,37.06154],[-120.10306,37.06001],[-120.09976,37.05547],[-120.0971,37.05173],[-120.09289,37.04586],[-120.09031,37.0423],[-120.08769,37.03869],[-120.08523,37.03526],[-120.08082,37.02892],[-120.07747,37.02456],[-120.07673,37.02381],[-120.07527,37.02257],[-120.07527,37.02256],[-120.07276,37.02049],[-120.07052,37.01865],[-120.06813,37.01669],[-120.06587,37.01482],[-120.06328,37.01273],[-120.06079,37.01067],[-120.05816,37.00849],[-120.05558,37.00639],[-120.05357,37.00473],[-120.05131,37.00286],[-120.04841,37.00048],[-120.04571,36.99821],[-120.04297,36.99597],[-120.03987,36.9933],[-120.03655,36.99063],[-120.03344,36.98806],[-120.029,36.98449],[-120.02764,36.98331],[-120.02521,36.98131],[-120.02265,36.97864],[-120.02019,36.9758],[-120.01623,36.97127],[-120.01402,36.9688],[-120.01159,36.96599],[-120.00668,36.96041],[-120.00225,36.9554],[-119.99661,36.94901],[-119.99127,36.94302],[-119.9857,36.93674],[-119.97881,36.92904],[-119.97446,36.92413],[-119.97111,36.92025],[-119.96354,36.91161],[-119.94991,36.89621],[-119.93995,36.88499],[-119.93054,36.87437],[-119.92129,36.86387],[-119.91583,36.85772],[-119.91298,36.85502],[-119.90899,36.85205],[-119.90077,36.84676],[-119.89271,36.84149],[-119.87861,36.8324],[-119.86631,36.82446],[-119.85376,36.81637],[-119.84275,36.80926],[-119.82274,36.79629],[-119.80941,36.78756],[-119.80745,36.78579],[-119.80576,36.78378],[-119.79882,36.77468],[-119.79017,36.76349],[-119.78825,36.76104],[-119.78783,36.76051],[-119.78749,36.75994],[-119.7873,36.75935],[-119.78722,36.75902],[-119.7872,36.75866],[-119.7872,36.75375],[-119.7871,36.74378],[-119.78709,36.74359],[-119.78706,36.74338],[-119.787,36.74317],[-119.7869,36.7429],[-119.78676,36.74265],[-119.78663,36.74247],[-119.78647,36.74227],[-119.78633,36.74213],[-119.78254,36.73863],[-119.7825,36.73859],[-119.77357,36.73048],[-119.77317,36.73001],[-119.77282,36.72944],[-119.7726,36.72892],[-119.77249,36.72842],[-119.77244,36.72804],[-119.77244,36.72632],[-119.77245,36.72282],[-119.77251,36.71595],[-119.77251,36.71531],[-119.77245,36.71481],[-119.77232,36.71426],[-119.77205,36.71368],[-119.77182,36.7133],[-119.77159,36.71301],[-119.77118,36.71255],[-119.77024,36.7117],[-119.76657,36.70836],[-119.76419,36.70623],[-119.76366,36.70586],[-119.76109,36.70412],[-119.75754,36.70174],[-119.75284,36.69853],[-119.75216,36.69799],[-119.75152,36.69733],[-119.75103,36.69661],[-119.75064,36.69575],[-119.75047,36.69506],[-119.75039,36.69397],[-119.75023,36.6911],[-119.75015,36.67797],[-119.75017,36.67612],[-119.75019,36.65698],[-119.75021,36.63359],[-119.75036,36.61438],[-119.75029,36.60306],[-119.75021,36.60132],[-119.75007,36.5996],[-119.74977,36.59814],[-119.74705,36.58693],[-119.74578,36.58179],[-119.74447,36.57634],[-119.7432,36.57107],[-119.74183,36.56526],[-119.74155,36.56421],[-119.74032,36.55952],[-119.73935,36.55577],[-119.73906,36.55503],[-119.73579,36.54739],[-119.73272,36.54022],[-119.72762,36.52849],[-119.71845,36.5071],[-119.71111,36.48995],[-119.70355,36.4727],[-119.69804,36.45989],[-119.696,36.4552],[-119.69124,36.44415],[-119.6882,36.43716],[-119.68697,36.43433],[-119.6859,36.43178],[-119.68561,36.43122],[-119.68522,36.43064],[-119.68485,36.43023],[-119.68427,36.42971],[-119.68368,36.42931],[-119.68299,36.42895],[-119.68062,36.42785],[-119.67903,36.42711],[-119.67795,36.42648],[-119.67728,36.42596],[-119.6767,36.42546],[-119.67626,36.42503],[-119.67466,36.42302],[-119.67346,36.42152],[-119.67269,36.42053],[-119.67205,36.41974],[-119.67108,36.41849],[-119.66946,36.41644],[-119.66788,36.41444],[-119.66681,36.4132],[-119.66588,36.41203],[-119.66538,36.41134],[-119.66484,36.4106],[-119.66449,36.41001],[-119.66422,36.40936],[-119.6641,36.40899],[-119.664,36.40851],[-119.66399,36.40717],[-119.66399,36.39885],[-119.66398,36.39445],[-119.66404,36.38401],[-119.66402,36.37763],[-119.66402,36.35726],[-119.66398,36.34743],[-119.66389,36.34669],[-119.66372,36.34603],[-119.66333,36.34526],[-119.65766,36.33584],[-119.65321,36.32856],[-119.65297,36.3281],[-119.65264,36.32748],[-119.65237,36.32685],[-119.65215,36.32602],[-119.65126,36.32228],[-119.65089,36.32063],[-119.64969,36.31378],[-119.6488,36.30846],[-119.64825,36.30536],[-119.64785,36.30306],[-119.6475,36.30115],[-119.64678,36.2967],[-119.64603,36.29243],[-119.64596,36.29182],[-119.64588,36.29082],[-119.64589,36.28881],[-119.64589,36.2786],[-119.64591,36.26948],[-119.64588,36.26136],[-119.6459,36.25486],[-119.64589,36.24721],[-119.64588,36.24376],[-119.64587,36.22766],[-119.64585,36.22429],[-119.64585,36.22374],[-119.64579,36.22303],[-119.64571,36.22228],[-119.6456,36.22165],[-119.64541,36.22097],[-119.6452,36.22031],[-119.64488,36.21936],[-119.64437,36.21824],[-119.64388,36.21734],[-119.64127,36.2137],[-119.63614,36.20668],[-119.62887,36.19675],[-119.62367,36.18966],[-119.61008,36.17092],[-119.60568,36.16503],[-119.58327,36.13437],[-119.56724,36.11247],[-119.55798,36.09991],[-119.55694,36.09843],[-119.55685,36.09833],[-119.55168,36.09121],[-119.54474,36.08167],[-119.53618,36.06991],[-119.52708,36.05762],[-119.52042,36.04841],[-119.51338,36.03888],[-119.50705,36.03018],[-119.50111,36.02203],[-119.49446,36.01292],[-119.48549,36.00061],[-119.47768,35.99003],[-119.47167,35.9819],[-119.46438,35.97162],[-119.45831,35.96357],[-119.44881,35.95041],[-119.44232,35.94155],[-119.43514,35.93172],[-119.4279,35.92182],[-119.42212,35.9139],[-119.41528,35.9044],[-119.40742,35.89382],[-119.399,35.88219],[-119.39319,35.87428],[-119.38708,35.86593],[-119.3809,35.85736],[-119.37723,35.85235],[-119.37601,35.84983],[-119.37469,35.84615],[-119.37135,35.83608],[-119.36788,35.82604],[-119.36494,35.81776],[-119.36111,35.80646],[-119.35727,35.79557],[-119.35465,35.78774],[-119.35275,35.78214],[-119.34855,35.76996],[-119.34432,35.75809],[-119.3409,35.7479],[-119.33806,35.73937],[-119.33462,35.7299],[-119.33147,35.7202],[-119.33113,35.71931],[-119.33081,35.7181],[-119.33063,35.71664],[-119.33125,35.64714],[-119.33161,35.61348],[-119.33179,35.5958],[-119.33178,35.59423],[-119.33182,35.59416],[-119.33181,35.59394],[-119.3319,35.58723],[-119.33203,35.56983],[-119.33205,35.56593],[-119.33206,35.56487],[-119.33205,35.56402],[-119.33193,35.5631],[-119.33181,35.56225],[-119.33158,35.56114],[-119.33095,35.55951],[-119.33041,35.55841],[-119.32573,35.54937],[-119.32277,35.54396],[-119.32234,35.54339],[-119.32191,35.54277],[-119.32141,35.54222],[-119.32066,35.54139],[-119.31982,35.54064],[-119.31844,35.53948],[-119.31545,35.53704],[-119.31335,35.53532],[-119.29676,35.52191],[-119.28399,35.51144],[-119.27505,35.50408],[-119.26057,35.49219],[-119.24121,35.47658],[-119.23341,35.47007],[-119.20585,35.44752],[-119.18972,35.43437],[-119.16634,35.41505],[-119.1644,35.41341],[-119.15811,35.40827],[-119.14971,35.40149],[-119.14342,35.39622],[-119.13627,35.39045],[-119.13099,35.38592],[-119.12416,35.3804],[-119.12287,35.37933],[-119.12154,35.37832],[-119.12093,35.37792],[-119.12011,35.37747],[-119.11939,35.37716],[-119.11866,35.3769],[-119.11788,35.3767],[-119.11725,35.37657],[-119.11665,35.37649],[-119.11603,35.37644],[-119.11546,35.37642],[-119.11469,35.37639],[-119.11017,35.37638],[-119.10756,35.37638],[-119.10407,35.37638],[-119.10172,35.37636],[-119.08541,35.37632],[-119.06836,35.37627],[-119.06532,35.37626],[-119.06445,35.37623],[-119.06379,35.37614],[-119.06314,35.37601],[-119.06262,35.37589],[-119.06212,35.37571],[-119.06156,35.37547],[-119.06062,35.37496],[-119.05885,35.37388],[-119.0567,35.37259],[-119.05598,35.37214],[-119.05527,35.37182],[-119.05437,35.3716],[-119.05368,35.3715],[-119.04422,35.37148],[-119.02919,35.37142],[-119.01419,35.37141],[-119.01135,35.37141],[-119.011,35.37145],[-119.01046,35.37156],[-119.00981,35.37171],[-119.00765,35.372]]},"properties":{"routeId":"13510","name":"Gold Runner","shortName":"","color":"#1A6B8A","textColor":"#000000","system":"sanjoaquins"}}]}