{"type":"FeatureCollection","features":[{"type":"Feature","geometry":{"type":"Point","coordinates":[-121.28562,37.94526]},"properties":{"name":"Stockton","stopId":"2535896","system":"sanjoaquins","routes":["13510"],"colors":["#1A6B8A"]}},{"type":"Feature","geometry":{"type":"Point","coordinates":[-121.27177,38.13319]},"properties":{"name":"Lodi","stopId":"2535899","system":"sanjoaquins","routes":["13510"],"colors":["#1A6B8A"]}},{"type":"Feature","geometry":{"type":"Point","coordinates":[-121.5007,38.58403]},"properties":{"name":"Sacramento","stopId":"2535901","system":"sanjoaquins","routes":["13510"],"colors":["#1A6B8A"]}},{"type":"Feature","geometry":{"type":"Point","coordinates":[-120.79809,37.52728]},"properties":{"name":"Turlock-Denair","stopId":"2535905","system":"sanjoaquins","routes":["13510"],"colors":["#1A6B8A"]}},{"type":"Feature","geometry":{"type":"Point","coordinates":[-121.81617,38.01776]},"properties":{"name":"Antioch-Pittsburg","stopId":"2535909","system":"sanjoaquins","routes":["13510"],"colors":["#1A6B8A"]}},{"type":"Feature","geometry":{"type":"Point","coordinates":[-120.91238,37.6691]},"properties":{"name":"Modesto","stopId":"2535910","system":"sanjoaquins","routes":["13510"],"colors":["#1A6B8A"]}},{"type":"Feature","geometry":{"type":"Point","coordinates":[-120.47673,37.30737]},"properties":{"name":"Merced","stopId":"2535911","system":"sanjoaquins","routes":["13510"],"colors":["#1A6B8A"]}},{"type":"Feature","geometry":{"type":"Point","coordinates":[-120.07511,37.02255]},"properties":{"name":"Madera","stopId":"2535912","system":"sanjoaquins","routes":["13510"],"colors":["#1A6B8A"]}},{"type":"Feature","geometry":{"type":"Point","coordinates":[-119.78266,36.73844]},"properties":{"name":"Fresno","stopId":"2535913","system":"sanjoaquins","routes":["13510"],"colors":["#1A6B8A"]}},{"type":"Feature","geometry":{"type":"Point","coordinates":[-119.00769,35.37213]},"properties":{"name":"Bakersfield","stopId":"2584555","system":"sanjoaquins","routes":["13510"],"colors":["#1A6B8A"]}},{"type":"Feature","geometry":{"type":"Point","coordinates":[-119.33195,35.59417]},"properties":{"name":"Wasco","stopId":"2584556","system":"sanjoaquins","routes":["13510"],"colors":["#1A6B8A"]}},{"type":"Feature","geometry":{"type":"Point","coordinates":[-119.55704,36.09836]},"properties":{"name":"Corcoran","stopId":"2584557","system":"sanjoaquins","routes":["13510"],"colors":["#1A6B8A"]}},{"type":"Feature","geometry":{"type":"Point","coordinates":[-119.65207,36.32603]},"properties":{"name":"Hanford","stopId":"2584558","system":"sanjoaquins","routes":["13510"],"colors":["#1A6B8A"]}},{"type":"Feature","geometry":{"type":"Point","coordinates":[-122.13872,38.0192]},"properties":{"name":"Martinez","stopId":"2584559","system":"sanjoaquins","routes":["13510"],"colors":["#1A6B8A"]}},{"type":"Feature","geometry":{"type":"Point","coordinates":[-122.3539,37.93687]},"properties":{"name":"Richmond","stopId":"2584560","system":"sanjoaquins","routes":["13510"],"colors":["#1A6B8A"]}},{"type":"Feature","geometry":{"type":"Point","coordinates":[-122.29197,37.84046]},"properties":{"name":"Emeryville","stopId":"2584561","system":"sanjoaquins","routes":["13510"],"colors":["#1A6B8A"]}},{"type":"Feature","geometry":{"type":"Point","coordinates":[-122.27174,37.79357]},"properties":{"name":"Oakland","stopId":"2584562","system":"sanjoaquins","routes":["13510"],"colors":["#1A6B8A"]}}]}