{"type":"FeatureCollection","features":[{"type":"Feature","geometry":{"type":"Point","coordinates":[-117.15338,32.706]},"properties":{"name":"12th & Imperial","stopId":"12tS","system":"sdtrolley","routes":["510","520"],"colors":["#0000FF","#FF6600"]}},{"type":"Feature","geometry":{"type":"Point","coordinates":[-117.10802,32.66185]},"properties":{"name":"24th Street","stopId":"24tS","system":"sdtrolley","routes":["510"],"colors":["#0000FF"]}},{"type":"Feature","geometry":{"type":"Point","coordinates":[-117.1402,32.70531]},"properties":{"name":"25th & Commercial St","stopId":"25tS","system":"sdtrolley","routes":["520"],"colors":["#FF6600"]}},{"type":"Feature","geometry":{"type":"Point","coordinates":[-117.12456,32.70592]},"properties":{"name":"32nd & Commercial St","stopId":"32nS","system":"sdtrolley","routes":["520"],"colors":["#FF6600"]}},{"type":"Feature","geometry":{"type":"Point","coordinates":[-117.09491,32.70845]},"properties":{"name":"47th Street","stopId":"47tS","system":"sdtrolley","routes":["520"],"colors":["#FF6600"]}},{"type":"Feature","geometry":{"type":"Point","coordinates":[-117.1597,32.71676]},"properties":{"name":"5th Avenue","stopId":"5thS","system":"sdtrolley","routes":["510","520"],"colors":["#0000FF","#FF6600"]}},{"type":"Feature","geometry":{"type":"Point","coordinates":[-117.06321,32.71012]},"properties":{"name":"Encanto/62nd St","stopId":"62nS","system":"sdtrolley","routes":["520"],"colors":["#FF6600"]}},{"type":"Feature","geometry":{"type":"Point","coordinates":[-117.04247,32.77225]},"properties":{"name":"70th Street","stopId":"70tS","system":"sdtrolley","routes":["530"],"colors":["#009900"]}},{"type":"Feature","geometry":{"type":"Point","coordinates":[-117.02954,32.54457]},"properties":{"name":"San Ysidro","stopId":"75000","system":"sdtrolley","routes":["510"],"colors":["#0000FF"]}},{"type":"Feature","geometry":{"type":"Point","coordinates":[-117.04706,32.55766]},"properties":{"name":"Beyer Blvd","stopId":"75002","system":"sdtrolley","routes":["510"],"colors":["#0000FF"]}},{"type":"Feature","geometry":{"type":"Point","coordinates":[-117.06718,32.56976]},"properties":{"name":"Iris Avenue","stopId":"75004","system":"sdtrolley","routes":["510"],"colors":["#0000FF"]}},{"type":"Feature","geometry":{"type":"Point","coordinates":[-117.08375,32.58478]},"properties":{"name":"Palm Avenue","stopId":"75006","system":"sdtrolley","routes":["510"],"colors":["#0000FF"]}},{"type":"Feature","geometry":{"type":"Point","coordinates":[-117.08508,32.60329]},"properties":{"name":"Palomar Street","stopId":"75008","system":"sdtrolley","routes":["510"],"colors":["#0000FF"]}},{"type":"Feature","geometry":{"type":"Point","coordinates":[-117.09558,32.63018]},"properties":{"name":"H Street","stopId":"75010","system":"sdtrolley","routes":["510"],"colors":["#0000FF"]}},{"type":"Feature","geometry":{"type":"Point","coordinates":[-117.09906,32.63911]},"properties":{"name":"E Street","stopId":"75012","system":"sdtrolley","routes":["510"],"colors":["#0000FF"]}},{"type":"Feature","geometry":{"type":"Point","coordinates":[-117.1131,32.67502]},"properties":{"name":"8th Street","stopId":"75016","system":"sdtrolley","routes":["510"],"colors":["#0000FF"]}},{"type":"Feature","geometry":{"type":"Point","coordinates":[-117.14666,32.69813]},"properties":{"name":"Barrio Logan","stopId":"75018","system":"sdtrolley","routes":["510"],"colors":["#0000FF"]}},{"type":"Feature","geometry":{"type":"Point","coordinates":[-116.98113,32.84156]},"properties":{"name":"Santee Town Center","stopId":"75020","system":"sdtrolley","routes":["530"],"colors":["#009900"]}},{"type":"Feature","geometry":{"type":"Point","coordinates":[-116.98208,32.827]},"properties":{"name":"Gillespie Field","stopId":"75022","system":"sdtrolley","routes":["530"],"colors":["#009900"]}},{"type":"Feature","geometry":{"type":"Point","coordinates":[-116.97568,32.80466]},"properties":{"name":"Arnele Avenue","stopId":"75024","system":"sdtrolley","routes":["530","520"],"colors":["#009900","#FF6600"]}},{"type":"Feature","geometry":{"type":"Point","coordinates":[-116.97614,32.79207]},"properties":{"name":"El Cajon","stopId":"75026","system":"sdtrolley","routes":["530","520"],"colors":["#009900","#FF6600"]}},{"type":"Feature","geometry":{"type":"Point","coordinates":[-117.00186,32.78541]},"properties":{"name":"Amaya Drive","stopId":"75028","system":"sdtrolley","routes":["530","520"],"colors":["#009900","#FF6600"]}},{"type":"Feature","geometry":{"type":"Point","coordinates":[-117.01127,32.78164]},"properties":{"name":"Grossmont","stopId":"75030","system":"sdtrolley","routes":["530","520"],"colors":["#009900","#FF6600"]}},{"type":"Feature","geometry":{"type":"Point","coordinates":[-117.02057,32.76514]},"properties":{"name":"La Mesa Blvd","stopId":"75034","system":"sdtrolley","routes":["520"],"colors":["#FF6600"]}},{"type":"Feature","geometry":{"type":"Point","coordinates":[-117.01739,32.75691]},"properties":{"name":"Spring Street","stopId":"75036","system":"sdtrolley","routes":["520"],"colors":["#FF6600"]}},{"type":"Feature","geometry":{"type":"Point","coordinates":[-117.03065,32.74348]},"properties":{"name":"Lemon Grove Depot","stopId":"75038","system":"sdtrolley","routes":["520"],"colors":["#FF6600"]}},{"type":"Feature","geometry":{"type":"Point","coordinates":[-117.03949,32.72356]},"properties":{"name":"Massachusetts Ave","stopId":"75040","system":"sdtrolley","routes":["520"],"colors":["#FF6600"]}},{"type":"Feature","geometry":{"type":"Point","coordinates":[-117.19949,32.75491]},"properties":{"name":"Old Town","stopId":"75042","system":"sdtrolley","routes":["530"],"colors":["#009900"]}},{"type":"Feature","geometry":{"type":"Point","coordinates":[-117.19656,32.76353]},"properties":{"name":"Morena/Linda Vista","stopId":"75044","system":"sdtrolley","routes":["530"],"colors":["#009900"]}},{"type":"Feature","geometry":{"type":"Point","coordinates":[-117.16915,32.76547]},"properties":{"name":"Fashion Valley","stopId":"75046","system":"sdtrolley","routes":["530"],"colors":["#009900"]}},{"type":"Feature","geometry":{"type":"Point","coordinates":[-117.15815,32.77026]},"properties":{"name":"Hazard Center","stopId":"75048","system":"sdtrolley","routes":["530"],"colors":["#009900"]}},{"type":"Feature","geometry":{"type":"Point","coordinates":[-117.14986,32.77108]},"properties":{"name":"Mission Valley Center","stopId":"75050","system":"sdtrolley","routes":["530"],"colors":["#009900"]}},{"type":"Feature","geometry":{"type":"Point","coordinates":[-117.14197,32.77363]},"properties":{"name":"Rio Vista","stopId":"75052","system":"sdtrolley","routes":["530"],"colors":["#009900"]}},{"type":"Feature","geometry":{"type":"Point","coordinates":[-117.12724,32.77827]},"properties":{"name":"Fenton Parkway","stopId":"75054","system":"sdtrolley","routes":["530"],"colors":["#009900"]}},{"type":"Feature","geometry":{"type":"Point","coordinates":[-117.1111,32.78098]},"properties":{"name":"Mission San Diego","stopId":"75058","system":"sdtrolley","routes":["530"],"colors":["#009900"]}},{"type":"Feature","geometry":{"type":"Point","coordinates":[-117.09738,32.7804]},"properties":{"name":"Grantville","stopId":"75060","system":"sdtrolley","routes":["530"],"colors":["#009900"]}},{"type":"Feature","geometry":{"type":"Point","coordinates":[-117.07064,32.77327]},"properties":{"name":"SDSU","stopId":"75062","system":"sdtrolley","routes":["530"],"colors":["#009900"]}},{"type":"Feature","geometry":{"type":"Point","coordinates":[-117.05671,32.77731]},"properties":{"name":"Alvarado","stopId":"75064","system":"sdtrolley","routes":["530"],"colors":["#009900"]}},{"type":"Feature","geometry":{"type":"Point","coordinates":[-117.08613,32.70958]},"properties":{"name":"Euclid Ave","stopId":"75068","system":"sdtrolley","routes":["520"],"colors":["#FF6600"]}},{"type":"Feature","geometry":{"type":"Point","coordinates":[-117.12475,32.70577]},"properties":{"name":"32nd/Commercial St","stopId":"75072","system":"sdtrolley","routes":["520"],"colors":["#FF6600"]}},{"type":"Feature","geometry":{"type":"Point","coordinates":[-117.18447,32.74172]},"properties":{"name":"Washington Street","stopId":"75076","system":"sdtrolley","routes":["530"],"colors":["#009900"]}},{"type":"Feature","geometry":{"type":"Point","coordinates":[-117.17492,32.73379]},"properties":{"name":"Middletown","stopId":"75078","system":"sdtrolley","routes":["530"],"colors":["#009900"]}},{"type":"Feature","geometry":{"type":"Point","coordinates":[-117.1699,32.72149]},"properties":{"name":"County Center/Little Italy","stopId":"75080","system":"sdtrolley","routes":["530"],"colors":["#009900"]}},{"type":"Feature","geometry":{"type":"Point","coordinates":[-117.16986,32.71733]},"properties":{"name":"Santa Fe Depot","stopId":"75082","system":"sdtrolley","routes":["530"],"colors":["#009900"]}},{"type":"Feature","geometry":{"type":"Point","coordinates":[-117.16881,32.71663]},"properties":{"name":"America Plaza","stopId":"75085","system":"sdtrolley","routes":["510"],"colors":["#0000FF"]}},{"type":"Feature","geometry":{"type":"Point","coordinates":[-117.16247,32.71671]},"properties":{"name":"Civic Center","stopId":"75086","system":"sdtrolley","routes":["510","520"],"colors":["#0000FF","#FF6600"]}},{"type":"Feature","geometry":{"type":"Point","coordinates":[-117.15968,32.71679]},"properties":{"name":"Fifth Avenue","stopId":"75088","system":"sdtrolley","routes":["510","520"],"colors":["#0000FF","#FF6600"]}},{"type":"Feature","geometry":{"type":"Point","coordinates":[-117.15417,32.71629]},"properties":{"name":"City College","stopId":"75090","system":"sdtrolley","routes":["510","520"],"colors":["#0000FF","#FF6600"]}},{"type":"Feature","geometry":{"type":"Point","coordinates":[-117.15372,32.71106]},"properties":{"name":"Park & Market","stopId":"75092","system":"sdtrolley","routes":["510","520"],"colors":["#0000FF","#FF6600"]}},{"type":"Feature","geometry":{"type":"Point","coordinates":[-117.16845,32.71174]},"properties":{"name":"Seaport Village","stopId":"75094","system":"sdtrolley","routes":["530"],"colors":["#009900"]}},{"type":"Feature","geometry":{"type":"Point","coordinates":[-117.16346,32.70898]},"properties":{"name":"Convention Center","stopId":"75096","system":"sdtrolley","routes":["530"],"colors":["#009900"]}},{"type":"Feature","geometry":{"type":"Point","coordinates":[-117.15976,32.70694]},"properties":{"name":"Gaslamp Quarter","stopId":"75098","system":"sdtrolley","routes":["530"],"colors":["#009900"]}},{"type":"Feature","geometry":{"type":"Point","coordinates":[-117.13286,32.69133]},"properties":{"name":"Harborside","stopId":"75104","system":"sdtrolley","routes":["510"],"colors":["#0000FF"]}},{"type":"Feature","geometry":{"type":"Point","coordinates":[-117.12479,32.6861]},"properties":{"name":"Pacific Fleet","stopId":"75106","system":"sdtrolley","routes":["510"],"colors":["#0000FF"]}},{"type":"Feature","geometry":{"type":"Point","coordinates":[-117.16602,32.71672]},"properties":{"name":"Courthouse","stopId":"75109","system":"sdtrolley","routes":["520"],"colors":["#FF6600"]}}]}