{"type":"FeatureCollection","features":[{"type":"Feature","geometry":{"type":"LineString","coordinates":[[-117.02941,32.54441],[-117.02969,32.54477],[-117.02996,32.54505],[-117.0305,32.54555],[-117.03079,32.54587],[-117.03087,32.546],[-117.03093,32.54615],[-117.03109,32.54669],[-117.03125,32.54699],[-117.03134,32.54707],[-117.03294,32.54836],[-117.03602,32.55064],[-117.03638,32.551],[-117.03676,32.55145],[-117.0371,32.5518],[-117.03801,32.55251],[-117.0391,32.55329],[-117.03976,32.55373],[-117.04044,32.55412],[-117.04222,32.55506],[-117.04408,32.55606],[-117.04716,32.55767],[-117.04716,32.55767],[-117.05182,32.5601],[-117.0528,32.56063],[-117.05365,32.56115],[-117.05728,32.56348],[-117.06013,32.56526],[-117.06493,32.56829],[-117.06722,32.56974],[-117.06722,32.56974],[-117.07731,32.57611],[-117.08088,32.57834],[-117.08136,32.57868],[-117.08172,32.57898],[-117.08207,32.57933],[-117.08261,32.57995],[-117.0828,32.58021],[-117.08312,32.58076],[-117.08328,32.58107],[-117.08344,32.58145],[-117.08358,32.58185],[-117.08366,32.5822],[-117.08373,32.58263],[-117.08378,32.58315],[-117.08379,32.58534],[-117.08379,32.58534],[-117.08379,32.58618],[-117.08377,32.58737],[-117.08385,32.59624],[-117.08383,32.59676],[-117.08384,32.59764],[-117.08388,32.59859],[-117.084,32.59947],[-117.08417,32.60032],[-117.08439,32.60123],[-117.08468,32.60212],[-117.0849,32.6027],[-117.0849,32.6027],[-117.08851,32.61192],[-117.08985,32.61541],[-117.09121,32.61888],[-117.09164,32.62009],[-117.09525,32.62935],[-117.09559,32.63019],[-117.09559,32.63019],[-117.09593,32.63105],[-117.09658,32.63278],[-117.09795,32.63624],[-117.09909,32.63918],[-117.09909,32.63918],[-117.10033,32.64235],[-117.10043,32.6427],[-117.1005,32.64317],[-117.10087,32.64608],[-117.10121,32.64804],[-117.10139,32.64881],[-117.10162,32.64951],[-117.10199,32.65045],[-117.10234,32.65141],[-117.1029,32.65269],[-117.10322,32.65315],[-117.10361,32.65357],[-117.10477,32.65465],[-117.10504,32.65495],[-117.10548,32.65555],[-117.10564,32.65585],[-117.1074,32.66024],[-117.10815,32.66216],[-117.10815,32.66216],[-117.10947,32.66556],[-117.11109,32.66987],[-117.11279,32.67417],[-117.11305,32.67482],[-117.11305,32.67482],[-117.11386,32.67692],[-117.1142,32.67777],[-117.1144,32.67817],[-117.11457,32.67847],[-117.1148,32.67881],[-117.11506,32.67911],[-117.1155,32.67956],[-117.11579,32.67981],[-117.1171,32.68073],[-117.1251,32.68626],[-117.1251,32.68626],[-117.13101,32.69036],[-117.1316,32.69071],[-117.13201,32.69092],[-117.13245,32.69112],[-117.13287,32.69129],[-117.13324,32.69141],[-117.13324,32.69141],[-117.13368,32.69157],[-117.13456,32.69177],[-117.13508,32.69187],[-117.13631,32.69203],[-117.1372,32.69219],[-117.13763,32.6923],[-117.13806,32.69244],[-117.13851,32.69261],[-117.13893,32.69283],[-117.13939,32.6931],[-117.14177,32.69474],[-117.14259,32.69525],[-117.14603,32.69765],[-117.14669,32.6981],[-117.14669,32.6981],[-117.14795,32.69897],[-117.15103,32.70112],[-117.15233,32.70209],[-117.15278,32.70246],[-117.15302,32.70273],[-117.15309,32.70286],[-117.15317,32.70306],[-117.1532,32.70324],[-117.15313,32.70423],[-117.15309,32.70449],[-117.15295,32.70486],[-117.15291,32.70507],[-117.15293,32.70523],[-117.15314,32.70562],[-117.15321,32.70575],[-117.15321,32.70575],[-117.15347,32.70621],[-117.15366,32.70655],[-117.15369,32.70666],[-117.15371,32.70682],[-117.15371,32.70763],[-117.15371,32.70851],[-117.15373,32.71122],[-117.15373,32.71122],[-117.15373,32.71215],[-117.15377,32.71564],[-117.1538,32.7157],[-117.15449,32.71662],[-117.15449,32.71662],[-117.15452,32.71666],[-117.15459,32.71671],[-117.15466,32.71673],[-117.15497,32.71674],[-117.15598,32.71672],[-117.15659,32.71673],[-117.15703,32.71676],[-117.15986,32.71674],[-117.15986,32.71674],[-117.16258,32.71673],[-117.16258,32.71673],[-117.16662,32.71671],[-117.16743,32.71673],[-117.16829,32.71675],[-117.16851,32.71676],[-117.16863,32.71671],[-117.16869,32.71666],[-117.16881,32.71644]]},"properties":{"routeId":"510","name":"San Ysidro - America Plaza","shortName":"UC San Diego Blue Line","color":"#0000FF","textColor":"#FFFFFF","system":"sdtrolley"}},{"type":"Feature","geometry":{"type":"LineString","coordinates":[[-117.16602,32.71672],[-117.16245,32.71673],[-117.16245,32.71673],[-117.15969,32.71674],[-117.15969,32.71674],[-117.15703,32.71676],[-117.15659,32.71673],[-117.15598,32.71672],[-117.15497,32.71674],[-117.15466,32.71673],[-117.15459,32.71671],[-117.15452,32.71666],[-117.15394,32.7159],[-117.15394,32.7159],[-117.1538,32.7157],[-117.15377,32.71564],[-117.15373,32.71215],[-117.15372,32.71105],[-117.15372,32.71105],[-117.15371,32.70851],[-117.15371,32.70763],[-117.15371,32.70682],[-117.15369,32.70666],[-117.15366,32.70655],[-117.15347,32.70621],[-117.15314,32.70562],[-117.15314,32.70562],[-117.15314,32.70562],[-117.15298,32.70539],[-117.15291,32.70533],[-117.15274,32.70525],[-117.15264,32.70524],[-117.15196,32.70524],[-117.14657,32.70526],[-117.144,32.70524],[-117.14194,32.7053],[-117.14027,32.70531],[-117.14014,32.7053],[-117.13823,32.7053],[-117.13823,32.7053],[-117.13814,32.7053],[-117.13445,32.70537],[-117.1295,32.7054],[-117.12751,32.70538],[-117.12532,32.7054],[-117.12522,32.70542],[-117.12496,32.70552],[-117.12478,32.70563],[-117.1246,32.70576],[-117.12451,32.70587],[-117.12443,32.706],[-117.12443,32.706],[-117.12438,32.70608],[-117.12429,32.70633],[-117.12426,32.70649],[-117.12413,32.70763],[-117.12404,32.70806],[-117.12399,32.7082],[-117.12392,32.70835],[-117.12373,32.70859],[-117.12349,32.70879],[-117.12334,32.70888],[-117.12313,32.70896],[-117.12295,32.70901],[-117.1226,32.70906],[-117.12244,32.70905],[-117.12217,32.70902],[-117.12204,32.70899],[-117.12181,32.7089],[-117.12156,32.70877],[-117.12141,32.70864],[-117.12128,32.7085],[-117.12111,32.70824],[-117.12077,32.70739],[-117.12062,32.7071],[-117.12039,32.70684],[-117.12013,32.70666],[-117.11987,32.70654],[-117.11958,32.70646],[-117.11926,32.70643],[-117.117,32.70637],[-117.11571,32.70636],[-117.11513,32.70641],[-117.11471,32.70649],[-117.1142,32.70662],[-117.11369,32.70681],[-117.11305,32.70712],[-117.11048,32.70867],[-117.11029,32.70876],[-117.10997,32.7089],[-117.10956,32.70902],[-117.10913,32.70909],[-117.10585,32.70928],[-117.10495,32.70932],[-117.1046,32.7093],[-117.1044,32.70926],[-117.10396,32.70913],[-117.10079,32.70794],[-117.09998,32.70766],[-117.09977,32.70761],[-117.09926,32.70752],[-117.09869,32.70749],[-117.09815,32.7075],[-117.09756,32.70757],[-117.09721,32.70766],[-117.09653,32.70789],[-117.09485,32.70846],[-117.0944,32.70859],[-117.0944,32.70859],[-117.09367,32.7088],[-117.09138,32.70943],[-117.09089,32.70953],[-117.09063,32.70955],[-117.09008,32.70958],[-117.08559,32.70953],[-117.08559,32.70953],[-117.07372,32.7094],[-117.0725,32.70939],[-117.07071,32.70937],[-117.06961,32.70938],[-117.0689,32.70942],[-117.06798,32.70949],[-117.06457,32.70991],[-117.06397,32.71],[-117.06274,32.71015],[-117.06274,32.71015],[-117.05806,32.7107],[-117.05163,32.71149],[-117.05103,32.71158],[-117.05071,32.71166],[-117.05045,32.71174],[-117.05001,32.7119],[-117.0496,32.7121],[-117.04915,32.71238],[-117.04877,32.71268],[-117.04827,32.7132],[-117.04514,32.71687],[-117.04247,32.72005],[-117.03941,32.72369],[-117.03941,32.72369],[-117.03704,32.7265],[-117.03664,32.72707],[-117.03646,32.72737],[-117.03621,32.72784],[-117.03536,32.72981],[-117.03511,32.73027],[-117.03394,32.73201],[-117.03275,32.73373],[-117.03221,32.73455],[-117.03159,32.7356],[-117.03136,32.73614],[-117.0312,32.7366],[-117.03111,32.73698],[-117.03107,32.73742],[-117.03102,32.73839],[-117.03085,32.74182],[-117.03076,32.74321],[-117.03071,32.74342],[-117.03071,32.74342],[-117.03062,32.74377],[-117.03006,32.74492],[-117.02983,32.7452],[-117.02956,32.74547],[-117.02814,32.7464],[-117.02721,32.74705],[-117.02672,32.74738],[-117.02637,32.74756],[-117.02602,32.74767],[-117.02567,32.74773],[-117.0249,32.74781],[-117.02384,32.74796],[-117.02348,32.74808],[-117.02287,32.7484],[-117.02223,32.74897],[-117.02205,32.74911],[-117.02181,32.74933],[-117.02161,32.74946],[-117.0205,32.75002],[-117.0193,32.75061],[-117.01849,32.75104],[-117.01776,32.75157],[-117.01693,32.75228],[-117.01673,32.75251],[-117.0166,32.75278],[-117.01632,32.75386],[-117.01628,32.75412],[-117.0163,32.75437],[-117.0164,32.75463],[-117.01657,32.7549],[-117.0171,32.75547],[-117.01733,32.75575],[-117.01748,32.75606],[-117.01751,32.75636],[-117.01749,32.75664],[-117.01743,32.75688],[-117.01739,32.75695],[-117.01739,32.75695],[-117.0172,32.75724],[-117.01695,32.75757],[-117.01683,32.75781],[-117.0168,32.75807],[-117.01684,32.7584],[-117.01697,32.75876],[-117.01882,32.76202],[-117.01973,32.76366],[-117.02022,32.76448],[-117.02062,32.76518],[-117.02062,32.76518],[-117.02331,32.76989],[-117.02382,32.77073],[-117.02449,32.77199],[-117.02454,32.77222],[-117.02456,32.77251],[-117.0245,32.77273],[-117.02437,32.77295],[-117.0242,32.77317],[-117.02401,32.77331],[-117.0239,32.7734],[-117.02339,32.77369],[-117.02257,32.77412],[-117.02098,32.77501],[-117.02023,32.7754],[-117.01907,32.77604],[-117.01747,32.77706],[-117.01631,32.77788],[-117.01184,32.78128],[-117.01137,32.7816],[-117.01106,32.78178],[-117.01106,32.78178],[-117.01075,32.78196],[-117.01019,32.78224],[-117.00942,32.78256],[-117.00178,32.78537],[-117.00154,32.78544],[-117.00154,32.78544],[-117.00128,32.78552],[-117.00073,32.78561],[-117.00008,32.78562],[-116.99957,32.78559],[-116.99846,32.78542],[-116.99551,32.78484],[-116.99508,32.7847],[-116.99455,32.78449],[-116.99413,32.78425],[-116.99363,32.78388],[-116.99317,32.78345],[-116.99214,32.78207],[-116.99175,32.7816],[-116.99156,32.78142],[-116.98969,32.78014],[-116.98906,32.77979],[-116.98861,32.77962],[-116.98795,32.77948],[-116.9873,32.77938],[-116.98674,32.77934],[-116.98623,32.77935],[-116.98591,32.77942],[-116.98552,32.7796],[-116.98524,32.77981],[-116.98492,32.78014],[-116.98444,32.78074],[-116.98377,32.78137],[-116.98345,32.78162],[-116.98291,32.78194],[-116.98216,32.78226],[-116.98083,32.78272],[-116.98036,32.78294],[-116.97993,32.78323],[-116.97953,32.78361],[-116.97898,32.7842],[-116.97765,32.78573],[-116.97714,32.78633],[-116.97669,32.78699],[-116.97637,32.78764],[-116.97621,32.78823],[-116.97615,32.78871],[-116.97613,32.7892],[-116.97614,32.79029],[-116.97617,32.79197],[-116.97617,32.79197],[-116.97618,32.79274],[-116.97622,32.79333],[-116.97646,32.79393],[-116.97657,32.79434],[-116.97658,32.79456],[-116.97656,32.79598],[-116.97651,32.79666],[-116.97644,32.79701],[-116.97633,32.79733],[-116.97585,32.79837],[-116.97571,32.79879],[-116.97564,32.79926],[-116.97562,32.79977],[-116.97569,32.8034],[-116.97569,32.80419],[-116.97571,32.80477],[-116.97571,32.8052]]},"properties":{"routeId":"520","name":"El Cajon - Courthouse","shortName":"Orange Line","color":"#FF6600","textColor":"#FFFFFF","system":"sdtrolley"}},{"type":"Feature","geometry":{"type":"LineString","coordinates":[[-117.15375,32.70521],[-117.15582,32.7052],[-117.15624,32.70522],[-117.15666,32.70529],[-117.15703,32.70541],[-117.15731,32.70554],[-117.15978,32.70691],[-117.15978,32.70691],[-117.16028,32.70719],[-117.16362,32.70904],[-117.16362,32.70904],[-117.16373,32.70909],[-117.16409,32.70926],[-117.16582,32.71016],[-117.16751,32.71109],[-117.1677,32.71122],[-117.16814,32.71153],[-117.16851,32.71186],[-117.16873,32.71209],[-117.16873,32.71209],[-117.16887,32.71224],[-117.16907,32.71249],[-117.1693,32.71284],[-117.16949,32.71323],[-117.16966,32.71365],[-117.16985,32.71439],[-117.16991,32.71481],[-117.16993,32.71533],[-117.16991,32.7156],[-117.16993,32.71577],[-117.16992,32.716],[-117.16983,32.71643],[-117.16982,32.71737],[-117.16982,32.71737],[-117.16982,32.71741],[-117.16984,32.71827],[-117.16993,32.71982],[-117.16991,32.72132],[-117.16991,32.72132],[-117.16991,32.72174],[-117.17002,32.72297],[-117.17011,32.72345],[-117.17025,32.72403],[-117.17107,32.72612],[-117.17249,32.72939],[-117.17351,32.73166],[-117.17392,32.73242],[-117.17415,32.73274],[-117.17463,32.73334],[-117.17463,32.73334],[-117.17476,32.7335],[-117.17613,32.73509],[-117.17768,32.73678],[-117.17827,32.73748],[-117.17907,32.73829],[-117.1793,32.73851],[-117.17966,32.7388],[-117.18023,32.73922],[-117.18077,32.73959],[-117.18156,32.74008],[-117.18222,32.74048],[-117.18373,32.74129],[-117.1843,32.74159],[-117.1843,32.74159],[-117.19123,32.74519],[-117.19215,32.74571],[-117.19289,32.74615],[-117.1938,32.7469],[-117.19422,32.7473],[-117.19685,32.75029],[-117.19708,32.75057],[-117.19811,32.75177],[-117.19839,32.75214],[-117.19862,32.75251],[-117.19894,32.75339],[-117.19913,32.75383],[-117.19955,32.75474],[-117.19964,32.75497],[-117.1997,32.75516],[-117.1997,32.75516],[-117.20128,32.75964],[-117.20135,32.75986],[-117.20144,32.76016],[-117.20154,32.76069],[-117.20154,32.7612],[-117.20139,32.7617],[-117.2011,32.76216],[-117.2007,32.76255],[-117.20045,32.76273],[-117.20019,32.76287],[-117.19984,32.76301],[-117.19913,32.76323],[-117.19867,32.76335],[-117.19824,32.76344],[-117.19615,32.76355],[-117.19615,32.76355],[-117.19582,32.76357],[-117.19563,32.76356],[-117.19548,32.76354],[-117.19531,32.7635],[-117.19511,32.76338],[-117.19445,32.76287],[-117.19396,32.76254],[-117.19366,32.76239],[-117.19326,32.76222],[-117.19296,32.76213],[-117.19262,32.76206],[-117.19224,32.76202],[-117.19186,32.76201],[-117.19124,32.76208],[-117.18764,32.76289],[-117.18612,32.76321],[-117.18466,32.76358],[-117.18152,32.76443],[-117.18108,32.76448],[-117.18051,32.76452],[-117.17967,32.76453],[-117.17915,32.76455],[-117.17835,32.76463],[-117.17776,32.76473],[-117.17718,32.76488],[-117.17661,32.76506],[-117.1749,32.76567],[-117.1745,32.76576],[-117.17405,32.76579],[-117.17372,32.76578],[-117.17182,32.76539],[-117.17113,32.76525],[-117.17078,32.7652],[-117.17045,32.76518],[-117.1702,32.76519],[-117.16979,32.76525],[-117.16857,32.76554],[-117.16857,32.76554],[-117.16795,32.76569],[-117.1669,32.76598],[-117.1645,32.76678],[-117.16404,32.76696],[-117.16311,32.76741],[-117.16262,32.76761],[-117.16179,32.76789],[-117.16149,32.76801],[-117.16094,32.76829],[-117.16042,32.76861],[-117.16015,32.76881],[-117.15902,32.76978],[-117.15865,32.77006],[-117.15835,32.77021],[-117.15808,32.77032],[-117.15772,32.77042],[-117.15772,32.77042],[-117.1573,32.77054],[-117.15706,32.77059],[-117.15658,32.77063],[-117.15628,32.77062],[-117.15605,32.77059],[-117.15579,32.77052],[-117.15479,32.77014],[-117.15446,32.77003],[-117.15421,32.76997],[-117.15392,32.76993],[-117.15363,32.76991],[-117.1534,32.76991],[-117.15293,32.77],[-117.15257,32.7701],[-117.15159,32.77051],[-117.15123,32.77067],[-117.15019,32.77103],[-117.14999,32.77108],[-117.1494,32.77117],[-117.1494,32.77117],[-117.14917,32.77121],[-117.14658,32.77148],[-117.14619,32.77155],[-117.14558,32.77173],[-117.14478,32.77211],[-117.1446,32.7722],[-117.14439,32.77235],[-117.14356,32.773],[-117.14327,32.77318],[-117.14288,32.77336],[-117.14206,32.77357],[-117.1413,32.77374],[-117.1413,32.77374],[-117.14089,32.77383],[-117.14019,32.77395],[-117.1396,32.77403],[-117.1389,32.77418],[-117.13554,32.77496],[-117.13501,32.77506],[-117.13395,32.77519],[-117.1335,32.77528],[-117.13309,32.77539],[-117.13001,32.77643],[-117.12946,32.77662],[-117.12902,32.77681],[-117.12856,32.77707],[-117.12805,32.77746],[-117.12674,32.77862],[-117.12671,32.77865],[-117.12671,32.77865],[-117.12623,32.7791],[-117.12573,32.77946],[-117.12503,32.7798],[-117.12421,32.78009],[-117.12319,32.78042],[-117.12262,32.78059],[-117.12207,32.78072],[-117.12148,32.78082],[-117.11957,32.78095],[-117.11743,32.78114],[-117.11426,32.78138],[-117.11285,32.78151],[-117.11255,32.78151],[-117.11213,32.78144],[-117.11177,32.78131],[-117.11136,32.78109],[-117.1108,32.78074],[-117.1108,32.78074],[-117.11074,32.7807],[-117.10994,32.78024],[-117.10926,32.77989],[-117.10879,32.77972],[-117.10832,32.77959],[-117.10788,32.77949],[-117.10721,32.7794],[-117.10593,32.77936],[-117.1046,32.77928],[-117.1038,32.77926],[-117.10349,32.77928],[-117.10315,32.77933],[-117.10273,32.77944],[-117.10233,32.7796],[-117.10017,32.7806],[-117.09985,32.78071],[-117.09929,32.78082],[-117.09876,32.78081],[-117.0983,32.78074],[-117.09704,32.78033],[-117.09704,32.78033],[-117.09684,32.78026],[-117.09575,32.77989],[-117.09534,32.77979],[-117.095,32.77976],[-117.09473,32.77978],[-117.09259,32.78012],[-117.09202,32.78016],[-117.08754,32.78027],[-117.08619,32.78034],[-117.08518,32.7803],[-117.08459,32.78025],[-117.08322,32.78008],[-117.08214,32.77992],[-117.08017,32.77958],[-117.07916,32.77943],[-117.07746,32.77925],[-117.07693,32.77914],[-117.07662,32.77902],[-117.07631,32.77888],[-117.07571,32.77847],[-117.07536,32.77808],[-117.07504,32.77758],[-117.07418,32.7759],[-117.07366,32.77448],[-117.07337,32.77407],[-117.07306,32.77369],[-117.0728,32.77351],[-117.07243,32.77333],[-117.07193,32.77322],[-117.07145,32.77319],[-117.07006,32.77319],[-117.07004,32.77319],[-117.07004,32.77319],[-117.06905,32.77322],[-117.06824,32.77329],[-117.06759,32.77349],[-117.06706,32.77386],[-117.06685,32.7741],[-117.06672,32.77434],[-117.06663,32.77459],[-117.0666,32.77488],[-117.06662,32.77513],[-117.06678,32.77578],[-117.06684,32.77617],[-117.06681,32.77647],[-117.06673,32.77681],[-117.0666,32.77706],[-117.06646,32.77727],[-117.06612,32.77763],[-117.06557,32.77806],[-117.06524,32.77826],[-117.06485,32.77844],[-117.06391,32.7787],[-117.06341,32.77876],[-117.06307,32.77877],[-117.06265,32.77874],[-117.06233,32.77868],[-117.06144,32.77847],[-117.05929,32.7779],[-117.05792,32.77758],[-117.0563,32.77728],[-117.0563,32.77728],[-117.05489,32.77703],[-117.05323,32.77671],[-117.05197,32.77642],[-117.05117,32.77618],[-117.04913,32.77543],[-117.04814,32.77493],[-117.04746,32.77452],[-117.04684,32.77407],[-117.04653,32.77382],[-117.04601,32.77349],[-117.04573,32.77334],[-117.04499,32.77306],[-117.04196,32.7721],[-117.04196,32.7721],[-117.04153,32.77197],[-117.04105,32.77185],[-117.04046,32.77176],[-117.03864,32.77164],[-117.03784,32.77164],[-117.03686,32.77172],[-117.03613,32.77179],[-117.03207,32.77249],[-117.03122,32.77262],[-117.03025,32.7727],[-117.02727,32.7727],[-117.0256,32.77272],[-117.02508,32.77284],[-117.02464,32.77299],[-117.02401,32.77331],[-117.0239,32.7734],[-117.02339,32.77369],[-117.02257,32.77412],[-117.02098,32.77501],[-117.02023,32.7754],[-117.01907,32.77604],[-117.01747,32.77706],[-117.01631,32.77788],[-117.01184,32.78128],[-117.01137,32.7816],[-117.01106,32.78178],[-117.01106,32.78178],[-117.01075,32.78196],[-117.01019,32.78224],[-117.00942,32.78256],[-117.00178,32.78537],[-117.00154,32.78544],[-117.00154,32.78544],[-117.00128,32.78552],[-117.00073,32.78561],[-117.00008,32.78562],[-116.99957,32.78559],[-116.99846,32.78542],[-116.99551,32.78484],[-116.99508,32.7847],[-116.99455,32.78449],[-116.99413,32.78425],[-116.99363,32.78388],[-116.99317,32.78345],[-116.99214,32.78207],[-116.99175,32.7816],[-116.99156,32.78142],[-116.98969,32.78014],[-116.98906,32.77979],[-116.98861,32.77962],[-116.98795,32.77948],[-116.9873,32.77938],[-116.98674,32.77934],[-116.98623,32.77935],[-116.98591,32.77942],[-116.98552,32.7796],[-116.98524,32.77981],[-116.98492,32.78014],[-116.98444,32.78074],[-116.98377,32.78137],[-116.98345,32.78162],[-116.98291,32.78194],[-116.98216,32.78226],[-116.98083,32.78272],[-116.98036,32.78294],[-116.97993,32.78323],[-116.97953,32.78361],[-116.97898,32.7842],[-116.97765,32.78573],[-116.97714,32.78633],[-116.97669,32.78699],[-116.97637,32.78764],[-116.97621,32.78823],[-116.97615,32.78871],[-116.97613,32.7892],[-116.97614,32.79029],[-116.97617,32.79197],[-116.97617,32.79197],[-116.97618,32.79274],[-116.97622,32.79333],[-116.97646,32.79393],[-116.97657,32.79434],[-116.97658,32.79456],[-116.97656,32.79598],[-116.97651,32.79666],[-116.97644,32.79701],[-116.97633,32.79733],[-116.97585,32.79837],[-116.97571,32.79879],[-116.97564,32.79926],[-116.97562,32.79977],[-116.97569,32.8034],[-116.97569,32.80419],[-116.97571,32.80477],[-116.97571,32.8052],[-116.97571,32.8052],[-116.97574,32.80745],[-116.97583,32.80773],[-116.97597,32.80796],[-116.9764,32.80847],[-116.97656,32.80874],[-116.97664,32.80897],[-116.97667,32.80936],[-116.97666,32.81024],[-116.97676,32.81159],[-116.9768,32.81236],[-116.97689,32.81652],[-116.97685,32.81676],[-116.97674,32.81696],[-116.97626,32.81741],[-116.97611,32.8176],[-116.97605,32.81785],[-116.97603,32.82129],[-116.97656,32.82375],[-116.97675,32.82435],[-116.97702,32.82471],[-116.97728,32.82499],[-116.9777,32.82526],[-116.97831,32.82553],[-116.97992,32.82586],[-116.98093,32.82604],[-116.98134,32.82617],[-116.98167,32.82639],[-116.98198,32.82677],[-116.98228,32.82724],[-116.98228,32.82724],[-116.98255,32.82765],[-116.98326,32.82885],[-116.9837,32.82953],[-116.98386,32.82991],[-116.98388,32.82999],[-116.98379,32.83068],[-116.98376,32.83105],[-116.98375,32.83248],[-116.98379,32.83851],[-116.98376,32.83883],[-116.98368,32.839],[-116.98359,32.83911],[-116.98223,32.84048],[-116.98074,32.84192]]},"properties":{"routeId":"530","name":"Santee - 12th & Imperial","shortName":"Green Line","color":"#009900","textColor":"#FFFFFF","system":"sdtrolley"}}]}