{"type":"FeatureCollection","features":[{"type":"Feature","geometry":{"type":"Point","coordinates":[-122.78408,38.50982]},"properties":{"name":"Sonoma County Airport","stopId":"3478094","system":"smart","routes":["14603"],"colors":["#2E8B57"]}},{"type":"Feature","geometry":{"type":"Point","coordinates":[-122.73645,38.45523]},"properties":{"name":"Santa Rosa North","stopId":"3478098","system":"smart","routes":["14603"],"colors":["#2E8B57"]}},{"type":"Feature","geometry":{"type":"Point","coordinates":[-122.72176,38.43757]},"properties":{"name":"Santa Rosa Downtown","stopId":"3478099","system":"smart","routes":["14603"],"colors":["#2E8B57"]}},{"type":"Feature","geometry":{"type":"Point","coordinates":[-122.70104,38.3471]},"properties":{"name":"Rohnert Park","stopId":"3478100","system":"smart","routes":["14603"],"colors":["#2E8B57"]}},{"type":"Feature","geometry":{"type":"Point","coordinates":[-122.69108,38.33096]},"properties":{"name":"Cotati","stopId":"3478101","system":"smart","routes":["14603"],"colors":["#2E8B57"]}},{"type":"Feature","geometry":{"type":"Point","coordinates":[-122.63483,38.23725]},"properties":{"name":"Petaluma Downtown","stopId":"3478102","system":"smart","routes":["14603"],"colors":["#2E8B57"]}},{"type":"Feature","geometry":{"type":"Point","coordinates":[-122.56607,38.1209]},"properties":{"name":"Novato San Marin","stopId":"3478103","system":"smart","routes":["14603"],"colors":["#2E8B57"]}},{"type":"Feature","geometry":{"type":"Point","coordinates":[-122.56445,38.10598]},"properties":{"name":"Novato Downtown","stopId":"3478104","system":"smart","routes":["14603"],"colors":["#2E8B57"]}},{"type":"Feature","geometry":{"type":"Point","coordinates":[-122.52387,38.05629]},"properties":{"name":"Novato Hamilton","stopId":"3478105","system":"smart","routes":["14603"],"colors":["#2E8B57"]}},{"type":"Feature","geometry":{"type":"Point","coordinates":[-122.53776,38.00125]},"properties":{"name":"Marin Civic Center","stopId":"3478106","system":"smart","routes":["14603"],"colors":["#2E8B57"]}},{"type":"Feature","geometry":{"type":"Point","coordinates":[-122.52266,37.972]},"properties":{"name":"San Rafael","stopId":"3478107","system":"smart","routes":["14603"],"colors":["#2E8B57"]}},{"type":"Feature","geometry":{"type":"Point","coordinates":[-122.51249,37.94781]},"properties":{"name":"Larkspur","stopId":"3478108","system":"smart","routes":["14603"],"colors":["#2E8B57"]}},{"type":"Feature","geometry":{"type":"Point","coordinates":[-122.65495,38.26693]},"properties":{"name":"Petaluma North","stopId":"4250794","system":"smart","routes":["14603"],"colors":["#2E8B57"]}},{"type":"Feature","geometry":{"type":"Point","coordinates":[-122.81848,38.54914]},"properties":{"name":"Windsor","stopId":"4251896","system":"smart","routes":["14603"],"colors":["#2E8B57"]}}]}