{"type":"FeatureCollection","features":[{"type":"Feature","geometry":{"type":"LineString","coordinates":[[-122.81852,38.54912],[-122.81849,38.54912],[-122.81814,38.54872],[-122.81798,38.54854],[-122.81756,38.54806],[-122.81723,38.54769],[-122.81687,38.54728],[-122.81668,38.54707],[-122.81636,38.54671],[-122.81622,38.54655],[-122.81001,38.53946],[-122.80337,38.53184],[-122.80142,38.52963],[-122.79989,38.52788],[-122.79851,38.52628],[-122.79802,38.52571],[-122.79318,38.5202],[-122.79284,38.5198],[-122.79255,38.51947],[-122.79235,38.51923],[-122.79192,38.51874],[-122.79155,38.51831],[-122.79134,38.51807],[-122.79086,38.51753],[-122.7904,38.517],[-122.78994,38.51648],[-122.78952,38.516],[-122.78944,38.5159],[-122.7892,38.51563],[-122.78882,38.51519],[-122.78833,38.51463],[-122.78791,38.51415],[-122.78718,38.51331],[-122.78587,38.51182],[-122.78527,38.51112],[-122.78452,38.51027],[-122.78408,38.50982],[-122.78419,38.50989],[-122.78357,38.50919],[-122.7819,38.50727],[-122.78057,38.50575],[-122.7805,38.50567],[-122.77834,38.50319],[-122.77651,38.50109],[-122.77411,38.49834],[-122.77351,38.49766],[-122.76984,38.49346],[-122.76971,38.49331],[-122.74805,38.4685],[-122.74132,38.46079],[-122.74017,38.45949],[-122.73979,38.45899],[-122.7397,38.45888],[-122.73964,38.4588],[-122.73647,38.45518],[-122.73647,38.45518],[-122.73502,38.45351],[-122.7342,38.45258],[-122.73372,38.45204],[-122.73364,38.45195],[-122.73355,38.45183],[-122.72313,38.43989],[-122.72288,38.4396],[-122.72274,38.43943],[-122.72263,38.43929],[-122.72254,38.43917],[-122.72238,38.43893],[-122.72231,38.43881],[-122.72223,38.43869],[-122.72213,38.43847],[-122.72207,38.43833],[-122.72202,38.4382],[-122.72179,38.43751],[-122.72179,38.4375],[-122.72165,38.43707],[-122.72157,38.4368],[-122.72153,38.43666],[-122.7215,38.43652],[-122.72148,38.43641],[-122.72146,38.43628],[-122.72145,38.43617],[-122.72142,38.43587],[-122.72141,38.43523],[-122.7214,38.43503],[-122.72141,38.43488],[-122.72141,38.43469],[-122.72141,38.43452],[-122.72139,38.43421],[-122.72138,38.43412],[-122.72136,38.43387],[-122.72136,38.43371],[-122.72135,38.43357],[-122.72134,38.43332],[-122.72134,38.43307],[-122.72133,38.43171],[-122.72132,38.43137],[-122.7213,38.42937],[-122.72128,38.42657],[-122.72128,38.42637],[-122.72124,38.42314],[-122.72121,38.41992],[-122.72116,38.41455],[-122.72115,38.4142],[-122.72113,38.4124],[-122.72082,38.38125],[-122.72081,38.38083],[-122.7208,38.38062],[-122.72079,38.38041],[-122.72078,38.3802],[-122.72077,38.3801],[-122.72075,38.38],[-122.72074,38.37989],[-122.72072,38.37978],[-122.72071,38.37968],[-122.72069,38.37958],[-122.72064,38.37937],[-122.72059,38.37917],[-122.72053,38.37897],[-122.72047,38.37877],[-122.7204,38.37858],[-122.72033,38.37838],[-122.72025,38.37819],[-122.72016,38.378],[-122.72005,38.37779],[-122.71994,38.37758],[-122.7197,38.37717],[-122.71918,38.37632],[-122.70105,38.34719],[-122.70105,38.34719],[-122.69545,38.3382],[-122.69529,38.33795],[-122.69501,38.33744],[-122.69434,38.33636],[-122.69366,38.33527],[-122.69231,38.3331],[-122.69169,38.33203],[-122.69152,38.33174],[-122.69106,38.33101],[-122.69105,38.33094],[-122.68978,38.32907],[-122.68809,38.32636],[-122.68573,38.32259],[-122.68332,38.3187],[-122.68258,38.3174],[-122.68139,38.31474],[-122.68045,38.31258],[-122.67935,38.31017],[-122.67869,38.30877],[-122.67718,38.30656],[-122.67583,38.30505],[-122.67522,38.30438],[-122.67457,38.30329],[-122.67408,38.30257],[-122.67352,38.30195],[-122.67265,38.30113],[-122.67175,38.3003],[-122.67101,38.29978],[-122.67029,38.29941],[-122.66945,38.29907],[-122.66866,38.29873],[-122.66801,38.29839],[-122.66735,38.29788],[-122.66658,38.29716],[-122.66585,38.29654],[-122.66513,38.29584],[-122.66462,38.29523],[-122.66419,38.29465],[-122.66384,38.29387],[-122.66358,38.29314],[-122.66346,38.29212],[-122.66358,38.29097],[-122.66383,38.28938],[-122.66423,38.28705],[-122.66474,38.2843],[-122.66523,38.28148],[-122.66544,38.28004],[-122.66542,38.27896],[-122.66526,38.27805],[-122.66497,38.27718],[-122.66448,38.27623],[-122.66383,38.27532],[-122.6631,38.27452],[-122.66119,38.27271],[-122.65495,38.26696],[-122.65495,38.26696],[-122.65372,38.26586],[-122.64876,38.26102],[-122.64617,38.25878],[-122.64457,38.25708],[-122.64373,38.25586],[-122.64323,38.25398],[-122.64298,38.25133],[-122.64272,38.24807],[-122.64225,38.24395],[-122.64218,38.24269],[-122.64152,38.24173],[-122.64043,38.2407],[-122.63923,38.23978],[-122.6383,38.23925],[-122.63481,38.23726],[-122.63479,38.23728],[-122.63426,38.23698],[-122.63393,38.2368],[-122.6335,38.23657],[-122.63293,38.23625],[-122.63272,38.23613],[-122.63261,38.23607],[-122.63251,38.23601],[-122.63239,38.23596],[-122.63229,38.23591],[-122.63217,38.23586],[-122.63206,38.23582],[-122.63193,38.23577],[-122.6318,38.23572],[-122.63167,38.23568],[-122.63154,38.23564],[-122.63102,38.23549],[-122.63072,38.2354],[-122.63058,38.23536],[-122.63044,38.23532],[-122.63031,38.23529],[-122.63018,38.23525],[-122.63005,38.23522],[-122.62993,38.2352],[-122.6298,38.23517],[-122.62968,38.23515],[-122.62919,38.23506],[-122.6287,38.23497],[-122.62804,38.23483],[-122.62389,38.23411],[-122.62128,38.23365],[-122.6192,38.23328],[-122.61897,38.23324],[-122.61875,38.23318],[-122.61853,38.23313],[-122.61832,38.23306],[-122.61806,38.23298],[-122.61794,38.23293],[-122.61783,38.23289],[-122.61772,38.23284],[-122.61761,38.23279],[-122.61752,38.23274],[-122.61742,38.2327],[-122.61733,38.23265],[-122.61724,38.2326],[-122.61707,38.2325],[-122.6169,38.2324],[-122.61679,38.23232],[-122.61669,38.23225],[-122.61658,38.23217],[-122.61649,38.2321],[-122.61639,38.23202],[-122.6163,38.23194],[-122.61621,38.23185],[-122.61613,38.23177],[-122.61604,38.23169],[-122.61595,38.23159],[-122.61588,38.23151],[-122.61582,38.23143],[-122.61574,38.23133],[-122.61567,38.23124],[-122.6156,38.23114],[-122.61554,38.23104],[-122.61547,38.23094],[-122.61475,38.22981],[-122.61444,38.22928],[-122.61417,38.22876],[-122.61382,38.22808],[-122.61371,38.22786],[-122.61366,38.22775],[-122.61361,38.22766],[-122.61355,38.22755],[-122.61348,38.22744],[-122.61342,38.22733],[-122.61336,38.22724],[-122.61331,38.22717],[-122.61326,38.2271],[-122.613,38.22673],[-122.61261,38.22618],[-122.61249,38.22602],[-122.61241,38.22593],[-122.61234,38.22585],[-122.6123,38.2258],[-122.61226,38.22576],[-122.61223,38.22572],[-122.61219,38.22568],[-122.61214,38.22563],[-122.61206,38.22555],[-122.61198,38.22548],[-122.6119,38.22541],[-122.61183,38.22534],[-122.61174,38.22527],[-122.61166,38.22521],[-122.61158,38.22515],[-122.6115,38.22509],[-122.61145,38.22506],[-122.61139,38.22502],[-122.61131,38.22496],[-122.61123,38.22492],[-122.61115,38.22487],[-122.61107,38.22482],[-122.61099,38.22478],[-122.61092,38.22474],[-122.61076,38.22466],[-122.609,38.22379],[-122.60864,38.22361],[-122.60865,38.22361],[-122.60829,38.22343],[-122.60814,38.22335],[-122.60799,38.22327],[-122.60784,38.22319],[-122.6077,38.22312],[-122.60756,38.22304],[-122.60749,38.223],[-122.60742,38.22296],[-122.60728,38.22287],[-122.60715,38.22279],[-122.60689,38.22261],[-122.60664,38.22243],[-122.60639,38.22225],[-122.60614,38.22207],[-122.60527,38.22144],[-122.60079,38.21818],[-122.59989,38.21752],[-122.599,38.21686],[-122.5901,38.21038],[-122.58856,38.20927],[-122.58703,38.20815],[-122.58688,38.20803],[-122.58673,38.20791],[-122.58658,38.2078],[-122.58645,38.20768],[-122.58638,38.20761],[-122.58632,38.20755],[-122.58624,38.20748],[-122.58609,38.20732],[-122.58595,38.20717],[-122.58587,38.20707],[-122.58579,38.20698],[-122.58572,38.20688],[-122.58565,38.20679],[-122.58558,38.20669],[-122.58552,38.2066],[-122.58546,38.2065],[-122.5854,38.20641],[-122.58535,38.20631],[-122.58529,38.20621],[-122.58524,38.20611],[-122.5852,38.20601],[-122.58515,38.20591],[-122.58511,38.20581],[-122.58507,38.2057],[-122.58503,38.2056],[-122.58499,38.20548],[-122.58497,38.20542],[-122.58496,38.20536],[-122.58492,38.20524],[-122.5849,38.20512],[-122.58488,38.20507],[-122.58487,38.20501],[-122.58486,38.20493],[-122.58484,38.20485],[-122.58483,38.20478],[-122.58482,38.20467],[-122.58481,38.20457],[-122.5848,38.20446],[-122.5848,38.20436],[-122.58479,38.20415],[-122.58479,38.20395],[-122.58477,38.20032],[-122.58477,38.19966],[-122.58476,38.19933],[-122.58476,38.19917],[-122.58476,38.19901],[-122.58475,38.19888],[-122.58475,38.19875],[-122.58474,38.19862],[-122.58473,38.19849],[-122.58472,38.19836],[-122.58471,38.19823],[-122.58469,38.19797],[-122.58467,38.19779],[-122.58465,38.19761],[-122.58462,38.19743],[-122.58459,38.19725],[-122.58453,38.1969],[-122.58445,38.19654],[-122.58345,38.19215],[-122.58338,38.19183],[-122.58334,38.19167],[-122.5833,38.19152],[-122.58326,38.19141],[-122.58323,38.19129],[-122.58316,38.19108],[-122.58308,38.19086],[-122.58299,38.19065],[-122.58294,38.19054],[-122.5829,38.19044],[-122.58285,38.19033],[-122.5828,38.19023],[-122.58274,38.19012],[-122.58272,38.19008],[-122.58269,38.19002],[-122.58257,38.18982],[-122.58245,38.18962],[-122.58233,38.18943],[-122.58208,38.18905],[-122.58025,38.18638],[-122.57937,38.18509],[-122.5745,38.17792],[-122.57435,38.17769],[-122.57421,38.17745],[-122.57407,38.17722],[-122.57393,38.17699],[-122.57371,38.17658],[-122.57357,38.17631],[-122.57349,38.17615],[-122.56825,38.16522],[-122.568,38.16467],[-122.56785,38.16435],[-122.56515,38.15787],[-122.56505,38.15762],[-122.56494,38.15736],[-122.56484,38.15711],[-122.5648,38.15699],[-122.56475,38.15686],[-122.5647,38.15672],[-122.56467,38.15662],[-122.56463,38.15649],[-122.56459,38.15636],[-122.56455,38.15617],[-122.56451,38.15601],[-122.56448,38.15586],[-122.56444,38.15564],[-122.5644,38.15543],[-122.56438,38.15521],[-122.56436,38.15499],[-122.56435,38.15484],[-122.56433,38.15449],[-122.56433,38.15413],[-122.56435,38.15054],[-122.56435,38.14695],[-122.56435,38.14668],[-122.56434,38.14638],[-122.56432,38.14609],[-122.56428,38.14551],[-122.56419,38.14436],[-122.56409,38.14299],[-122.56382,38.13931],[-122.56327,38.13193],[-122.56324,38.13143],[-122.56323,38.13119],[-122.56322,38.13106],[-122.56322,38.13094],[-122.56322,38.13083],[-122.56322,38.13072],[-122.56322,38.13066],[-122.56322,38.13061],[-122.56323,38.1305],[-122.56323,38.13038],[-122.56324,38.13027],[-122.56327,38.13005],[-122.56329,38.12992],[-122.56329,38.12986],[-122.56331,38.12979],[-122.56333,38.12967],[-122.56336,38.12954],[-122.56341,38.12929],[-122.56348,38.12904],[-122.56352,38.12891],[-122.56355,38.12879],[-122.56363,38.12854],[-122.56378,38.12805],[-122.56467,38.12528],[-122.56511,38.12389],[-122.56532,38.12323],[-122.56556,38.12251],[-122.56558,38.12246],[-122.56559,38.12242],[-122.56594,38.12119],[-122.56596,38.12114],[-122.56597,38.12109],[-122.56598,38.12105],[-122.56599,38.12101],[-122.56601,38.12095],[-122.56603,38.12086],[-122.56603,38.12086],[-122.56612,38.1205],[-122.56617,38.12032],[-122.5662,38.12018],[-122.56623,38.12005],[-122.56626,38.11992],[-122.5663,38.11974],[-122.56633,38.11956],[-122.56635,38.1194],[-122.56637,38.11924],[-122.56639,38.11905],[-122.56641,38.11885],[-122.56642,38.11873],[-122.56643,38.1186],[-122.56643,38.11848],[-122.56644,38.11836],[-122.56644,38.11825],[-122.56645,38.11796],[-122.56645,38.11785],[-122.56644,38.11744],[-122.56643,38.1172],[-122.56642,38.11708],[-122.56642,38.11697],[-122.56642,38.11684],[-122.56639,38.11626],[-122.56637,38.11571],[-122.56635,38.11505],[-122.56633,38.11464],[-122.56633,38.11436],[-122.56632,38.11408],[-122.5663,38.11366],[-122.56628,38.11314],[-122.56627,38.11294],[-122.56627,38.11275],[-122.56626,38.11256],[-122.56625,38.11237],[-122.56623,38.11192],[-122.56619,38.11077],[-122.56615,38.10967],[-122.56614,38.10948],[-122.56613,38.10938],[-122.56612,38.10929],[-122.56611,38.10919],[-122.5661,38.1091],[-122.56607,38.10891],[-122.56603,38.10875],[-122.56599,38.10858],[-122.56596,38.10848],[-122.56592,38.10837],[-122.56588,38.10827],[-122.56585,38.10817],[-122.56577,38.10797],[-122.56573,38.10789],[-122.5657,38.10782],[-122.56563,38.10769],[-122.56559,38.10761],[-122.56555,38.10754],[-122.56551,38.10747],[-122.56547,38.1074],[-122.56537,38.10726],[-122.56528,38.10713],[-122.5652,38.10701],[-122.56512,38.10691],[-122.56506,38.10684],[-122.56484,38.10655],[-122.56474,38.10641],[-122.5644,38.10599],[-122.5644,38.10599],[-122.56427,38.10582],[-122.56421,38.10575],[-122.56408,38.10558],[-122.56399,38.10548],[-122.56364,38.10505],[-122.56358,38.10496],[-122.56349,38.10484],[-122.56332,38.10464],[-122.563,38.10423],[-122.56236,38.10342],[-122.56168,38.10256],[-122.5613,38.10206],[-122.56118,38.10193],[-122.55965,38.09999],[-122.55928,38.09952],[-122.55891,38.09905],[-122.55865,38.09874],[-122.5584,38.09844],[-122.5559,38.09549],[-122.55567,38.09522],[-122.55545,38.09497],[-122.55502,38.09444],[-122.5543,38.09356],[-122.55417,38.09339],[-122.55407,38.09327],[-122.55378,38.09294],[-122.55331,38.09238],[-122.54925,38.08756],[-122.54747,38.08546],[-122.5471,38.08503],[-122.54674,38.08458],[-122.54652,38.08433],[-122.5461,38.08382],[-122.54591,38.08357],[-122.54573,38.0833],[-122.5456,38.08309],[-122.54548,38.08289],[-122.54526,38.08248],[-122.54512,38.08223],[-122.54503,38.08205],[-122.54476,38.08154],[-122.54447,38.081],[-122.54414,38.0804],[-122.54384,38.07986],[-122.54364,38.07952],[-122.54345,38.07919],[-122.5432,38.07873],[-122.543,38.07837],[-122.54276,38.0779],[-122.54257,38.07754],[-122.54239,38.07719],[-122.54221,38.07686],[-122.54203,38.07653],[-122.54174,38.07599],[-122.54132,38.07519],[-122.54103,38.07464],[-122.54077,38.07415],[-122.54048,38.07362],[-122.53994,38.0726],[-122.53962,38.072],[-122.53941,38.07161],[-122.5392,38.07121],[-122.53859,38.07007],[-122.538,38.06896],[-122.53778,38.06855],[-122.53756,38.06815],[-122.53745,38.06798],[-122.53735,38.06783],[-122.53715,38.06752],[-122.53693,38.06722],[-122.53672,38.06694],[-122.53639,38.06655],[-122.53622,38.06636],[-122.53585,38.06598],[-122.53566,38.0658],[-122.53548,38.06564],[-122.53519,38.06538],[-122.53489,38.06515],[-122.53456,38.06491],[-122.53424,38.06468],[-122.53372,38.0643],[-122.53232,38.06336],[-122.53095,38.06243],[-122.5286,38.06082],[-122.52625,38.05922],[-122.52614,38.05914],[-122.52603,38.05905],[-122.52589,38.05895],[-122.52583,38.05889],[-122.52577,38.05884],[-122.52564,38.05872],[-122.52558,38.05867],[-122.52552,38.05861],[-122.52544,38.05853],[-122.52537,38.05845],[-122.52529,38.05836],[-122.52522,38.05828],[-122.52513,38.05816],[-122.52505,38.05805],[-122.52497,38.05794],[-122.52489,38.05783],[-122.52481,38.0577],[-122.52388,38.05624],[-122.52388,38.05623],[-122.52242,38.05392],[-122.52196,38.05318],[-122.5217,38.05278],[-122.52162,38.05265],[-122.52155,38.05254],[-122.52141,38.0523],[-122.52134,38.05218],[-122.52128,38.05206],[-122.52122,38.05194],[-122.52116,38.05182],[-122.52107,38.05163],[-122.52103,38.05153],[-122.52099,38.05143],[-122.52095,38.05132],[-122.52091,38.05123],[-122.52088,38.05112],[-122.52084,38.05102],[-122.52077,38.05079],[-122.52073,38.05062],[-122.52069,38.05046],[-122.52066,38.05031],[-122.52063,38.05015],[-122.5206,38.04999],[-122.51996,38.04601],[-122.51932,38.04202],[-122.5193,38.04194],[-122.51929,38.04187],[-122.51928,38.04181],[-122.51927,38.04175],[-122.51927,38.04169],[-122.51926,38.04162],[-122.51925,38.04156],[-122.51924,38.04151],[-122.51923,38.04144],[-122.51923,38.04138],[-122.51922,38.04132],[-122.51922,38.04126],[-122.51922,38.0412],[-122.51921,38.04113],[-122.51921,38.04103],[-122.51921,38.04092],[-122.51921,38.0408],[-122.51922,38.04064],[-122.51924,38.04047],[-122.51926,38.0403],[-122.51927,38.04023],[-122.51928,38.04016],[-122.51931,38.04003],[-122.51935,38.03989],[-122.51938,38.03975],[-122.51954,38.03921],[-122.52198,38.03151],[-122.52321,38.02766],[-122.52412,38.02477],[-122.52443,38.02381],[-122.52449,38.02362],[-122.52454,38.02343],[-122.5246,38.02325],[-122.52464,38.02306],[-122.52469,38.02287],[-122.52472,38.02273],[-122.52474,38.02259],[-122.52479,38.02231],[-122.52489,38.02175],[-122.52493,38.0215],[-122.52496,38.02137],[-122.52498,38.02125],[-122.52502,38.02101],[-122.52509,38.02078],[-122.52517,38.02055],[-122.52527,38.02032],[-122.52537,38.02008],[-122.52541,38.01998],[-122.5255,38.01978],[-122.5262,38.01824],[-122.52639,38.01783],[-122.52797,38.01438],[-122.52826,38.01375],[-122.5289,38.01236],[-122.52966,38.01069],[-122.53043,38.00899],[-122.53049,38.00887],[-122.53052,38.00879],[-122.53056,38.00871],[-122.5306,38.00863],[-122.53067,38.00848],[-122.53075,38.00833],[-122.5308,38.00822],[-122.53085,38.00813],[-122.5309,38.00803],[-122.53096,38.00794],[-122.53102,38.00784],[-122.53107,38.00775],[-122.53113,38.00765],[-122.53119,38.00757],[-122.53126,38.00747],[-122.53132,38.00738],[-122.53139,38.00729],[-122.53145,38.0072],[-122.53159,38.00701],[-122.53174,38.00683],[-122.53181,38.00675],[-122.53188,38.00668],[-122.53195,38.00661],[-122.53203,38.00652],[-122.53218,38.00636],[-122.53241,38.00614],[-122.53279,38.00578],[-122.53368,38.00496],[-122.53708,38.00182],[-122.53729,38.00163],[-122.53773,38.00122],[-122.53773,38.00122],[-122.53789,38.00107],[-122.53805,38.00092],[-122.53849,38.00052],[-122.53862,38.0004],[-122.53919,37.99987],[-122.5395,37.99959],[-122.53963,37.99946],[-122.53974,37.99935],[-122.53979,37.99929],[-122.53984,37.99924],[-122.5399,37.99918],[-122.53995,37.99912],[-122.53999,37.99906],[-122.54003,37.99901],[-122.54012,37.99889],[-122.5402,37.99878],[-122.54028,37.99865],[-122.54031,37.9986],[-122.54034,37.99854],[-122.54041,37.99842],[-122.54047,37.99829],[-122.54052,37.99816],[-122.54058,37.99803],[-122.5406,37.99797],[-122.54061,37.99791],[-122.54065,37.99777],[-122.5407,37.99758],[-122.5407,37.99754],[-122.54071,37.9975],[-122.54072,37.99738],[-122.54074,37.99723],[-122.54075,37.9971],[-122.54075,37.99697],[-122.54076,37.99677],[-122.54076,37.99656],[-122.54076,37.99603],[-122.54076,37.9959],[-122.54076,37.99578],[-122.54076,37.99558],[-122.54075,37.99544],[-122.54075,37.99538],[-122.54074,37.99532],[-122.54073,37.99519],[-122.54072,37.99511],[-122.54071,37.99505],[-122.54068,37.99494],[-122.54066,37.99485],[-122.54063,37.99476],[-122.54062,37.99472],[-122.5406,37.99468],[-122.54056,37.99459],[-122.54052,37.9945],[-122.54048,37.99442],[-122.54045,37.99437],[-122.54041,37.99429],[-122.54035,37.99421],[-122.54033,37.99417],[-122.5403,37.99413],[-122.54024,37.99406],[-122.54017,37.99398],[-122.54011,37.99391],[-122.54004,37.99384],[-122.54,37.9938],[-122.53997,37.99377],[-122.53993,37.99373],[-122.53989,37.9937],[-122.53985,37.99366],[-122.53981,37.99363],[-122.53973,37.99357],[-122.53964,37.99351],[-122.53956,37.99345],[-122.53947,37.99339],[-122.53942,37.99336],[-122.53937,37.99334],[-122.53928,37.99328],[-122.53923,37.99326],[-122.53919,37.99324],[-122.53913,37.99321],[-122.53909,37.99319],[-122.53899,37.99315],[-122.53891,37.99312],[-122.53883,37.99309],[-122.53878,37.99307],[-122.53873,37.99305],[-122.53867,37.99304],[-122.53862,37.99302],[-122.53857,37.993],[-122.53851,37.99299],[-122.53846,37.99297],[-122.5384,37.99296],[-122.53835,37.99295],[-122.53829,37.99294],[-122.53823,37.99292],[-122.53816,37.99291],[-122.5381,37.9929],[-122.53804,37.99289],[-122.53797,37.99288],[-122.53791,37.99287],[-122.53784,37.99286],[-122.53778,37.99286],[-122.53771,37.99285],[-122.53764,37.99284],[-122.53758,37.99284],[-122.53745,37.99283],[-122.53738,37.99282],[-122.53729,37.99281],[-122.5348,37.99261],[-122.53454,37.99258],[-122.53428,37.99255],[-122.53417,37.99254],[-122.53407,37.99252],[-122.53398,37.99251],[-122.53389,37.99249],[-122.53377,37.99246],[-122.53368,37.99244],[-122.5336,37.99242],[-122.53352,37.9924],[-122.53344,37.99237],[-122.53336,37.99234],[-122.53328,37.99232],[-122.53322,37.99229],[-122.53317,37.99227],[-122.53306,37.99223],[-122.53298,37.99219],[-122.53291,37.99216],[-122.53283,37.99212],[-122.53276,37.99208],[-122.53269,37.99204],[-122.53262,37.992],[-122.53256,37.99197],[-122.5325,37.99192],[-122.53243,37.99188],[-122.53232,37.9918],[-122.53225,37.99175],[-122.53219,37.9917],[-122.53207,37.99161],[-122.53184,37.99142],[-122.53109,37.99081],[-122.5304,37.99024],[-122.52707,37.9875],[-122.52607,37.98672],[-122.52594,37.98659],[-122.52585,37.98652],[-122.52577,37.98645],[-122.52561,37.98632],[-122.52546,37.98619],[-122.52531,37.98606],[-122.52517,37.98592],[-122.5251,37.98586],[-122.52504,37.98579],[-122.5249,37.98565],[-122.52484,37.98558],[-122.52478,37.98551],[-122.52465,37.98537],[-122.52453,37.98523],[-122.52444,37.98512],[-122.52434,37.985],[-122.52425,37.98489],[-122.52416,37.98477],[-122.52407,37.98465],[-122.52399,37.98454],[-122.52391,37.98442],[-122.52382,37.9843],[-122.52374,37.98418],[-122.52366,37.98406],[-122.52359,37.98394],[-122.52351,37.98382],[-122.52344,37.9837],[-122.52334,37.98353],[-122.5233,37.98345],[-122.52325,37.98337],[-122.52319,37.98326],[-122.52313,37.98315],[-122.52307,37.98303],[-122.52301,37.98292],[-122.5225,37.98199],[-122.52224,37.98152],[-122.52211,37.98128],[-122.52205,37.98117],[-122.52199,37.98105],[-122.52194,37.98096],[-122.52189,37.98087],[-122.52184,37.98077],[-122.52179,37.98068],[-122.52161,37.9803],[-122.52155,37.98015],[-122.5215,37.98001],[-122.52147,37.97995],[-122.52144,37.97988],[-122.52142,37.97981],[-122.5214,37.97975],[-122.52137,37.97968],[-122.52135,37.97961],[-122.52133,37.97955],[-122.52132,37.97948],[-122.5213,37.97941],[-122.52129,37.97935],[-122.52127,37.97928],[-122.52126,37.97921],[-122.52126,37.97914],[-122.52125,37.97907],[-122.52124,37.97901],[-122.52124,37.97894],[-122.52123,37.97886],[-122.52124,37.97878],[-122.52124,37.97871],[-122.52124,37.97863],[-122.52125,37.97855],[-122.52125,37.97847],[-122.52126,37.97842],[-122.52127,37.97835],[-122.52128,37.97827],[-122.5213,37.97813],[-122.52131,37.97807],[-122.52135,37.97793],[-122.52136,37.97785],[-122.52139,37.97777],[-122.52147,37.9774],[-122.52157,37.97688],[-122.5217,37.97631],[-122.52172,37.97619],[-122.52177,37.97597],[-122.52182,37.97573],[-122.52186,37.97554],[-122.52191,37.97532],[-122.52196,37.9751],[-122.52198,37.975],[-122.522,37.97489],[-122.52205,37.97468],[-122.52216,37.97424],[-122.52248,37.97305],[-122.5226,37.9726],[-122.52276,37.97198],[-122.52276,37.97197],[-122.52287,37.97156],[-122.52289,37.97143],[-122.52291,37.97137],[-122.52292,37.9713],[-122.52293,37.97122],[-122.52294,37.97114],[-122.52295,37.97107],[-122.52295,37.97099],[-122.52295,37.97092],[-122.52295,37.97076],[-122.52295,37.97068],[-122.52293,37.97058],[-122.5229,37.97049],[-122.52287,37.9704],[-122.52281,37.9703],[-122.52275,37.9702],[-122.52271,37.97013],[-122.52263,37.97002],[-122.52245,37.96981],[-122.52172,37.96904],[-122.5216,37.96892],[-122.52137,37.9687],[-122.52108,37.96845],[-122.52064,37.96813],[-122.52028,37.96786],[-122.51989,37.96757],[-122.51935,37.9671],[-122.51902,37.96675],[-122.51858,37.96621],[-122.51831,37.96594],[-122.51788,37.96554],[-122.51707,37.96483],[-122.51653,37.96435],[-122.51532,37.96327],[-122.51425,37.96232],[-122.51221,37.9605],[-122.51185,37.96019],[-122.51083,37.9593],[-122.50927,37.95795],[-122.50878,37.95751],[-122.50862,37.95735],[-122.50844,37.95716],[-122.50828,37.95697],[-122.50816,37.9568],[-122.50808,37.95665],[-122.50801,37.95651],[-122.50794,37.95636],[-122.50788,37.9562],[-122.50775,37.95577],[-122.50761,37.95527],[-122.50755,37.95501],[-122.50753,37.95491],[-122.50751,37.95471],[-122.50751,37.95449],[-122.50752,37.9543],[-122.50755,37.95413],[-122.50759,37.95396],[-122.50764,37.95381],[-122.5077,37.95366],[-122.50784,37.95339],[-122.50798,37.95316],[-122.50815,37.95295],[-122.50824,37.95286],[-122.50834,37.95277],[-122.51062,37.95053],[-122.51087,37.95028],[-122.51102,37.95012],[-122.51114,37.94998],[-122.51122,37.94986],[-122.51133,37.94969],[-122.51207,37.94857],[-122.51251,37.94785]]},"properties":{"routeId":"14603","name":"Main Line","shortName":"SMART","color":"#2E8B57","textColor":"#ffffff","system":"smart"}}]}