{"type":"FeatureCollection","features":[{"type":"Feature","geometry":{"type":"LineString","coordinates":[[-117.09216,33.11842],[-117.0922,33.11843],[-117.09275,33.1187],[-117.09359,33.11899],[-117.09566,33.11975],[-117.0973,33.12037],[-117.10061,33.1216],[-117.10276,33.12241],[-117.10294,33.12248],[-117.10336,33.12262],[-117.1038,33.12279],[-117.10466,33.12311],[-117.10587,33.12356],[-117.10989,33.12504],[-117.11418,33.12639],[-117.12044,33.12894],[-117.12087,33.12915],[-117.12284,33.13031],[-117.12363,33.13077],[-117.12415,33.13111],[-117.12415,33.13111],[-117.12573,33.13212],[-117.12695,33.1329],[-117.1282,33.13409],[-117.1297,33.13544],[-117.13221,33.13739],[-117.13306,33.13793],[-117.13348,33.13811],[-117.13408,33.13827],[-117.1351,33.13838],[-117.13598,33.13843],[-117.13683,33.13855],[-117.13773,33.1389],[-117.1385,33.13934],[-117.13897,33.13951],[-117.13938,33.13954],[-117.13972,33.13946],[-117.14005,33.13931],[-117.14042,33.13899],[-117.14089,33.13852],[-117.14144,33.1382],[-117.14184,33.13806],[-117.14223,33.13797],[-117.14371,33.13789],[-117.1457,33.13777],[-117.14648,33.13769],[-117.147,33.13759],[-117.14775,33.13725],[-117.1488,33.13666],[-117.15042,33.13577],[-117.1514,33.1354],[-117.15256,33.13504],[-117.15359,33.13477],[-117.15359,33.13477],[-117.15415,33.13462],[-117.15461,33.13452],[-117.15501,33.13443],[-117.15539,33.13447],[-117.15574,33.13458],[-117.15608,33.13482],[-117.15635,33.13514],[-117.15681,33.13636],[-117.15763,33.1385],[-117.15849,33.1409],[-117.1588,33.14149],[-117.15904,33.14167],[-117.15966,33.14174],[-117.16067,33.14196],[-117.16067,33.14196],[-117.16076,33.14198],[-117.17303,33.14497],[-117.1751,33.14544],[-117.17809,33.14583],[-117.18015,33.14613],[-117.18339,33.14655],[-117.18431,33.14673],[-117.18518,33.14692],[-117.18532,33.14695],[-117.18532,33.14695],[-117.18542,33.14698],[-117.18566,33.14704],[-117.18853,33.14793],[-117.18992,33.14866],[-117.19227,33.15049],[-117.19427,33.15204],[-117.19485,33.15261],[-117.19611,33.15443],[-117.19857,33.15812],[-117.19899,33.15883],[-117.19928,33.15963],[-117.19938,33.16012],[-117.19942,33.161],[-117.19925,33.16209],[-117.19923,33.16252],[-117.19931,33.16303],[-117.19947,33.16346],[-117.19975,33.16388],[-117.20006,33.16421],[-117.20036,33.16446],[-117.20072,33.16467],[-117.20115,33.16485],[-117.2018,33.16502],[-117.20391,33.16536],[-117.2043,33.16546],[-117.20464,33.16562],[-117.20502,33.16588],[-117.20538,33.1663],[-117.20555,33.16667],[-117.20563,33.16713],[-117.20561,33.16743],[-117.20548,33.16779],[-117.2048,33.16897],[-117.20417,33.17006],[-117.20405,33.17026],[-117.2037,33.1709],[-117.20357,33.17158],[-117.20361,33.17192],[-117.20373,33.17226],[-117.2039,33.17256],[-117.20415,33.17285],[-117.20474,33.17325],[-117.20541,33.17347],[-117.20594,33.17352],[-117.20734,33.1735],[-117.20739,33.1735],[-117.20739,33.1735],[-117.20793,33.17354],[-117.20841,33.17363],[-117.20924,33.17395],[-117.21272,33.17603],[-117.21466,33.17753],[-117.2156,33.17851],[-117.216,33.17905],[-117.21646,33.17987],[-117.21717,33.1812],[-117.21767,33.18181],[-117.21845,33.18238],[-117.21922,33.18273],[-117.22179,33.18359],[-117.22253,33.18375],[-117.22351,33.18389],[-117.22424,33.18411],[-117.22467,33.18447],[-117.22515,33.18512],[-117.22539,33.18567],[-117.22572,33.18677],[-117.22595,33.18718],[-117.22637,33.18755],[-117.22713,33.18795],[-117.22751,33.18823],[-117.22773,33.18845],[-117.2282,33.18914],[-117.22866,33.18965],[-117.2292,33.18994],[-117.22965,33.19007],[-117.22996,33.1901],[-117.23031,33.1901],[-117.23067,33.19005],[-117.23174,33.18992],[-117.23347,33.19024],[-117.23405,33.19028],[-117.23462,33.19019],[-117.23533,33.18995],[-117.23569,33.18988],[-117.23611,33.18987],[-117.23659,33.18995],[-117.23702,33.19015],[-117.23702,33.19015],[-117.23712,33.19019],[-117.23738,33.1904],[-117.23765,33.19077],[-117.23778,33.19107],[-117.23783,33.19137],[-117.23772,33.19328],[-117.23775,33.19365],[-117.23786,33.19399],[-117.23802,33.19426],[-117.23825,33.19451],[-117.23941,33.19537],[-117.2402,33.19613],[-117.24104,33.19732],[-117.2428,33.19982],[-117.24417,33.20193],[-117.24497,33.20316],[-117.24497,33.20316],[-117.24508,33.20332],[-117.24559,33.20408],[-117.24596,33.2045],[-117.24637,33.20485],[-117.24687,33.20518],[-117.24751,33.20541],[-117.24799,33.20553],[-117.24995,33.20578],[-117.25066,33.20597],[-117.2511,33.20615],[-117.25151,33.2064],[-117.2519,33.2067],[-117.25223,33.20704],[-117.25262,33.20762],[-117.25286,33.20825],[-117.25355,33.21253],[-117.25385,33.21398],[-117.25404,33.21499],[-117.25438,33.21723],[-117.2546,33.21786],[-117.25483,33.21825],[-117.25513,33.21861],[-117.25549,33.21894],[-117.25591,33.21922],[-117.25643,33.21946],[-117.257,33.21963],[-117.25758,33.2197],[-117.25819,33.2197],[-117.25874,33.21963],[-117.25909,33.21955],[-117.25909,33.21955],[-117.26223,33.21888],[-117.26297,33.21866],[-117.26363,33.21833],[-117.26772,33.21543],[-117.2699,33.21327],[-117.27013,33.21287],[-117.27025,33.21243],[-117.27037,33.21199],[-117.27062,33.21144],[-117.27102,33.21107],[-117.27145,33.21085],[-117.27285,33.21049],[-117.27455,33.20965],[-117.27553,33.2093],[-117.27637,33.20912],[-117.27779,33.20898],[-117.27846,33.2088],[-117.27898,33.20859],[-117.28338,33.20641],[-117.28495,33.20578],[-117.28722,33.2049],[-117.28823,33.20451],[-117.28823,33.20451],[-117.29138,33.20331],[-117.29219,33.20314],[-117.29485,33.20296],[-117.29759,33.20278],[-117.3068,33.20221],[-117.30809,33.20206],[-117.31047,33.20167],[-117.31129,33.20153],[-117.31129,33.20153],[-117.31423,33.20106],[-117.32044,33.20009],[-117.32111,33.2001],[-117.32175,33.20021],[-117.3223,33.20038],[-117.32324,33.20079],[-117.3238,33.20089],[-117.32432,33.20087],[-117.32639,33.20043],[-117.32931,33.19982],[-117.33069,33.19964],[-117.33191,33.19963],[-117.3323,33.19965],[-117.3323,33.19965],[-117.33445,33.19974],[-117.33693,33.1997],[-117.33768,33.19964],[-117.33866,33.1995],[-117.34335,33.19832],[-117.34597,33.19765],[-117.34825,33.19707],[-117.3489,33.19685],[-117.35279,33.19497],[-117.35351,33.19461],[-117.35351,33.19461],[-117.35877,33.19203],[-117.36072,33.19103],[-117.3615,33.19064],[-117.36218,33.1902],[-117.3624,33.19007],[-117.36275,33.18985],[-117.36321,33.18949],[-117.36397,33.18869],[-117.3643,33.18823],[-117.36463,33.18759],[-117.36481,33.18707],[-117.36523,33.18527],[-117.36542,33.18469],[-117.36566,33.1843],[-117.36589,33.18401],[-117.36689,33.18275],[-117.3673,33.1824],[-117.36793,33.18206],[-117.36835,33.18187],[-117.36835,33.18187],[-117.36835,33.18187],[-117.36863,33.18176],[-117.36901,33.18169],[-117.36938,33.18164],[-117.36978,33.18167],[-117.37023,33.18175],[-117.37057,33.18189],[-117.37084,33.18208],[-117.3711,33.18227],[-117.37125,33.18241],[-117.3738,33.18543],[-117.37835,33.19087]]},"properties":{"routeId":"399","name":"SPRINTER","shortName":"","color":"#00AB9B","textColor":"#FFFFFF","system":"sprinter"}}]}