{"type":"FeatureCollection","features":[{"type":"Feature","geometry":{"type":"Point","coordinates":[-117.37835,33.19087]},"properties":{"name":"Oceanside","stopId":"27000","system":"sprinter","routes":["399"],"colors":["#00AB9B"]}},{"type":"Feature","geometry":{"type":"Point","coordinates":[-117.36885,33.18179]},"properties":{"name":"Coast Hwy","stopId":"27001","system":"sprinter","routes":["399"],"colors":["#00AB9B"]}},{"type":"Feature","geometry":{"type":"Point","coordinates":[-117.35351,33.19461]},"properties":{"name":"Crouch St","stopId":"27002","system":"sprinter","routes":["399"],"colors":["#00AB9B"]}},{"type":"Feature","geometry":{"type":"Point","coordinates":[-117.33248,33.19966]},"properties":{"name":"El Camino Real","stopId":"27003","system":"sprinter","routes":["399"],"colors":["#00AB9B"]}},{"type":"Feature","geometry":{"type":"Point","coordinates":[-117.31147,33.20146]},"properties":{"name":"Rancho Del Oro","stopId":"27004","system":"sprinter","routes":["399"],"colors":["#00AB9B"]}},{"type":"Feature","geometry":{"type":"Point","coordinates":[-117.28814,33.20455]},"properties":{"name":"College Blvd","stopId":"27005","system":"sprinter","routes":["399"],"colors":["#00AB9B"]}},{"type":"Feature","geometry":{"type":"Point","coordinates":[-117.25909,33.21955]},"properties":{"name":"Melrose Dr","stopId":"27006","system":"sprinter","routes":["399"],"colors":["#00AB9B"]}},{"type":"Feature","geometry":{"type":"Point","coordinates":[-117.24495,33.20295]},"properties":{"name":"Vista","stopId":"27007","system":"sprinter","routes":["399"],"colors":["#00AB9B"]}},{"type":"Feature","geometry":{"type":"Point","coordinates":[-117.23748,33.19053]},"properties":{"name":"Civic Center — Vista","stopId":"27008","system":"sprinter","routes":["399"],"colors":["#00AB9B"]}},{"type":"Feature","geometry":{"type":"Point","coordinates":[-117.20739,33.1735]},"properties":{"name":"Buena Creek","stopId":"27009","system":"sprinter","routes":["399"],"colors":["#00AB9B"]}},{"type":"Feature","geometry":{"type":"Point","coordinates":[-117.18531,33.14695]},"properties":{"name":"Palomar College","stopId":"27010","system":"sprinter","routes":["399"],"colors":["#00AB9B"]}},{"type":"Feature","geometry":{"type":"Point","coordinates":[-117.162,33.14227]},"properties":{"name":"San Marcos Civic Center","stopId":"27011","system":"sprinter","routes":["399"],"colors":["#00AB9B"]}},{"type":"Feature","geometry":{"type":"Point","coordinates":[-117.15359,33.13477]},"properties":{"name":"Cal State San Marcos","stopId":"27012","system":"sprinter","routes":["399"],"colors":["#00AB9B"]}},{"type":"Feature","geometry":{"type":"Point","coordinates":[-117.12415,33.13111]},"properties":{"name":"Nordahl Rd","stopId":"27013","system":"sprinter","routes":["399"],"colors":["#00AB9B"]}},{"type":"Feature","geometry":{"type":"Point","coordinates":[-117.09216,33.11842]},"properties":{"name":"Escondido","stopId":"27014","system":"sprinter","routes":["399"],"colors":["#00AB9B"]}}]}