{"type":"FeatureCollection","features":[{"type":"Feature","geometry":{"type":"LineString","coordinates":[[-120.65411,35.27677],[-120.65437,35.27637],[-120.65481,35.27572],[-120.65524,35.27507],[-120.65536,35.27482],[-120.65545,35.27452],[-120.6555,35.27411],[-120.65549,35.27395],[-120.65547,35.27378],[-120.65546,35.27362],[-120.65532,35.27317],[-120.65506,35.27272],[-120.65152,35.26764],[-120.65102,35.26722],[-120.64799,35.26534],[-120.64753,35.26498],[-120.64716,35.2646],[-120.63502,35.24957],[-120.63407,35.24848],[-120.63329,35.24772],[-120.63233,35.24689],[-120.62108,35.2381],[-120.62053,35.23755],[-120.62009,35.23699],[-120.6197,35.23636],[-120.61942,35.23573],[-120.61921,35.23506],[-120.61909,35.2342],[-120.61907,35.23406],[-120.61908,35.2339],[-120.61916,35.23292],[-120.61928,35.23238],[-120.61947,35.23184],[-120.62058,35.22935],[-120.62076,35.22866],[-120.62085,35.22799],[-120.62083,35.22699],[-120.62039,35.22204],[-120.62029,35.22133],[-120.62002,35.22044],[-120.61802,35.21527],[-120.6176,35.21387],[-120.61736,35.21266],[-120.61581,35.20317],[-120.61554,35.20209],[-120.61519,35.20122],[-120.61473,35.20041],[-120.61072,35.19455],[-120.61053,35.19415],[-120.61037,35.19366],[-120.6103,35.19308],[-120.61031,35.19258],[-120.61041,35.19201],[-120.61129,35.18834],[-120.61146,35.18773],[-120.61164,35.18732],[-120.61184,35.18702],[-120.6121,35.18672],[-120.61272,35.18625],[-120.61326,35.18601],[-120.61486,35.18549],[-120.61558,35.18508],[-120.61613,35.18455],[-120.61688,35.18353],[-120.61712,35.18309],[-120.61727,35.18261],[-120.61744,35.18048],[-120.61754,35.18],[-120.61771,35.17955],[-120.62325,35.16927],[-120.62377,35.16842],[-120.62457,35.1675],[-120.62553,35.16674],[-120.62634,35.16626],[-120.63235,35.16309],[-120.63264,35.16289],[-120.63287,35.16266],[-120.63305,35.16239],[-120.63316,35.16214],[-120.6332,35.16163],[-120.63315,35.16135],[-120.63304,35.16111],[-120.63263,35.16061],[-120.63163,35.15961],[-120.63136,35.1592],[-120.63118,35.15875],[-120.63108,35.15806],[-120.63088,35.1547],[-120.6309,35.15397],[-120.63111,35.15327],[-120.63144,35.15271],[-120.63244,35.15156],[-120.6328,35.15103],[-120.63312,35.15028],[-120.63325,35.14947],[-120.63288,35.14432],[-120.63146,35.1268],[-120.63133,35.12614],[-120.63114,35.12554],[-120.6308,35.12473],[-120.62313,35.10818],[-120.62237,35.10675],[-120.62162,35.1057],[-120.6209,35.10484],[-120.6196,35.10349],[-120.61891,35.10288],[-120.61807,35.10222],[-120.59664,35.08678],[-120.59527,35.08575],[-120.59422,35.08474],[-120.59331,35.0836],[-120.59257,35.08234],[-120.59227,35.08167],[-120.59202,35.08095],[-120.59177,35.07989],[-120.59165,35.07866],[-120.59166,35.07814],[-120.59172,35.07777],[-120.59196,35.07702],[-120.59228,35.07647],[-120.59269,35.07603],[-120.5932,35.07565],[-120.59457,35.07483],[-120.5949,35.07453],[-120.5952,35.07416],[-120.59545,35.07371],[-120.59573,35.073],[-120.59616,35.07119],[-120.59633,35.07071],[-120.59671,35.07014],[-120.59758,35.06928],[-120.59789,35.0689],[-120.59817,35.06831],[-120.59827,35.06771],[-120.59817,35.06662],[-120.59405,35.0369],[-120.59387,35.03574],[-120.59367,35.03481],[-120.59338,35.03386],[-120.59303,35.03295],[-120.59261,35.03206],[-120.59211,35.03114],[-120.5675,34.99126],[-120.56694,34.99017],[-120.5668,34.9898],[-120.56657,34.98924],[-120.56644,34.98892],[-120.56635,34.9886],[-120.56605,34.98758],[-120.56583,34.98637],[-120.56573,34.98535],[-120.56571,34.9843],[-120.56578,34.98333],[-120.56583,34.98292],[-120.56591,34.98241],[-120.56595,34.98212],[-120.56602,34.98183],[-120.56626,34.98085],[-120.56827,34.97405],[-120.56856,34.97332],[-120.56895,34.97258],[-120.57251,34.9669],[-120.57275,34.96639],[-120.57298,34.96578],[-120.57323,34.96475],[-120.57331,34.96382],[-120.57381,34.95153],[-120.57387,34.94525],[-120.57379,34.94402],[-120.57369,34.94331],[-120.57348,34.94233],[-120.57341,34.942],[-120.5733,34.94167],[-120.57313,34.94115],[-120.57303,34.94084],[-120.57274,34.94013],[-120.57226,34.93913],[-120.57174,34.93824],[-120.56896,34.93393],[-120.56833,34.93305],[-120.56772,34.93239],[-120.56709,34.93183],[-120.56458,34.93008],[-120.56389,34.92952],[-120.56348,34.92911],[-120.56315,34.92869],[-120.56287,34.92826],[-120.56263,34.92778],[-120.56241,34.92715],[-120.56224,34.92631],[-120.5622,34.92545],[-120.56226,34.92471],[-120.56249,34.92363],[-120.56354,34.92064],[-120.56366,34.92013],[-120.5637,34.91975],[-120.56369,34.91959],[-120.56368,34.91933],[-120.56367,34.91919],[-120.56363,34.91906],[-120.5635,34.91861],[-120.56321,34.91809],[-120.56277,34.91756],[-120.56205,34.91691],[-120.54199,34.89979],[-120.53979,34.89801],[-120.53199,34.89227],[-120.5182,34.88403],[-120.51745,34.88352],[-120.51688,34.88306],[-120.51632,34.88256],[-120.51585,34.88205],[-120.51552,34.8816],[-120.51507,34.88074],[-120.51489,34.88022],[-120.51408,34.87695],[-120.514,34.87638],[-120.51403,34.8759],[-120.51413,34.87552],[-120.51437,34.87499],[-120.51582,34.87237],[-120.51618,34.87179],[-120.51654,34.87137],[-120.51694,34.87102],[-120.51741,34.87073],[-120.52043,34.86927],[-120.52116,34.86887],[-120.5215,34.86862],[-120.52205,34.86805],[-120.52226,34.86772],[-120.52251,34.86711],[-120.52258,34.86679],[-120.5226,34.86619],[-120.52234,34.8648],[-120.52236,34.86412],[-120.52254,34.86346],[-120.52316,34.86198],[-120.52325,34.86167],[-120.5233,34.86098],[-120.52325,34.86065],[-120.52313,34.86029],[-120.52275,34.85968],[-120.5208,34.85789],[-120.52043,34.85748],[-120.52008,34.8569],[-120.51991,34.85622],[-120.51993,34.85572],[-120.52008,34.85518],[-120.52032,34.85471],[-120.52136,34.85297],[-120.52184,34.85198],[-120.52204,34.8512],[-120.5221,34.85044],[-120.52201,34.84964],[-120.52176,34.84872],[-120.51949,34.84239],[-120.51926,34.84145],[-120.51925,34.84098],[-120.5193,34.84061],[-120.51944,34.84014],[-120.51966,34.8397],[-120.51997,34.83928],[-120.52034,34.83892],[-120.52079,34.8386],[-120.52122,34.83837],[-120.5218,34.83816],[-120.52253,34.83798],[-120.53116,34.83652],[-120.53193,34.83636],[-120.53268,34.83613],[-120.53333,34.83585],[-120.53402,34.83547],[-120.53648,34.83368],[-120.53744,34.83311],[-120.53852,34.83269],[-120.54149,34.83188],[-120.54206,34.83166],[-120.54262,34.83138],[-120.5436,34.83072],[-120.54515,34.82931],[-120.54561,34.82899],[-120.54605,34.82875],[-120.54701,34.82838],[-120.54861,34.82791],[-120.54993,34.82764],[-120.55083,34.82756],[-120.55176,34.82763],[-120.55271,34.82785],[-120.55646,34.82921],[-120.55906,34.82999],[-120.55992,34.83029],[-120.5609,34.83072],[-120.5617,34.83114],[-120.56505,34.83327],[-120.5661,34.83382],[-120.57622,34.83792],[-120.57775,34.83844],[-120.57864,34.83859],[-120.57974,34.8386],[-120.58056,34.83849],[-120.58265,34.83811],[-120.58436,34.83797],[-120.58553,34.83798],[-120.58766,34.83816],[-120.58839,34.83815],[-120.58894,34.83806],[-120.58948,34.83788],[-120.58991,34.83766],[-120.5903,34.83738],[-120.59062,34.83707],[-120.59087,34.83672],[-120.59105,34.83637],[-120.5912,34.83591],[-120.59666,34.81427],[-120.59697,34.81323],[-120.59741,34.81212],[-120.59796,34.81101],[-120.59861,34.80995],[-120.6097,34.79413],[-120.61013,34.79345],[-120.61043,34.7928],[-120.61049,34.79266],[-120.61061,34.79227],[-120.61076,34.79139],[-120.61306,34.77394],[-120.61316,34.77306],[-120.61317,34.77259],[-120.61305,34.77193],[-120.61274,34.77126],[-120.61237,34.77078],[-120.6111,34.76939],[-120.61067,34.76885],[-120.61013,34.76801],[-120.60977,34.76725],[-120.60953,34.76658],[-120.60844,34.76223],[-120.60833,34.76148],[-120.60831,34.76092],[-120.60845,34.76001],[-120.60879,34.75908],[-120.61125,34.754],[-120.61357,34.74949],[-120.61452,34.74754],[-120.61482,34.74677],[-120.61491,34.74622],[-120.61493,34.7456],[-120.61482,34.7451],[-120.61464,34.74454],[-120.61438,34.74401],[-120.61369,34.74271],[-120.61256,34.74079],[-120.61196,34.73991],[-120.61153,34.73943],[-120.61101,34.739],[-120.60844,34.73727],[-120.60765,34.73664],[-120.60721,34.73617],[-120.60687,34.73571],[-120.60637,34.73475],[-120.60513,34.73143],[-120.60473,34.72999],[-120.60452,34.72872],[-120.60397,34.72374],[-120.60388,34.72322],[-120.60375,34.72275],[-120.60339,34.72201],[-120.60287,34.72132],[-120.60231,34.72079],[-120.60073,34.7195],[-120.6002,34.71896],[-120.59984,34.71841],[-120.59955,34.71768],[-120.59612,34.70095],[-120.596,34.70004],[-120.59601,34.69961],[-120.59603,34.69943],[-120.59609,34.69905],[-120.59612,34.69881],[-120.59626,34.69835],[-120.59666,34.6975],[-120.60409,34.68519],[-120.60481,34.68363],[-120.60509,34.68287],[-120.60525,34.68228],[-120.60556,34.68119],[-120.60592,34.67993],[-120.6061,34.67923],[-120.60621,34.67847],[-120.60623,34.67771],[-120.60619,34.67713],[-120.60612,34.67676],[-120.60589,34.67554],[-120.6056,34.67401],[-120.60483,34.67033],[-120.60471,34.66973],[-120.60467,34.66936],[-120.60466,34.66923],[-120.60462,34.66889],[-120.60464,34.66872],[-120.60471,34.66806],[-120.60485,34.66744],[-120.60502,34.667],[-120.60542,34.66629],[-120.60568,34.66594],[-120.60611,34.66547],[-120.61307,34.6594],[-120.61367,34.6588],[-120.6139,34.6585],[-120.61398,34.65836],[-120.61416,34.65804],[-120.61427,34.65786],[-120.61438,34.65755],[-120.61455,34.65677],[-120.61467,34.65291],[-120.61474,34.65212],[-120.61495,34.65114],[-120.61513,34.65062],[-120.61524,34.65041],[-120.61543,34.65],[-120.61555,34.64975],[-120.61585,34.64925],[-120.62306,34.63806],[-120.62412,34.63546],[-120.62494,34.63295],[-120.62537,34.63195],[-120.62775,34.62756],[-120.62956,34.6248],[-120.63032,34.62336],[-120.63095,34.62207],[-120.63158,34.62056],[-120.63207,34.61921],[-120.63725,34.60423],[-120.63764,34.60293],[-120.63789,34.60161],[-120.63801,34.60021],[-120.63797,34.59341],[-120.6381,34.59256],[-120.63874,34.58994],[-120.63901,34.58922],[-120.63941,34.58854],[-120.6415,34.58614],[-120.642,34.58546],[-120.64234,34.58473],[-120.64243,34.58426],[-120.64241,34.58365],[-120.64241,34.58352],[-120.64234,34.58321],[-120.64208,34.58259],[-120.64041,34.57984],[-120.63998,34.57893],[-120.63983,34.57842],[-120.63974,34.57789],[-120.63967,34.57619],[-120.63958,34.57553],[-120.63934,34.57472],[-120.63901,34.57405],[-120.63847,34.5733],[-120.63602,34.57037],[-120.63541,34.56951],[-120.63482,34.56842],[-120.63369,34.56583],[-120.63342,34.56536],[-120.63291,34.5647],[-120.63281,34.56457],[-120.6327,34.56447],[-120.63167,34.56358],[-120.63074,34.56296],[-120.62982,34.56248],[-120.62954,34.56234],[-120.62919,34.56221],[-120.62803,34.56179],[-120.62713,34.56156],[-120.6263,34.56141],[-120.61505,34.56005],[-120.61457,34.56],[-120.61282,34.55983],[-120.61158,34.55984],[-120.60845,34.56016],[-120.60703,34.56021],[-120.60591,34.56016],[-120.60001,34.55971],[-120.59897,34.55968],[-120.59767,34.55971],[-120.59644,34.5598],[-120.59525,34.55996],[-120.58993,34.56092],[-120.58819,34.56106],[-120.58695,34.56103],[-120.58575,34.56092],[-120.58459,34.56071],[-120.58345,34.56041],[-120.5821,34.55992],[-120.58064,34.55921],[-120.55292,34.54383],[-120.55204,34.54344],[-120.55095,34.54306],[-120.53986,34.5398],[-120.53877,34.53942],[-120.53768,34.53899],[-120.53635,34.53835],[-120.52329,34.53157],[-120.5225,34.53103],[-120.52026,34.52908],[-120.51961,34.52865],[-120.51914,34.52844],[-120.51864,34.52827],[-120.51476,34.52726],[-120.51405,34.52697],[-120.51369,34.52678],[-120.51356,34.52668],[-120.51308,34.52632],[-120.5128,34.52612],[-120.51213,34.52551],[-120.50109,34.51517],[-120.50056,34.51464],[-120.50021,34.51418],[-120.49981,34.51334],[-120.4992,34.51158],[-120.49906,34.511],[-120.49902,34.51061],[-120.49905,34.51018],[-120.49937,34.50847],[-120.49943,34.50781],[-120.49935,34.50701],[-120.49905,34.50618],[-120.49298,34.49535],[-120.49254,34.49472],[-120.49208,34.49417],[-120.49,34.4922],[-120.48957,34.4917],[-120.48922,34.49107],[-120.48851,34.48926],[-120.48812,34.48859],[-120.48769,34.48799],[-120.48726,34.48751],[-120.48676,34.48704],[-120.48532,34.48595],[-120.48475,34.48561],[-120.48269,34.48454],[-120.48066,34.48325],[-120.48018,34.48281],[-120.47905,34.48149],[-120.47733,34.47987],[-120.47671,34.47911],[-120.4629,34.46014],[-120.46072,34.45714],[-120.46015,34.45641],[-120.45972,34.45594],[-120.45947,34.45571],[-120.45894,34.45526],[-120.45873,34.45507],[-120.45832,34.45478],[-120.45699,34.45399],[-120.4535,34.45204],[-120.45278,34.45174],[-120.45208,34.45156],[-120.45139,34.45147],[-120.45054,34.45146],[-120.4394,34.45268],[-120.43748,34.45284],[-120.43555,34.45293],[-120.42401,34.45316],[-120.42205,34.45324],[-120.419,34.4535],[-120.41836,34.45356],[-120.41675,34.45376],[-120.4137,34.45424],[-120.41147,34.45469],[-120.40395,34.45637],[-120.40314,34.45651],[-120.40241,34.45658],[-120.40129,34.45659],[-120.38802,34.45602],[-120.38695,34.45602],[-120.38626,34.45608],[-120.38554,34.45621],[-120.38201,34.45716],[-120.38076,34.4574],[-120.37622,34.45764],[-120.35565,34.45954],[-120.35421,34.4596],[-120.35306,34.45958],[-120.34637,34.45906],[-120.34541,34.45903],[-120.34459,34.45909],[-120.34372,34.45926],[-120.34288,34.45952],[-120.33437,34.46289],[-120.33352,34.46319],[-120.33277,34.46337],[-120.33199,34.46349],[-120.33103,34.46356],[-120.32186,34.46374],[-120.32106,34.46381],[-120.32022,34.46398],[-120.31957,34.46418],[-120.31888,34.46446],[-120.30676,34.46988],[-120.30519,34.47052],[-120.30437,34.47075],[-120.30345,34.47091],[-120.2952,34.47193],[-120.29379,34.47191],[-120.29237,34.47168],[-120.285,34.46973],[-120.27898,34.46805],[-120.27825,34.46789],[-120.27755,34.46784],[-120.27708,34.46788],[-120.27653,34.468],[-120.27599,34.4682],[-120.27427,34.46898],[-120.27368,34.46913],[-120.27308,34.4692],[-120.26992,34.46914],[-120.26854,34.46907],[-120.26684,34.46892],[-120.26219,34.46837],[-120.26028,34.46823],[-120.25896,34.4682],[-120.2536,34.46835],[-120.24135,34.46921],[-120.24024,34.46931],[-120.23913,34.46947],[-120.23114,34.47118],[-120.23052,34.47129],[-120.22963,34.47136],[-120.16842,34.47118],[-120.16751,34.47124],[-120.16654,34.47138],[-120.15283,34.47386],[-120.1512,34.47397],[-120.14463,34.47403],[-120.14342,34.474],[-120.13489,34.47358],[-120.13312,34.47331],[-120.13057,34.47277],[-120.12788,34.47239],[-120.12522,34.47216],[-120.12055,34.47191],[-120.11983,34.47182],[-120.11926,34.4717],[-120.11868,34.47151],[-120.11798,34.47121],[-120.1086,34.46677],[-120.10543,34.46547],[-120.10412,34.46506],[-120.10152,34.46448],[-120.10088,34.46429],[-120.10021,34.46399],[-120.09838,34.46296],[-120.09753,34.46263],[-120.09156,34.4612],[-120.09012,34.46098],[-120.0892,34.46093],[-120.08835,34.46095],[-120.08484,34.46133],[-120.08389,34.46137],[-120.08292,34.46133],[-120.07693,34.46078],[-120.07629,34.46078],[-120.07571,34.46085],[-120.07527,34.46098],[-120.07481,34.46118],[-120.07414,34.46164],[-120.07366,34.46218],[-120.07255,34.46365],[-120.07225,34.46397],[-120.0719,34.46424],[-120.07141,34.46451],[-120.07091,34.4647],[-120.07039,34.4648],[-120.06982,34.46484],[-120.06915,34.46477],[-120.06852,34.46458],[-120.06796,34.46433],[-120.06583,34.4632],[-120.0652,34.46293],[-120.06449,34.46271],[-120.06327,34.46248],[-120.05826,34.46181],[-120.05749,34.46179],[-120.05676,34.46185],[-120.04019,34.46391],[-120.0391,34.46402],[-120.03795,34.46404],[-120.03655,34.46395],[-120.01574,34.46211],[-120.00694,34.46104],[-120.00573,34.46086],[-120.00406,34.46045],[-120.00315,34.46013],[-120.00236,34.4598],[-119.96857,34.44369],[-119.9672,34.44306],[-119.96593,34.44262],[-119.95309,34.43913],[-119.95183,34.43883],[-119.95068,34.43861],[-119.94882,34.43839],[-119.92236,34.43584],[-119.92098,34.43565],[-119.92012,34.43545],[-119.91927,34.43518],[-119.91061,34.43205],[-119.90988,34.43184],[-119.90918,34.43172],[-119.90749,34.43167],[-119.88477,34.4318],[-119.88254,34.43184],[-119.88095,34.43192],[-119.87876,34.43213],[-119.87548,34.43264],[-119.86222,34.4356],[-119.86032,34.43597],[-119.85836,34.43627],[-119.85687,34.43645],[-119.81304,34.4408],[-119.81245,34.44084],[-119.81125,34.44092],[-119.81063,34.44096],[-119.79281,34.44146],[-119.77949,34.44183],[-119.77737,34.44179],[-119.77578,34.44164],[-119.7743,34.44139],[-119.75701,34.438],[-119.75568,34.43766],[-119.7553,34.43756],[-119.75494,34.43743],[-119.75363,34.43696],[-119.75254,34.43645],[-119.7517,34.43599],[-119.75084,34.43545],[-119.75005,34.43486],[-119.74795,34.43303],[-119.7472,34.43249],[-119.74317,34.43007],[-119.74192,34.42945],[-119.74036,34.4288],[-119.73897,34.42838],[-119.73845,34.42822],[-119.73805,34.42813],[-119.73653,34.42781],[-119.72645,34.42646],[-119.72501,34.42622],[-119.72317,34.42576],[-119.72137,34.42514],[-119.71959,34.42432],[-119.7179,34.42333],[-119.7026,34.41218],[-119.70213,34.41193],[-119.70147,34.41169],[-119.70091,34.41157],[-119.7002,34.41154],[-119.69995,34.41154],[-119.69952,34.41159],[-119.69877,34.41176],[-119.66103,34.42241],[-119.66031,34.42258],[-119.659,34.42274],[-119.65835,34.42275],[-119.65745,34.42268],[-119.65636,34.42248],[-119.64375,34.41929],[-119.64227,34.41902],[-119.64062,34.41883],[-119.63883,34.41876],[-119.63766,34.4188],[-119.63662,34.41888],[-119.6186,34.42104],[-119.6169,34.42119],[-119.61532,34.42121],[-119.61245,34.4211],[-119.61056,34.42085],[-119.60792,34.42029],[-119.6068,34.42018],[-119.60568,34.42023],[-119.60306,34.42069],[-119.60245,34.42076],[-119.60186,34.42077],[-119.60116,34.42071],[-119.60021,34.4205],[-119.59163,34.41821],[-119.58691,34.41668],[-119.58585,34.41637],[-119.58458,34.41612],[-119.57936,34.41534],[-119.57744,34.41521],[-119.57546,34.41528],[-119.5683,34.41628],[-119.56699,34.41639],[-119.56549,34.41634],[-119.56204,34.41599],[-119.56116,34.41588],[-119.56049,34.41572],[-119.55988,34.4155],[-119.55933,34.41522],[-119.55877,34.41483],[-119.5498,34.40721],[-119.54917,34.40671],[-119.54849,34.40627],[-119.54782,34.40597],[-119.54707,34.40576],[-119.54617,34.40565],[-119.54035,34.4055],[-119.53917,34.40533],[-119.53819,34.40509],[-119.53733,34.40479],[-119.53648,34.40443],[-119.52772,34.4003],[-119.52625,34.39956],[-119.52515,34.39881],[-119.52463,34.39837],[-119.52416,34.39789],[-119.51758,34.39009],[-119.51676,34.38942],[-119.5163,34.38915],[-119.51576,34.38891],[-119.51461,34.38858],[-119.50263,34.38564],[-119.50154,34.38548],[-119.50041,34.38539],[-119.49755,34.38544],[-119.4965,34.38539],[-119.49522,34.3852],[-119.49394,34.38486],[-119.49261,34.38435],[-119.48182,34.37975],[-119.48082,34.37916],[-119.47895,34.37768],[-119.47844,34.37733],[-119.47745,34.37683],[-119.4765,34.37651],[-119.47558,34.37633],[-119.4746,34.37627],[-119.47387,34.37631],[-119.47194,34.37659],[-119.47111,34.37667],[-119.46976,34.37667],[-119.46847,34.37655],[-119.46677,34.37623],[-119.46434,34.37555],[-119.46105,34.37481],[-119.4603,34.37457],[-119.45961,34.37424],[-119.45802,34.37328],[-119.4571,34.37261],[-119.45386,34.36968],[-119.45291,34.36864],[-119.45044,34.36557],[-119.44375,34.35832],[-119.44319,34.35778],[-119.44271,34.3574],[-119.44209,34.35705],[-119.44139,34.35677],[-119.44077,34.35662],[-119.43997,34.35653],[-119.43901,34.35652],[-119.43589,34.35662],[-119.43348,34.35691],[-119.43289,34.35689],[-119.43233,34.35681],[-119.43142,34.35651],[-119.4305,34.35606],[-119.42945,34.35538],[-119.42834,34.35455],[-119.4265,34.35303],[-119.42524,34.3519],[-119.41285,34.33975],[-119.41181,34.33882],[-119.41102,34.33822],[-119.41017,34.33762],[-119.40168,34.33228],[-119.40101,34.3318],[-119.40052,34.33138],[-119.39971,34.33051],[-119.39693,34.32711],[-119.39173,34.32041],[-119.39116,34.3198],[-119.39068,34.31943],[-119.38999,34.31908],[-119.38931,34.31886],[-119.38845,34.31876],[-119.38763,34.31881],[-119.38645,34.31906],[-119.37847,34.32121],[-119.37716,34.32146],[-119.37581,34.32158],[-119.37456,34.32152],[-119.37311,34.3213],[-119.37168,34.32087],[-119.37045,34.32032],[-119.36572,34.31755],[-119.36422,34.31655],[-119.35345,34.30839],[-119.34879,34.30456],[-119.34736,34.30324],[-119.34573,34.30151],[-119.34444,34.29996],[-119.33823,34.2922],[-119.33739,34.2913],[-119.33649,34.29054],[-119.33537,34.28981],[-119.33417,34.28922],[-119.32226,34.28447],[-119.32077,34.28379],[-119.31943,34.28298],[-119.3123,34.27788],[-119.31143,34.27736],[-119.31059,34.27708],[-119.30953,34.27696],[-119.28985,34.27701],[-119.28887,34.27695],[-119.2879,34.27674],[-119.27614,34.27319],[-119.27531,34.27291],[-119.27464,34.27262],[-119.27372,34.27213],[-119.2728,34.27151],[-119.26947,34.26858],[-119.26834,34.26779],[-119.26783,34.26753],[-119.22782,34.24873],[-119.22625,34.24805],[-119.22569,34.24787],[-119.22493,34.24771],[-119.22409,34.24763],[-119.2233,34.24764],[-119.22222,34.24776],[-119.21302,34.24917],[-119.21121,34.24941],[-119.21024,34.24947],[-119.20923,34.24947],[-119.20817,34.2494],[-119.20727,34.24927],[-119.20626,34.24907],[-119.20524,34.24878],[-119.20431,34.24845],[-119.20325,34.24799],[-119.19541,34.24396],[-119.1944,34.24339],[-119.19299,34.24245],[-119.17879,34.23255],[-119.17819,34.23205],[-119.17776,34.2316],[-119.17743,34.23115],[-119.17707,34.23053],[-119.17686,34.23003],[-119.1767,34.22948],[-119.1766,34.2285],[-119.17682,34.21889],[-119.17702,34.20323],[-119.17701,34.20226],[-119.17695,34.20182],[-119.17678,34.20116],[-119.17645,34.20038],[-119.17584,34.19954],[-119.17506,34.1988],[-119.17421,34.19823],[-119.17334,34.19783],[-119.17278,34.19764],[-119.17175,34.19742],[-119.1703,34.19734],[-119.05054,34.19641],[-119.04901,34.19646],[-119.04841,34.19655],[-119.04772,34.19671],[-119.04666,34.19711],[-119.04578,34.19762],[-119.04499,34.19827],[-119.04438,34.19898],[-119.04402,34.19955],[-119.0437,34.20016],[-119.04007,34.20765],[-119.03929,34.20905],[-119.03836,34.21035],[-119.03172,34.21886],[-119.03044,34.22025],[-119.01691,34.23336],[-119.01586,34.23442],[-119.01514,34.23534],[-119.00785,34.24554],[-119.00743,34.24608],[-119.00695,34.2466],[-119.00621,34.24727],[-119.00529,34.24793],[-118.98064,34.26374],[-118.97984,34.26423],[-118.97913,34.26459],[-118.97844,34.26489],[-118.97771,34.26514],[-118.97694,34.26535],[-118.97614,34.2655],[-118.94524,34.27027],[-118.9342,34.27274],[-118.933,34.27308],[-118.93198,34.27349],[-118.92078,34.27896],[-118.9197,34.27943],[-118.91907,34.27965],[-118.9174,34.28006],[-118.89519,34.2846],[-118.89392,34.28481],[-118.89267,34.28489],[-118.86808,34.28491],[-118.8671,34.28494],[-118.86612,34.28503],[-118.85885,34.28659],[-118.85717,34.28701],[-118.84044,34.29248],[-118.83966,34.29271],[-118.83901,34.29283],[-118.8383,34.29288],[-118.83758,34.29284],[-118.83697,34.29273],[-118.8364,34.29256],[-118.8359,34.29236],[-118.83542,34.29211],[-118.83248,34.29027],[-118.83121,34.28961],[-118.83051,34.28934],[-118.83006,34.2892],[-118.82659,34.28817],[-118.82505,34.28776],[-118.82411,34.2876],[-118.82322,34.28752],[-118.81251,34.28691],[-118.81072,34.28686],[-118.80932,34.28668],[-118.80846,34.2865],[-118.80725,34.2861],[-118.80606,34.28554],[-118.8051,34.28493],[-118.80469,34.28461],[-118.8026,34.28285],[-118.80186,34.28227],[-118.80087,34.2817],[-118.79977,34.28126],[-118.79905,34.28106],[-118.79776,34.28086],[-118.79078,34.28058],[-118.79,34.2805],[-118.78884,34.28028],[-118.78818,34.2801],[-118.78711,34.2797],[-118.78634,34.27935],[-118.7852,34.27874],[-118.78099,34.27672],[-118.77964,34.27618],[-118.76636,34.27271],[-118.76402,34.27215],[-118.76294,34.27201],[-118.76178,34.27196],[-118.70873,34.27197],[-118.70078,34.27196],[-118.69953,34.2719],[-118.69888,34.2718],[-118.69821,34.27164],[-118.6971,34.27121],[-118.69627,34.27076],[-118.69058,34.26739],[-118.68946,34.26685],[-118.68789,34.26629],[-118.68638,34.26594],[-118.68487,34.26574],[-118.6766,34.26551],[-118.6755,34.26542],[-118.67447,34.26525],[-118.67382,34.26508],[-118.67294,34.26479],[-118.66473,34.2614],[-118.66371,34.2611],[-118.66269,34.26095],[-118.66195,34.26092],[-118.66129,34.26096],[-118.65706,34.26142],[-118.65579,34.26165],[-118.65507,34.26187],[-118.65414,34.26229],[-118.6533,34.26285],[-118.65273,34.26336],[-118.65124,34.26485],[-118.65045,34.26543],[-118.64958,34.26588],[-118.64911,34.26603],[-118.64797,34.26618],[-118.64691,34.26614],[-118.62227,34.26326],[-118.62127,34.26321],[-118.62022,34.26335],[-118.61531,34.26461],[-118.61462,34.26488],[-118.61405,34.26527],[-118.6136,34.26576],[-118.61329,34.26637],[-118.61239,34.26961],[-118.61216,34.27024],[-118.61192,34.27064],[-118.61162,34.27097],[-118.61123,34.27129],[-118.61077,34.27155],[-118.61004,34.27179],[-118.60928,34.2719],[-118.60359,34.27215],[-118.60227,34.27212],[-118.6017,34.27201],[-118.60129,34.27187],[-118.60088,34.27166],[-118.60051,34.2714],[-118.60022,34.27114],[-118.59996,34.27082],[-118.59975,34.27045],[-118.59962,34.27006],[-118.59955,34.26968],[-118.59951,34.26746],[-118.59949,34.24995],[-118.5994,34.24851],[-118.59927,34.24777],[-118.59907,34.24702],[-118.59889,34.2465],[-118.59843,34.24549],[-118.59776,34.2444],[-118.59692,34.24334],[-118.59622,34.24264],[-118.59516,34.24177],[-118.59394,34.24099],[-118.59291,34.24047],[-118.5915,34.23991],[-118.5907,34.23968],[-118.58907,34.23933],[-118.4867,34.21917],[-118.48181,34.2182],[-118.48048,34.2179],[-118.47257,34.21628],[-118.45124,34.21213],[-118.44878,34.21168],[-118.43453,34.20883],[-118.42918,34.20788],[-118.42671,34.20739],[-118.32882,34.18803],[-118.32226,34.18672],[-118.32172,34.18654],[-118.32126,34.18631],[-118.32044,34.18567],[-118.31521,34.18103],[-118.31358,34.17967],[-118.31178,34.17829],[-118.30973,34.17685],[-118.30785,34.17567],[-118.30513,34.17408],[-118.2861,34.16352],[-118.28457,34.16263],[-118.28292,34.16154],[-118.28168,34.16061],[-118.28034,34.15946],[-118.27924,34.1584],[-118.27821,34.15727],[-118.27723,34.15604],[-118.2764,34.15484],[-118.27561,34.15354],[-118.26314,34.12938],[-118.26199,34.12742],[-118.26063,34.12543],[-118.25907,34.12351],[-118.25796,34.12232],[-118.25709,34.12147],[-118.25577,34.12027],[-118.24759,34.11324],[-118.24707,34.11268],[-118.24648,34.11182],[-118.24558,34.11003],[-118.24515,34.10934],[-118.2447,34.10877],[-118.24226,34.10607],[-118.24173,34.10532],[-118.24132,34.10452],[-118.24005,34.10118],[-118.23976,34.10056],[-118.23946,34.10005],[-118.23908,34.09955],[-118.23658,34.09659],[-118.23578,34.09585],[-118.23482,34.09521],[-118.23402,34.09481],[-118.23116,34.09361],[-118.23056,34.09329],[-118.22999,34.09292],[-118.22946,34.09251],[-118.22894,34.09201],[-118.22775,34.09062],[-118.22729,34.09001],[-118.22697,34.0895],[-118.22687,34.08931],[-118.22665,34.08884],[-118.22652,34.08858],[-118.22645,34.08836],[-118.22634,34.08801],[-118.22625,34.08776],[-118.22621,34.08749],[-118.22613,34.08704],[-118.22609,34.08684],[-118.22606,34.08629],[-118.22608,34.08567],[-118.22617,34.08501],[-118.22667,34.0831],[-118.22678,34.08252],[-118.22696,34.07993],[-118.22694,34.07892],[-118.2268,34.07814],[-118.22627,34.07623],[-118.22589,34.07434],[-118.2258,34.07383],[-118.22549,34.07197],[-118.2249,34.06931],[-118.22488,34.0688],[-118.22487,34.06866],[-118.22491,34.06849],[-118.22503,34.06802],[-118.22668,34.06386],[-118.22693,34.06337],[-118.22737,34.0622],[-118.22738,34.0622],[-118.22739,34.06215],[-118.22745,34.06201],[-118.22754,34.06162],[-118.22751,34.06055],[-118.22738,34.05995],[-118.22693,34.05687],[-118.22694,34.05631],[-118.22699,34.05607],[-118.22703,34.05596],[-118.22713,34.05571],[-118.22718,34.05558],[-118.22734,34.05532],[-118.22889,34.05361],[-118.22921,34.05313],[-118.22927,34.05305],[-118.22938,34.05277],[-118.23054,34.04849],[-118.23063,34.04779],[-118.23054,34.04705],[-118.23052,34.04689],[-118.22483,34.02171],[-118.22477,34.02069],[-118.22483,34.01935],[-118.22478,34.01859],[-118.22468,34.01828],[-118.2244,34.01772],[-118.22394,34.0172],[-118.22347,34.01683],[-118.22284,34.01651],[-118.22255,34.01642],[-118.22239,34.01639],[-118.22138,34.01621],[-118.21927,34.01607],[-118.2187,34.01599],[-118.21845,34.01593],[-118.21791,34.01579],[-118.21765,34.01573],[-118.21592,34.01516],[-118.20487,34.01142],[-118.20024,34.00992],[-118.19758,34.00894],[-118.17831,34.00242],[-118.17428,34.00111],[-118.16461,33.99779],[-118.15616,33.99498],[-118.13842,33.98895],[-118.13306,33.98717],[-118.11769,33.98197],[-118.11385,33.98062],[-118.11195,33.9798],[-118.11026,33.97886],[-118.10592,33.97588],[-118.10288,33.97367],[-118.10081,33.97237],[-118.09709,33.96981],[-118.09555,33.96894],[-118.09467,33.96857],[-118.0936,33.96818],[-118.07845,33.96351],[-118.07777,33.96325],[-118.07695,33.96286],[-118.07622,33.96245],[-118.07512,33.96162],[-118.06362,33.9507],[-118.06307,33.95009],[-118.06258,33.94943],[-118.06223,33.94885],[-118.06188,33.94803],[-118.06182,33.9479],[-118.06179,33.94779],[-118.06153,33.9469],[-118.06145,33.94628],[-118.06141,33.94559],[-118.06132,33.93506],[-118.06125,33.92651],[-118.0612,33.91995],[-118.06103,33.91874],[-118.06088,33.9182],[-118.06078,33.91793],[-118.06063,33.91753],[-118.06056,33.91733],[-118.06014,33.91649],[-118.05985,33.91604],[-118.05952,33.91558],[-118.05934,33.91537],[-118.05902,33.91501],[-118.05884,33.9148],[-118.05866,33.91465],[-118.05789,33.91396],[-118.0567,33.91313],[-118.02506,33.89527],[-118.02341,33.89439],[-118.01535,33.88986],[-118.01208,33.88797],[-118.00279,33.88276],[-118.00213,33.88233],[-118.00169,33.88214],[-117.99402,33.87782],[-117.99355,33.87756],[-117.9927,33.87716],[-117.99193,33.87686],[-117.99132,33.87666],[-117.99003,33.87634],[-117.95528,33.87],[-117.95093,33.86917],[-117.94811,33.86866],[-117.94717,33.86853],[-117.94613,33.86843],[-117.94441,33.86836],[-117.91978,33.86869],[-117.91729,33.86866],[-117.91639,33.86857],[-117.91538,33.86836],[-117.91438,33.86797],[-117.91382,33.86767],[-117.91329,33.8673],[-117.91283,33.8669],[-117.91239,33.86644],[-117.91204,33.86597],[-117.91174,33.86544],[-117.9115,33.86487],[-117.91135,33.86426],[-117.91127,33.86364],[-117.91105,33.85266],[-117.91099,33.85193],[-117.9108,33.85074],[-117.91045,33.84943],[-117.90341,33.82817],[-117.89925,33.81578],[-117.89876,33.81455],[-117.89822,33.81346],[-117.89767,33.81257],[-117.89706,33.81171],[-117.89577,33.81021],[-117.89506,33.80951],[-117.89423,33.8088],[-117.89332,33.80811],[-117.89147,33.80695],[-117.88943,33.806],[-117.88792,33.80544],[-117.88499,33.80453],[-117.85936,33.79716],[-117.85877,33.79694],[-117.85832,33.79666],[-117.85794,33.79631],[-117.85766,33.79588],[-117.85757,33.79569],[-117.85746,33.79521],[-117.85743,33.79411],[-117.85744,33.77783],[-117.85731,33.77706],[-117.8572,33.77666],[-117.85698,33.77608],[-117.8561,33.77434],[-117.85594,33.77383],[-117.85586,33.77329],[-117.85587,33.76356],[-117.85597,33.75515],[-117.8559,33.7497],[-117.85584,33.74922],[-117.85571,33.74866],[-117.85383,33.74274],[-117.85357,33.74205],[-117.85322,33.74143],[-117.85278,33.74085],[-117.85224,33.74031],[-117.85155,33.73979],[-117.79125,33.69782],[-117.70776,33.63958],[-117.70679,33.63882],[-117.70524,33.6375],[-117.69352,33.62624],[-117.68549,33.61902],[-117.68436,33.61786],[-117.68369,33.61707],[-117.68265,33.61558],[-117.67731,33.60729],[-117.67628,33.60558],[-117.67571,33.60434],[-117.67546,33.60368],[-117.67508,33.60239],[-117.67483,33.60115],[-117.67475,33.6004],[-117.67421,33.59272],[-117.67364,33.58379],[-117.67333,33.57977],[-117.67325,33.57778],[-117.67331,33.57655],[-117.67376,33.57145],[-117.67462,33.55909],[-117.67461,33.5579],[-117.67428,33.55445],[-117.6742,33.55302],[-117.67419,33.55058],[-117.67426,33.54839],[-117.67457,33.5437],[-117.67552,33.53744],[-117.67567,33.53614],[-117.67572,33.53533],[-117.67565,33.53372],[-117.67554,33.53291],[-117.67531,33.53178],[-117.67496,33.53062],[-117.67143,33.52044],[-117.66451,33.50393],[-117.66425,33.50285],[-117.66389,33.49992],[-117.66425,33.49093],[-117.66446,33.49009],[-117.66475,33.48932],[-117.66558,33.48754],[-117.66592,33.48708],[-117.66615,33.48687],[-117.66674,33.48649],[-117.66893,33.48568],[-117.66971,33.48519],[-117.67059,33.48439],[-117.67127,33.48358],[-117.67423,33.47971],[-117.6763,33.47692],[-117.67676,33.47621],[-117.67704,33.47564],[-117.67732,33.47492],[-117.68032,33.4661],[-117.68058,33.46522],[-117.68062,33.46482],[-117.6806,33.46437],[-117.6805,33.46392],[-117.68029,33.46345],[-117.67999,33.46299],[-117.67964,33.46261],[-117.67917,33.46225],[-117.66489,33.45358],[-117.66385,33.45304],[-117.65948,33.45104],[-117.65807,33.45034],[-117.65643,33.44943],[-117.65472,33.44836],[-117.65267,33.44684],[-117.64913,33.44387],[-117.64805,33.44303],[-117.64673,33.44216],[-117.64298,33.4399],[-117.64163,33.43898],[-117.63279,33.43193],[-117.63137,33.43076],[-117.63026,33.42962],[-117.62769,33.42644],[-117.62688,33.4256],[-117.62583,33.42475],[-117.62242,33.42239],[-117.62187,33.42193],[-117.62124,33.42134],[-117.62078,33.42085],[-117.62025,33.42022],[-117.61823,33.41764],[-117.61724,33.41645],[-117.61647,33.41565],[-117.61197,33.41137],[-117.60714,33.40589],[-117.60227,33.3999],[-117.60138,33.39874],[-117.60082,33.39792],[-117.60016,33.3968],[-117.59947,33.39536],[-117.59769,33.39088],[-117.59733,33.39007],[-117.59699,33.38947],[-117.59623,33.38846],[-117.59577,33.38799],[-117.5946,33.38705],[-117.59362,33.38646],[-117.59265,33.38602],[-117.58262,33.38212],[-117.58152,33.38176],[-117.58065,33.38157],[-117.57977,33.38145],[-117.57607,33.3813],[-117.57491,33.3812],[-117.57358,33.38092],[-117.57227,33.38047],[-117.57155,33.38013],[-117.56858,33.37853],[-117.54809,33.3673],[-117.54613,33.36606],[-117.5403,33.36202],[-117.53798,33.36049],[-117.52841,33.35392],[-117.52727,33.35303],[-117.52389,33.35007],[-117.52254,33.34905],[-117.52108,33.34814],[-117.51714,33.34601],[-117.51544,33.34492],[-117.49064,33.32687],[-117.48957,33.32603],[-117.48865,33.3252],[-117.48745,33.3239],[-117.4812,33.31637],[-117.48011,33.31521],[-117.47911,33.31432],[-117.46482,33.3021],[-117.46347,33.30082],[-117.46225,33.29933],[-117.44751,33.2799],[-117.44673,33.27893],[-117.44604,33.27817],[-117.44501,33.2772],[-117.44411,33.27646],[-117.43682,33.27111],[-117.43584,33.27027],[-117.43526,33.26971],[-117.43398,33.26826],[-117.41355,33.24249],[-117.41233,33.24102],[-117.4099,33.23866],[-117.40802,33.23701],[-117.3964,33.22651],[-117.39565,33.22581],[-117.39518,33.22529],[-117.39449,33.22433],[-117.394,33.22336],[-117.39372,33.22255],[-117.39277,33.21933],[-117.39143,33.21575],[-117.38803,33.20282],[-117.38775,33.20207],[-117.38732,33.20133],[-117.38448,33.19793],[-117.38367,33.19688],[-117.37751,33.18954],[-117.36322,33.17262],[-117.36142,33.17078],[-117.3605,33.1699],[-117.35927,33.16883],[-117.35151,33.16141],[-117.35053,33.16042],[-117.34974,33.15955],[-117.34855,33.15812],[-117.33939,33.14695],[-117.33863,33.14597],[-117.33744,33.14429],[-117.3365,33.14283],[-117.33568,33.14145],[-117.33488,33.13996],[-117.31959,33.1098],[-117.31887,33.10827],[-117.31109,33.09126],[-117.31018,33.08909],[-117.30173,33.06371],[-117.30113,33.06205],[-117.30065,33.06102],[-117.30004,33.05995],[-117.29464,33.05153],[-117.29421,33.05076],[-117.29375,33.04968],[-117.29348,33.04884],[-117.29328,33.04776],[-117.29185,33.03733],[-117.29155,33.03609],[-117.29112,33.0349],[-117.29017,33.03297],[-117.28782,33.02847],[-117.28709,33.02725],[-117.28208,33.01939],[-117.27872,33.01344],[-117.27834,33.01265],[-117.27787,33.01153],[-117.27756,33.0106],[-117.2752,33.00234],[-117.27478,33.00076],[-117.27446,32.99997],[-117.27259,32.99611],[-117.27225,32.99526],[-117.27196,32.99432],[-117.27153,32.99256],[-117.27142,32.99211],[-117.2705,32.98836],[-117.26964,32.98506],[-117.26571,32.9687],[-117.26554,32.96782],[-117.26548,32.9671],[-117.26553,32.96619],[-117.26568,32.96537],[-117.26594,32.96459],[-117.26772,32.95985],[-117.26786,32.95912],[-117.26784,32.95835],[-117.26707,32.95522],[-117.2668,32.95429],[-117.26358,32.94637],[-117.26313,32.94497],[-117.26165,32.93954],[-117.26143,32.93895],[-117.26116,32.93843],[-117.2608,32.93792],[-117.26029,32.93735],[-117.24876,32.92556],[-117.24744,32.92443],[-117.23953,32.91811],[-117.23841,32.9171],[-117.23704,32.91564],[-117.22951,32.90733],[-117.21312,32.89033],[-117.21245,32.88972],[-117.21171,32.88917],[-117.20981,32.88797],[-117.20906,32.88757],[-117.20852,32.88737],[-117.20751,32.88716],[-117.20633,32.88713],[-117.20429,32.88718],[-117.20322,32.88727],[-117.20252,32.88742],[-117.20119,32.88797],[-117.20047,32.88818],[-117.1975,32.88861],[-117.197,32.88876],[-117.19612,32.88914],[-117.19565,32.88927],[-117.19504,32.88932],[-117.19452,32.88927],[-117.19395,32.88905],[-117.19345,32.88865],[-117.19312,32.88817],[-117.19253,32.88694],[-117.19221,32.8866],[-117.1918,32.88634],[-117.19134,32.88621],[-117.191,32.88617],[-117.18727,32.88619],[-117.18661,32.8861],[-117.18621,32.88596],[-117.18583,32.88576],[-117.18505,32.88503],[-117.18471,32.88481],[-117.18295,32.88419],[-117.18198,32.88389],[-117.18169,32.88386],[-117.18125,32.88389],[-117.18028,32.88416],[-117.17995,32.88422],[-117.17954,32.88421],[-117.17913,32.88413],[-117.17737,32.88344],[-117.17694,32.88321],[-117.17564,32.88225],[-117.17529,32.88194],[-117.17501,32.88157],[-117.1748,32.88111],[-117.17424,32.87953],[-117.17419,32.87914],[-117.1746,32.87686],[-117.17495,32.87556],[-117.17532,32.8746],[-117.17575,32.87372],[-117.17608,32.87318],[-117.17679,32.87235],[-117.17765,32.87167],[-117.17823,32.87133],[-117.18329,32.86868],[-117.18993,32.86448],[-117.1908,32.86402],[-117.19171,32.86366],[-117.19283,32.86334],[-117.19572,32.86272],[-117.19664,32.86257],[-117.1976,32.86249],[-117.19843,32.86249],[-117.19929,32.86256],[-117.20362,32.86314],[-117.2046,32.86322],[-117.20536,32.86323],[-117.20614,32.86318],[-117.20697,32.86307],[-117.20802,32.86284],[-117.20933,32.86238],[-117.2291,32.85409],[-117.22996,32.85363],[-117.23061,32.85321],[-117.23126,32.8527],[-117.23191,32.85209],[-117.23263,32.85121],[-117.2343,32.84863],[-117.23484,32.84774],[-117.23525,32.84681],[-117.23543,32.84625],[-117.2356,32.84558],[-117.23571,32.84487],[-117.23573,32.84365],[-117.23554,32.84236],[-117.23513,32.84113],[-117.23449,32.83991],[-117.23342,32.83832],[-117.2331,32.83778],[-117.23289,32.83726],[-117.23194,32.83401],[-117.23172,32.83359],[-117.23069,32.83198],[-117.23045,32.83146],[-117.23039,32.83084],[-117.23073,32.8285],[-117.23072,32.82729],[-117.23063,32.82665],[-117.23043,32.82586],[-117.23019,32.8252],[-117.22983,32.82448],[-117.22925,32.8236],[-117.22865,32.82288],[-117.22469,32.81927],[-117.22241,32.81711],[-117.21892,32.81401],[-117.21834,32.8134],[-117.21786,32.81281],[-117.21745,32.81217],[-117.21712,32.81155],[-117.2162,32.8092],[-117.21587,32.8085],[-117.21391,32.80518],[-117.20879,32.79682],[-117.20834,32.79597],[-117.2071,32.79322],[-117.20672,32.79215],[-117.20647,32.79115],[-117.20635,32.79012],[-117.20634,32.78905],[-117.20646,32.78803],[-117.20799,32.77937],[-117.20806,32.77826],[-117.20796,32.77723],[-117.20777,32.77651],[-117.20753,32.77578],[-117.20161,32.76015],[-117.20045,32.75668],[-117.19914,32.75327],[-117.19888,32.75269],[-117.19856,32.75215],[-117.19818,32.75163],[-117.1947,32.74762],[-117.19373,32.74666],[-117.1928,32.74597],[-117.19213,32.74558],[-117.18235,32.74041],[-117.18164,32.74],[-117.18003,32.73893],[-117.17916,32.73821],[-117.17874,32.73779],[-117.17463,32.73317],[-117.1741,32.73246],[-117.17362,32.73157],[-117.171,32.72556],[-117.17064,32.72466],[-117.17038,32.72382],[-117.1702,32.72296],[-117.17009,32.72188],[-117.17009,32.72035],[-117.17017,32.71919],[-117.17017,32.71779]]},"properties":{"routeId":"78","name":"Pacific Surfliner","shortName":"","color":"#1B5BA3","textColor":"#000000","system":"surfliner"}}]}