{"type":"FeatureCollection","features":[{"type":"Feature","geometry":{"type":"Point","coordinates":[-117.87731,33.8038]},"properties":{"name":"Anaheim","stopId":"ANA","system":"surfliner","routes":["78"],"colors":["#1B5BA3"]}},{"type":"Feature","geometry":{"type":"Point","coordinates":[-118.35377,34.19307]},"properties":{"name":"Burbank","stopId":"BUR","system":"surfliner","routes":["78"],"colors":["#1B5BA3"]}},{"type":"Feature","geometry":{"type":"Point","coordinates":[-119.03411,34.21593]},"properties":{"name":"Camarillo","stopId":"CML","system":"surfliner","routes":["78"],"colors":["#1B5BA3"]}},{"type":"Feature","geometry":{"type":"Point","coordinates":[-119.52298,34.39678]},"properties":{"name":"Carpinteria","stopId":"CPN","system":"surfliner","routes":["78"],"colors":["#1B5BA3"]}},{"type":"Feature","geometry":{"type":"Point","coordinates":[-118.59942,34.25321]},"properties":{"name":"Chatsworth","stopId":"CWT","system":"surfliner","routes":["78"],"colors":["#1B5BA3"]}},{"type":"Feature","geometry":{"type":"Point","coordinates":[-117.92285,33.86897]},"properties":{"name":"Fullerton","stopId":"FUL","system":"surfliner","routes":["78"],"colors":["#1B5BA3"]}},{"type":"Feature","geometry":{"type":"Point","coordinates":[-118.25887,34.12371]},"properties":{"name":"Glendale","stopId":"GDL","system":"surfliner","routes":["78"],"colors":["#1B5BA3"]}},{"type":"Feature","geometry":{"type":"Point","coordinates":[-119.84309,34.43773]},"properties":{"name":"Goleta","stopId":"GTA","system":"surfliner","routes":["78"],"colors":["#1B5BA3"]}},{"type":"Feature","geometry":{"type":"Point","coordinates":[-120.57341,34.96293]},"properties":{"name":"Guadalupe","stopId":"GUA","system":"surfliner","routes":["78"],"colors":["#1B5BA3"]}},{"type":"Feature","geometry":{"type":"Point","coordinates":[-120.62927,35.12126]},"properties":{"name":"Grover Beach","stopId":"GVB","system":"surfliner","routes":["78"],"colors":["#1B5BA3"]}},{"type":"Feature","geometry":{"type":"Point","coordinates":[-117.73369,33.65677]},"properties":{"name":"Irvine","stopId":"IRV","system":"surfliner","routes":["78"],"colors":["#1B5BA3"]}},{"type":"Feature","geometry":{"type":"Point","coordinates":[-118.23678,34.05618]},"properties":{"name":"Los Angeles","stopId":"LAX","system":"surfliner","routes":["78"],"colors":["#1B5BA3"]}},{"type":"Feature","geometry":{"type":"Point","coordinates":[-120.605,34.6827]},"properties":{"name":"Lompoc-Surf","stopId":"LPS","system":"surfliner","routes":["78"],"colors":["#1B5BA3"]}},{"type":"Feature","geometry":{"type":"Point","coordinates":[-117.37943,33.19252]},"properties":{"name":"Oceanside","stopId":"OSD","system":"surfliner","routes":["78"],"colors":["#1B5BA3"]}},{"type":"Feature","geometry":{"type":"Point","coordinates":[-118.87806,34.28476]},"properties":{"name":"Moorpark","stopId":"MPK","system":"surfliner","routes":["78"],"colors":["#1B5BA3"]}},{"type":"Feature","geometry":{"type":"Point","coordinates":[-117.20007,32.75527]},"properties":{"name":"San Diego Old Town Transportation Center","stopId":"OLT","system":"surfliner","routes":["78"],"colors":["#1B5BA3"]}},{"type":"Feature","geometry":{"type":"Point","coordinates":[-119.17598,34.19924]},"properties":{"name":"Oxnard","stopId":"OXN","system":"surfliner","routes":["78"],"colors":["#1B5BA3"]}},{"type":"Feature","geometry":{"type":"Point","coordinates":[-118.54542,34.23066]},"properties":{"name":"Northridge","stopId":"NRG","system":"surfliner","routes":["78"],"colors":["#1B5BA3"]}},{"type":"Feature","geometry":{"type":"Point","coordinates":[-117.85661,33.75163]},"properties":{"name":"Santa Ana","stopId":"SNA","system":"surfliner","routes":["78"],"colors":["#1B5BA3"]}},{"type":"Feature","geometry":{"type":"Point","coordinates":[-117.66381,33.50132]},"properties":{"name":"San Juan Capistrano","stopId":"SNC","system":"surfliner","routes":["78"],"colors":["#1B5BA3"]}},{"type":"Feature","geometry":{"type":"Point","coordinates":[-117.16958,32.71617]},"properties":{"name":"San Diego","stopId":"SAN","system":"surfliner","routes":["78"],"colors":["#1B5BA3"]}},{"type":"Feature","geometry":{"type":"Point","coordinates":[-119.69279,34.41372]},"properties":{"name":"Santa Barbara","stopId":"SBA","system":"surfliner","routes":["78"],"colors":["#1B5BA3"]}},{"type":"Feature","geometry":{"type":"Point","coordinates":[-118.69516,34.2702]},"properties":{"name":"Simi Valley","stopId":"SIM","system":"surfliner","routes":["78"],"colors":["#1B5BA3"]}},{"type":"Feature","geometry":{"type":"Point","coordinates":[-120.6547,35.27643]},"properties":{"name":"San Luis Obispo","stopId":"SLO","system":"surfliner","routes":["78"],"colors":["#1B5BA3"]}},{"type":"Feature","geometry":{"type":"Point","coordinates":[-117.61973,33.41965]},"properties":{"name":"San Clemente Pier","stopId":"SNP","system":"surfliner","routes":["78"],"colors":["#1B5BA3"]}},{"type":"Feature","geometry":{"type":"Point","coordinates":[-117.27114,32.99294]},"properties":{"name":"Solana Beach","stopId":"SOL","system":"surfliner","routes":["78"],"colors":["#1B5BA3"]}},{"type":"Feature","geometry":{"type":"Point","coordinates":[-119.29992,34.27693]},"properties":{"name":"Ventura","stopId":"VEC","system":"surfliner","routes":["78"],"colors":["#1B5BA3"]}},{"type":"Feature","geometry":{"type":"Point","coordinates":[-118.44821,34.21129]},"properties":{"name":"Van Nuys","stopId":"VNC","system":"surfliner","routes":["78"],"colors":["#1B5BA3"]}}]}