{"type":"FeatureCollection","features":[{"type":"Feature","geometry":{"type":"LineString","coordinates":[[-118.23451,34.05438],[-118.23389,34.05719],[-118.2336,34.05848],[-118.23348,34.05878],[-118.23225,34.06102],[-118.23208,34.06124],[-118.23194,34.06134],[-118.2317,34.06153],[-118.23163,34.06159],[-118.23153,34.06163],[-118.23136,34.0617],[-118.23122,34.06176],[-118.23111,34.06178],[-118.23019,34.06191],[-118.22907,34.0619],[-118.22868,34.06182],[-118.22828,34.06165],[-118.22793,34.06139],[-118.22767,34.06104],[-118.22758,34.06085],[-118.22738,34.05995],[-118.22693,34.05687],[-118.22694,34.05631],[-118.22703,34.05596],[-118.22707,34.05581],[-118.22713,34.05571],[-118.22734,34.05532],[-118.22889,34.05361],[-118.22914,34.05329],[-118.22921,34.05313],[-118.22938,34.05277],[-118.23054,34.04849],[-118.23063,34.04779],[-118.2306,34.04732],[-118.23054,34.04705],[-118.22821,34.03669],[-118.22483,34.02171],[-118.22477,34.02069],[-118.22483,34.01935],[-118.22478,34.01859],[-118.22468,34.01828],[-118.2244,34.01772],[-118.22394,34.0172],[-118.22347,34.01683],[-118.22284,34.01651],[-118.22239,34.01639],[-118.22211,34.01631],[-118.22138,34.01621],[-118.21927,34.01607],[-118.21845,34.01593],[-118.21821,34.01588],[-118.21791,34.01579],[-118.21592,34.01516],[-118.20487,34.01142],[-118.20024,34.00992],[-118.19758,34.00894],[-118.17831,34.00242],[-118.17428,34.00111],[-118.16461,33.99779],[-118.15616,33.99498],[-118.13842,33.98895],[-118.13306,33.98717],[-118.11769,33.98197],[-118.11385,33.98062],[-118.11195,33.9798],[-118.11026,33.97886],[-118.10592,33.97588],[-118.10288,33.97367],[-118.10081,33.97237],[-118.09709,33.96981],[-118.09555,33.96894],[-118.09467,33.96857],[-118.0936,33.96818],[-118.07845,33.96351],[-118.07777,33.96325],[-118.07695,33.96286],[-118.07622,33.96245],[-118.07512,33.96162],[-118.06362,33.9507],[-118.06307,33.95009],[-118.06258,33.94943],[-118.06223,33.94885],[-118.06198,33.94831],[-118.06188,33.94803],[-118.06179,33.94779],[-118.06169,33.94752],[-118.06153,33.9469],[-118.06145,33.94628],[-118.06141,33.94559],[-118.06135,33.93566],[-118.06132,33.93506],[-118.06129,33.93443],[-118.06125,33.92651],[-118.06123,33.92096],[-118.0612,33.91995],[-118.06113,33.91934],[-118.06103,33.91874],[-118.06078,33.91793],[-118.06071,33.91769],[-118.06063,33.91753],[-118.06014,33.91649],[-118.05985,33.91604],[-118.05952,33.91558],[-118.05934,33.91537],[-118.05902,33.91501],[-118.05884,33.9148],[-118.05866,33.91465],[-118.05789,33.91396],[-118.0573,33.91352],[-118.0567,33.91313],[-118.04152,33.90455],[-118.02506,33.89527],[-118.02341,33.89439],[-118.01535,33.88986],[-118.01208,33.88797],[-118.00279,33.88276],[-118.00213,33.88233],[-118.00169,33.88214],[-117.99447,33.87804],[-117.99402,33.87782],[-117.9927,33.87716],[-117.99132,33.87666],[-117.99003,33.87634],[-117.95528,33.87],[-117.94811,33.86866],[-117.94613,33.86843],[-117.94441,33.86836],[-117.91978,33.86869],[-117.91729,33.86866],[-117.91639,33.86857],[-117.91538,33.86836],[-117.91288,33.86748],[-117.91186,33.86719],[-117.91116,33.86706],[-117.90962,33.86691],[-117.8828,33.86714],[-117.88064,33.86733],[-117.87163,33.86856],[-117.87019,33.86868],[-117.86844,33.86873],[-117.84479,33.86789],[-117.83441,33.86804],[-117.83328,33.86802],[-117.83092,33.86784],[-117.81158,33.86568],[-117.80969,33.86539],[-117.79222,33.86239],[-117.79069,33.86232],[-117.78659,33.86244],[-117.78441,33.86268],[-117.78334,33.86288],[-117.78215,33.86316],[-117.78018,33.86378],[-117.77924,33.86418],[-117.77868,33.86449],[-117.77793,33.86499],[-117.77725,33.86561],[-117.77315,33.87004],[-117.77237,33.87082],[-117.77173,33.87137],[-117.77094,33.87193],[-117.77013,33.87241],[-117.76921,33.87288],[-117.76764,33.87349],[-117.76681,33.87372],[-117.76585,33.87393],[-117.76468,33.87409],[-117.76065,33.87446],[-117.75916,33.87473],[-117.74995,33.8773],[-117.74833,33.87783],[-117.74733,33.87828],[-117.74676,33.87859],[-117.74603,33.87906],[-117.74525,33.87964],[-117.74435,33.88047],[-117.74204,33.88273],[-117.74135,33.8833],[-117.74084,33.88361],[-117.74027,33.88386],[-117.73969,33.88404],[-117.73904,33.88416],[-117.73793,33.88419],[-117.73683,33.884],[-117.73589,33.88364],[-117.73507,33.88312],[-117.73431,33.88237],[-117.73065,33.87805],[-117.73014,33.87738],[-117.72913,33.87581],[-117.7286,33.87517],[-117.72798,33.87464],[-117.72722,33.87418],[-117.72642,33.87384],[-117.72547,33.87361],[-117.72449,33.87352],[-117.72338,33.87361],[-117.71768,33.87462],[-117.70981,33.87593],[-117.7083,33.87629],[-117.70377,33.87757],[-117.70211,33.87785],[-117.70067,33.87793],[-117.69904,33.87786],[-117.69233,33.87739],[-117.68802,33.87683],[-117.68732,33.87668],[-117.68673,33.8765],[-117.68312,33.87511],[-117.68183,33.87465],[-117.68075,33.87433],[-117.67982,33.87412],[-117.67864,33.87394],[-117.6775,33.87386],[-117.67645,33.87386],[-117.675,33.87397],[-117.67384,33.87416],[-117.67286,33.87441],[-117.672,33.87469],[-117.67051,33.87531],[-117.66406,33.87849],[-117.66258,33.87905],[-117.66096,33.87944],[-117.65961,33.87962],[-117.65828,33.87967],[-117.65054,33.87939],[-117.64931,33.87942],[-117.6481,33.87955],[-117.64697,33.87976],[-117.64584,33.88007],[-117.63876,33.88254],[-117.63778,33.88283],[-117.63667,33.88307],[-117.63582,33.88319],[-117.63488,33.88327],[-117.62881,33.88342],[-117.62702,33.8836],[-117.58916,33.88995],[-117.58769,33.89017],[-117.58616,33.89028],[-117.58465,33.89024],[-117.58324,33.89006],[-117.58199,33.88978],[-117.58049,33.88929],[-117.5789,33.88856],[-117.56998,33.88388],[-117.56886,33.8834],[-117.56759,33.883],[-117.55617,33.88042],[-117.54181,33.87792],[-117.54058,33.87779],[-117.53928,33.87781],[-117.53815,33.87795],[-117.53039,33.87919],[-117.52895,33.8795],[-117.52746,33.87994],[-117.44987,33.90711],[-117.44909,33.90744],[-117.44841,33.90779],[-117.44438,33.91008],[-117.44375,33.91048],[-117.4429,33.91121],[-117.44014,33.91417],[-117.43953,33.91466],[-117.43871,33.91514],[-117.43781,33.9155],[-117.43711,33.91569],[-117.42894,33.91716],[-117.42816,33.91733],[-117.42761,33.91751],[-117.42648,33.91805],[-117.41864,33.92251],[-117.41745,33.92326],[-117.41626,33.92409],[-117.38899,33.94374],[-117.38635,33.94553],[-117.38587,33.94588],[-117.38541,33.94632],[-117.385,33.94685],[-117.3848,33.94726],[-117.38466,33.94767],[-117.38454,33.94848],[-117.38447,33.95071],[-117.38434,33.95124],[-117.38405,33.95183],[-117.38366,33.95232],[-117.38328,33.95267],[-117.38037,33.95485],[-117.37953,33.95555],[-117.37901,33.9561],[-117.37855,33.95667],[-117.37815,33.95726],[-117.37785,33.95781],[-117.37752,33.95864],[-117.37724,33.95972],[-117.37715,33.9603],[-117.37691,33.96299],[-117.37668,33.96423],[-117.3762,33.96572],[-117.37552,33.96713],[-117.37517,33.9677],[-117.37182,33.97233],[-117.36454,33.98321],[-117.36397,33.9839],[-117.36334,33.9845],[-117.35133,33.99463],[-117.35049,33.99541],[-117.33505,34.01367],[-117.33456,34.01428],[-117.3342,34.01486],[-117.33392,34.0155],[-117.33374,34.01611],[-117.33365,34.01672],[-117.33307,34.03089],[-117.33297,34.0321],[-117.33227,34.03597],[-117.33154,34.04149],[-117.32907,34.05472],[-117.32901,34.0555],[-117.32903,34.05634],[-117.3291,34.05703],[-117.3293,34.05817],[-117.32935,34.05886],[-117.32931,34.05983],[-117.32918,34.06075],[-117.32816,34.06553],[-117.32683,34.07172],[-117.32651,34.07294],[-117.32071,34.08727],[-117.32053,34.0879],[-117.32054,34.08854],[-117.32076,34.08922],[-117.323,34.09305],[-117.32657,34.09976],[-117.32667,34.10035],[-117.32668,34.1018],[-117.32662,34.10228],[-117.32648,34.10268],[-117.32628,34.10303],[-117.32602,34.10336],[-117.32561,34.1037],[-117.32522,34.10392],[-117.32469,34.10412],[-117.32339,34.1044],[-117.31968,34.10455],[-117.30836,34.10458],[-117.30764,34.10466],[-117.30535,34.10509],[-117.3049,34.10525],[-117.30449,34.10545],[-117.30416,34.10568],[-117.30383,34.10599],[-117.3036,34.10627],[-117.30339,34.10665],[-117.30326,34.10699],[-117.30319,34.1074],[-117.30313,34.11061],[-117.30314,34.12605],[-117.30327,34.12711],[-117.30349,34.12785],[-117.30392,34.12879],[-117.30449,34.12962],[-117.30479,34.12998],[-117.30557,34.13075],[-117.30601,34.1311],[-117.31484,34.13689],[-117.31602,34.13778],[-117.31713,34.13877],[-117.37206,34.1961],[-117.37309,34.19716],[-117.37397,34.19798],[-117.37479,34.19871],[-117.37644,34.20004],[-117.37735,34.20071],[-117.38044,34.20282],[-117.38126,34.20332],[-117.38307,34.20424],[-117.38431,34.20473],[-117.38566,34.20517],[-117.38718,34.20554],[-117.38967,34.20596],[-117.39049,34.20617],[-117.39096,34.20633],[-117.39186,34.20677],[-117.39281,34.20745],[-117.39334,34.20798],[-117.39364,34.20836],[-117.39575,34.21195],[-117.39611,34.21247],[-117.39658,34.213],[-117.3975,34.21374],[-117.40256,34.21712],[-117.40326,34.21745],[-117.40395,34.21766],[-117.40957,34.21857],[-117.41058,34.21885],[-117.41107,34.21903],[-117.41151,34.21923],[-117.41262,34.21985],[-117.42996,34.23035],[-117.43625,34.23371],[-117.43766,34.23456],[-117.43857,34.23529],[-117.43899,34.23571],[-117.43963,34.23644],[-117.44233,34.23981],[-117.44316,34.24075],[-117.44357,34.24114],[-117.44434,34.24174],[-117.44498,34.24214],[-117.44576,34.24257],[-117.4517,34.24548],[-117.4522,34.24579],[-117.45473,34.24759],[-117.45875,34.24997],[-117.45938,34.25026],[-117.4601,34.25052],[-117.46187,34.25099],[-117.463,34.25137],[-117.46393,34.25177],[-117.46499,34.25228],[-117.46581,34.25277],[-117.46625,34.25314],[-117.46831,34.25515],[-117.46871,34.25562],[-117.46904,34.2562],[-117.47012,34.25904],[-117.47033,34.25987],[-117.47034,34.26062],[-117.47019,34.26134],[-117.46989,34.26202],[-117.46944,34.26264],[-117.46908,34.26299],[-117.46842,34.26349],[-117.46417,34.26617],[-117.46357,34.26644],[-117.46015,34.26769],[-117.4591,34.26823],[-117.45432,34.27156],[-117.45379,34.27209],[-117.45358,34.2724],[-117.45342,34.27274],[-117.45332,34.27313],[-117.45328,34.27356],[-117.45332,34.27395],[-117.45343,34.27431],[-117.45365,34.27481],[-117.45576,34.27869],[-117.45616,34.2798],[-117.4563,34.2805],[-117.45635,34.28127],[-117.45632,34.28213],[-117.45593,34.28745],[-117.45573,34.28944],[-117.45574,34.29015],[-117.45583,34.29079],[-117.45603,34.29156],[-117.45633,34.2923],[-117.4609,34.30089],[-117.46164,34.30216],[-117.46218,34.30275],[-117.46291,34.30324],[-117.46348,34.30349],[-117.47044,34.30527],[-117.47111,34.3055],[-117.47152,34.30572],[-117.47188,34.30598],[-117.4743,34.3083],[-117.47493,34.30878],[-117.4757,34.30914],[-117.4789,34.31019],[-117.47979,34.31059],[-117.4804,34.31094],[-117.48132,34.31156],[-117.48549,34.31455],[-117.48577,34.31481],[-117.48611,34.31529],[-117.48627,34.31583],[-117.48628,34.31612],[-117.48625,34.3164],[-117.48607,34.31689],[-117.4857,34.31737],[-117.48523,34.31772],[-117.48464,34.31798],[-117.48305,34.31857],[-117.48239,34.31894],[-117.48174,34.31941],[-117.48122,34.31991],[-117.48089,34.32029],[-117.4792,34.32272],[-117.47853,34.3235],[-117.47795,34.32404],[-117.47728,34.32456],[-117.47652,34.32503],[-117.47573,34.32545],[-117.47474,34.32584],[-117.4718,34.32675],[-117.47089,34.32707],[-117.46626,34.32935],[-117.4655,34.32964],[-117.46463,34.32971],[-117.4578,34.32953],[-117.45723,34.32958],[-117.45666,34.32972],[-117.45609,34.32997],[-117.45554,34.33037],[-117.45517,34.33077],[-117.45406,34.33227],[-117.4536,34.33269],[-117.45301,34.33305],[-117.44927,34.33447],[-117.44859,34.33467],[-117.44568,34.33538],[-117.44503,34.33561],[-117.4437,34.33617],[-117.44293,34.33635],[-117.44234,34.33636],[-117.44049,34.33617],[-117.43979,34.33597],[-117.43927,34.33569],[-117.43702,34.3342],[-117.4363,34.3337],[-117.43585,34.33333],[-117.43517,34.3326],[-117.43487,34.33216],[-117.43462,34.33168],[-117.43437,34.33104],[-117.4336,34.32854],[-117.43327,34.32779],[-117.43291,34.32728],[-117.4324,34.32677],[-117.43185,34.32637],[-117.43125,34.32605],[-117.43048,34.32578],[-117.4299,34.32565],[-117.42924,34.3256],[-117.42863,34.3256],[-117.42791,34.32567],[-117.41452,34.3281],[-117.41365,34.32829],[-117.41297,34.32851],[-117.41227,34.3288],[-117.41155,34.32918],[-117.41102,34.32953],[-117.41028,34.33015],[-117.40988,34.33057],[-117.40929,34.33135],[-117.40718,34.33459],[-117.40668,34.33522],[-117.40605,34.33586],[-117.40507,34.33663],[-117.39959,34.34018],[-117.39875,34.34082],[-117.39828,34.34131],[-117.39789,34.34182],[-117.39684,34.34369],[-117.39633,34.34442],[-117.39391,34.34679],[-117.39308,34.34744],[-117.39252,34.34777],[-117.38903,34.34949],[-117.38828,34.34981],[-117.38768,34.35002],[-117.37487,34.35387],[-117.37397,34.35419],[-117.37138,34.35553],[-117.37042,34.35611],[-117.36986,34.35656],[-117.36704,34.3591],[-117.36604,34.35983],[-117.36498,34.36043],[-117.36422,34.36078],[-117.36355,34.361],[-117.36287,34.36114],[-117.36051,34.36148],[-117.35978,34.36169],[-117.35878,34.36205],[-117.35685,34.36289],[-117.35285,34.36498],[-117.35203,34.36535],[-117.35131,34.36557],[-117.35061,34.3657],[-117.34789,34.36588],[-117.34666,34.36609],[-117.34601,34.36629],[-117.34365,34.36715],[-117.33713,34.36889],[-117.33585,34.36928],[-117.33439,34.36983],[-117.33348,34.37025],[-117.33186,34.37107],[-117.3309,34.37143],[-117.32992,34.37164],[-117.32391,34.3726],[-117.32319,34.37278],[-117.3227,34.37295],[-117.32185,34.37335],[-117.32086,34.37402],[-117.32023,34.37462],[-117.31463,34.38055],[-117.31419,34.38105],[-117.31379,34.3816],[-117.31325,34.38254],[-117.30858,34.39165],[-117.30805,34.39277],[-117.3077,34.3937],[-117.30723,34.39556],[-117.29651,34.4455],[-117.29636,34.44615],[-117.2962,34.44658],[-117.29582,34.44731],[-117.29518,34.44816],[-117.27993,34.46661],[-117.27946,34.46731],[-117.27929,34.46768],[-117.27917,34.46805],[-117.27907,34.46872],[-117.27907,34.46903],[-117.27918,34.46976],[-117.28118,34.47875],[-117.28135,34.47967],[-117.2814,34.48032],[-117.28138,34.481],[-117.28087,34.48401],[-117.28083,34.48463],[-117.28085,34.48521],[-117.28097,34.48606],[-117.28273,34.49582],[-117.28285,34.49697],[-117.28281,34.49776],[-117.28266,34.49854],[-117.2825,34.49905],[-117.28223,34.49966],[-117.28183,34.50037],[-117.28138,34.50097],[-117.28086,34.50154],[-117.2796,34.50279],[-117.27911,34.50342],[-117.27887,34.5039],[-117.27874,34.50428],[-117.27862,34.50495],[-117.27862,34.50549],[-117.27868,34.50592],[-117.2788,34.50633],[-117.28014,34.50995],[-117.28052,34.51117],[-117.28077,34.51245],[-117.28124,34.51612],[-117.28156,34.51754],[-117.28502,34.52765],[-117.28526,34.52864],[-117.28551,34.5306],[-117.28568,34.53118],[-117.28593,34.53161],[-117.28628,34.53203],[-117.28838,34.53388],[-117.29767,34.54101],[-117.29815,34.54143],[-117.29857,34.54189],[-117.29902,34.54262],[-117.30317,34.55122],[-117.30369,34.55218],[-117.31058,34.56214],[-117.3112,34.56285],[-117.31429,34.56603],[-117.31485,34.56674],[-117.31514,34.56722],[-117.31539,34.56778],[-117.31638,34.57093],[-117.31654,34.57123],[-117.3168,34.57157],[-117.31729,34.57201],[-117.3179,34.57235],[-117.32519,34.57548],[-117.32654,34.57615],[-117.32744,34.57674],[-117.32819,34.57736],[-117.32887,34.57807],[-117.32944,34.57884],[-117.32983,34.57951],[-117.33013,34.5802],[-117.33034,34.58085],[-117.33048,34.58151],[-117.33059,34.58219],[-117.33139,34.591],[-117.33149,34.5917],[-117.33164,34.59222],[-117.3319,34.59281],[-117.33228,34.59343],[-117.33954,34.60344],[-117.34015,34.60437],[-117.34058,34.60521],[-117.34093,34.60606],[-117.34123,34.60715],[-117.34361,34.61734],[-117.34391,34.61884],[-117.34406,34.61993],[-117.34712,34.64498],[-117.34719,34.64581],[-117.34721,34.64688],[-117.34714,34.64792],[-117.34645,34.65217],[-117.34631,34.65386],[-117.34634,34.65507],[-117.34707,34.66578],[-117.34705,34.66706],[-117.34699,34.66773],[-117.34677,34.66902],[-117.34654,34.66997],[-117.33525,34.71428],[-117.33212,34.72648],[-117.33174,34.7279],[-117.33129,34.72914],[-117.33072,34.73034],[-117.32532,34.74029],[-117.32455,34.74151],[-117.3237,34.74307],[-117.32343,34.74362],[-117.32329,34.74403],[-117.32156,34.74714],[-117.31661,34.75522],[-117.31601,34.75605],[-117.3153,34.75684],[-117.31453,34.75756],[-117.31386,34.75809],[-117.31277,34.75881],[-117.31133,34.75955],[-117.30486,34.76219],[-117.30322,34.76296],[-117.30166,34.76387],[-117.29741,34.76675],[-117.29589,34.76767],[-117.28507,34.77304],[-117.28389,34.77367],[-117.28292,34.77427],[-117.28203,34.77488],[-117.27248,34.78182],[-117.2716,34.78239],[-117.27023,34.78312],[-117.26925,34.78352],[-117.26822,34.78386],[-117.26741,34.78406],[-117.26585,34.78433],[-117.26003,34.78506],[-117.25906,34.78521],[-117.2572,34.78562],[-117.25532,34.78622],[-117.20896,34.8049],[-117.20722,34.80566],[-117.20553,34.80657],[-117.20438,34.80734],[-117.20328,34.80818],[-117.19226,34.81757],[-117.191,34.81878],[-117.19046,34.81939],[-117.1899,34.82013],[-117.18929,34.82108],[-117.18877,34.8221],[-117.18842,34.823],[-117.18814,34.82395],[-117.18799,34.82465],[-117.18788,34.82544],[-117.18752,34.82985],[-117.18741,34.83046],[-117.18721,34.83122],[-117.18688,34.83211],[-117.18644,34.833],[-117.18587,34.83391],[-117.18525,34.8347],[-117.18439,34.83558],[-117.18333,34.83646],[-117.17276,34.84446],[-117.17129,34.84552],[-117.14925,34.85999],[-117.14808,34.86072],[-117.14693,34.86136],[-117.14533,34.86212],[-117.10987,34.87827],[-117.10874,34.87873],[-117.10763,34.87911],[-117.09955,34.88165],[-117.09793,34.88231],[-117.09732,34.88261],[-117.09645,34.88312],[-117.0815,34.89243],[-117.08046,34.89302],[-117.07934,34.89352],[-117.07807,34.89396],[-117.07685,34.89426],[-117.03553,34.90357],[-117.03041,34.90431],[-117.02867,34.90436],[-117.01752,34.90337],[-117.01684,34.90335],[-117.01161,34.90282],[-117.00974,34.90248],[-117.00858,34.90218],[-117.00753,34.90182],[-117.00649,34.9014],[-117.00553,34.9009],[-117.00477,34.90041],[-117.0041,34.89987],[-117.00344,34.89924],[-117.00266,34.89826],[-117.00001,34.89372],[-116.99908,34.89241],[-116.99796,34.89114],[-116.99657,34.88988],[-116.9958,34.88928],[-116.9949,34.88866],[-116.99318,34.88767],[-116.9913,34.88683],[-116.99026,34.88645],[-116.98882,34.88603],[-116.96886,34.88092],[-116.9674,34.88065],[-116.96594,34.88049],[-116.961,34.8803],[-116.95876,34.88005],[-116.95666,34.87962],[-116.95013,34.8781],[-116.94865,34.87771],[-116.94708,34.87717],[-116.9455,34.87646],[-116.9299,34.86862],[-116.92848,34.86804],[-116.92741,34.86769],[-116.92609,34.86734],[-116.92463,34.86704],[-116.92337,34.86687],[-116.92196,34.86676],[-116.90815,34.86621],[-116.9067,34.86609],[-116.90485,34.86588],[-116.88232,34.86246],[-116.80668,34.85085],[-116.70986,34.8359],[-116.58426,34.81919],[-116.49033,34.8066],[-116.48732,34.80629],[-116.44143,34.80315],[-116.43912,34.80309],[-116.43143,34.80322],[-116.42958,34.80314],[-116.42785,34.80293],[-116.41472,34.80086],[-116.41331,34.80057],[-116.41018,34.7997],[-116.40916,34.79949],[-116.40799,34.79937],[-116.40468,34.79929],[-116.40324,34.79908],[-116.40233,34.79885],[-116.40166,34.79863],[-116.40097,34.79834],[-116.40018,34.79793],[-116.39921,34.7973],[-116.39573,34.79465],[-116.3945,34.79385],[-116.37853,34.78502],[-116.37778,34.78458],[-116.37706,34.78408],[-116.37628,34.78338],[-116.37555,34.78254],[-116.37321,34.779],[-116.37191,34.77724],[-116.37106,34.77621],[-116.35974,34.76328],[-116.3588,34.76232],[-116.35827,34.76183],[-116.35698,34.76082],[-116.35606,34.76019],[-116.33704,34.74784],[-116.33399,34.7458],[-116.31035,34.72646],[-116.30896,34.7252],[-116.30476,34.7211],[-116.30402,34.72044],[-116.30334,34.71996],[-116.30294,34.71974],[-116.30251,34.71953],[-116.30172,34.71925],[-116.30126,34.71913],[-116.30022,34.71898],[-116.29916,34.71897],[-116.29824,34.71908],[-116.29776,34.71919],[-116.29689,34.71948],[-116.2959,34.71994],[-116.28478,34.7255],[-116.2832,34.72618],[-116.28169,34.72666],[-116.28069,34.72685],[-116.27951,34.72696],[-116.26349,34.72769],[-116.26201,34.72766],[-116.25657,34.72729],[-116.25462,34.72703],[-116.25375,34.72683],[-116.25274,34.72652],[-116.2518,34.72616],[-116.24398,34.72272],[-116.24231,34.72205],[-116.24126,34.72171],[-116.24018,34.72142],[-116.2353,34.72036],[-116.23428,34.72019],[-116.23343,34.72011],[-116.22738,34.71993],[-116.22605,34.71986],[-116.21812,34.71898],[-116.21663,34.71873],[-116.20672,34.71664],[-116.20585,34.7165],[-116.20504,34.71643],[-116.20422,34.71646],[-116.20333,34.7166],[-116.19907,34.71776],[-116.19816,34.71795],[-116.19654,34.71821],[-116.1948,34.71834],[-116.18595,34.71867],[-116.18492,34.71877],[-116.18416,34.71896],[-116.18355,34.7192],[-116.18146,34.72033],[-116.18078,34.72063],[-116.17985,34.72089],[-116.17898,34.72097],[-116.17789,34.72088],[-116.17684,34.7206],[-116.17354,34.71939],[-116.17069,34.71813],[-116.16997,34.71787],[-116.1689,34.71766],[-116.16826,34.71764],[-116.16772,34.71769],[-116.16696,34.71783],[-116.16626,34.71807],[-116.15778,34.72185],[-116.15672,34.72229],[-116.15579,34.72258],[-116.15496,34.72277],[-116.15387,34.72292],[-116.14506,34.72386],[-116.1425,34.72408],[-116.14151,34.72409],[-116.13994,34.72402],[-116.10735,34.72134],[-116.1057,34.72123],[-116.10462,34.72124],[-116.10337,34.72131],[-116.09377,34.72243],[-116.09223,34.7227],[-116.09113,34.72303],[-116.09034,34.72335],[-116.08582,34.72552],[-116.08507,34.72586],[-116.08431,34.72613],[-116.08353,34.72632],[-116.08243,34.72644],[-116.08133,34.72639],[-116.08026,34.72619],[-116.07928,34.72585],[-116.07846,34.72543],[-116.07777,34.72495],[-116.07304,34.72097],[-116.07167,34.71991],[-116.0702,34.71896],[-116.06268,34.71447],[-116.06185,34.7139],[-116.06045,34.71277],[-116.05927,34.7116],[-116.05865,34.71088],[-116.05768,34.70954],[-116.05197,34.70004],[-116.05155,34.69937],[-116.05108,34.69874],[-116.05064,34.69825],[-116.04962,34.69738],[-116.043,34.69271],[-116.04206,34.69212],[-116.04119,34.6917],[-116.04033,34.69135],[-116.01673,34.68335],[-116.01568,34.68295],[-116.01518,34.6827],[-116.01487,34.68251],[-116.01431,34.68206],[-116.01396,34.68168],[-116.01366,34.68126],[-116.01343,34.68082],[-116.01327,34.68035],[-116.01317,34.67987],[-116.01312,34.67954],[-116.01298,34.67661],[-116.01298,34.67599],[-116.01303,34.67548],[-116.01318,34.6749],[-116.01343,34.6743],[-116.0138,34.67368],[-116.01539,34.67128],[-116.0159,34.67042],[-116.01647,34.66927],[-116.01695,34.66803],[-116.01732,34.66656],[-116.0175,34.66512],[-116.01751,34.66367],[-116.01734,34.66226],[-116.017,34.66082],[-116.01642,34.65928],[-116.00766,34.63923],[-116.00712,34.63815],[-116.00674,34.63755],[-116.00622,34.63693],[-116.00574,34.63646],[-116.00519,34.63603],[-116.00451,34.63561],[-116.00365,34.63518],[-116.00125,34.6341],[-115.99137,34.62982],[-115.99015,34.62921],[-115.98885,34.62843],[-115.98186,34.62399],[-115.98093,34.62326],[-115.9801,34.62241],[-115.97703,34.61842],[-115.97598,34.61716],[-115.97357,34.61472],[-115.97205,34.61324],[-115.97128,34.61257],[-115.96843,34.6104],[-115.9662,34.60881],[-115.96529,34.60822],[-115.95923,34.60458],[-115.95764,34.60376],[-115.9569,34.60348],[-115.95637,34.60332],[-115.95516,34.60304],[-115.95374,34.60289],[-115.95324,34.60289],[-115.95185,34.60299],[-115.94647,34.60369],[-115.94519,34.60381],[-115.94374,34.60381],[-115.94295,34.60372],[-115.94213,34.60357],[-115.94081,34.60319],[-115.93964,34.60268],[-115.93011,34.59766],[-115.92846,34.59684],[-115.92453,34.59515],[-115.9236,34.5948],[-115.92282,34.59458],[-115.92221,34.59444],[-115.92141,34.59432],[-115.91388,34.59359],[-115.91229,34.59335],[-115.91102,34.59303],[-115.89952,34.58974],[-115.89821,34.58942],[-115.89718,34.58922],[-115.89538,34.58902],[-115.89033,34.5887],[-115.8883,34.58853],[-115.88204,34.58768],[-115.87987,34.58727],[-115.7499,34.55568],[-115.65008,34.53131],[-115.64807,34.53087],[-115.64665,34.53067],[-115.64479,34.53051],[-115.47838,34.51757],[-115.47679,34.51749],[-115.47533,34.5175],[-115.47334,34.51765],[-115.47237,34.5178],[-115.47032,34.51826],[-115.46838,34.51888],[-115.46076,34.52188],[-115.45955,34.52241],[-115.45812,34.52319],[-115.45063,34.52778],[-115.44916,34.52877],[-115.44789,34.52976],[-115.43802,34.53777],[-115.4364,34.53897],[-115.43523,34.53969],[-115.43441,34.54012],[-115.42749,34.54347],[-115.4264,34.54409],[-115.4253,34.54481],[-115.42436,34.54553],[-115.41384,34.55489],[-115.4122,34.55648],[-115.40616,34.56257],[-115.40474,34.56389],[-115.40332,34.56504],[-115.38561,34.57895],[-115.38412,34.58027],[-115.38298,34.58152],[-115.38187,34.58306],[-115.36548,34.60776],[-115.35387,34.62516],[-115.35282,34.62654],[-115.34073,34.6414],[-115.33948,34.64318],[-115.32261,34.66865],[-115.32123,34.67048],[-115.31231,34.68164],[-115.31099,34.68309],[-115.31034,34.68371],[-115.30901,34.68483],[-115.30075,34.69091],[-115.29984,34.69154],[-115.29762,34.69288],[-115.28444,34.70023],[-115.28303,34.70111],[-115.28165,34.70207],[-115.27903,34.7042],[-115.24074,34.7361],[-115.23979,34.73682],[-115.23894,34.7374],[-115.22867,34.74405],[-115.2279,34.74464],[-115.22678,34.74563],[-115.22574,34.74672],[-115.22481,34.7479],[-115.21851,34.75659],[-115.2176,34.758],[-115.21669,34.75979],[-115.2106,34.77318],[-115.20971,34.77501],[-115.19555,34.7992],[-115.19488,34.80018],[-115.19411,34.80116],[-115.18413,34.81275],[-115.18359,34.81328],[-115.18243,34.81429],[-115.16864,34.82501],[-115.13397,34.84928],[-115.12604,34.85557],[-115.12418,34.85711],[-115.1233,34.85794],[-115.11988,34.86145],[-115.11721,34.86423],[-115.11664,34.8649],[-115.11575,34.86605],[-115.11221,34.87123],[-115.11127,34.87247],[-115.10063,34.88468],[-115.09898,34.88663],[-115.09831,34.88756],[-115.09772,34.8885],[-115.09365,34.89612],[-115.09299,34.89718],[-115.09223,34.89818],[-115.09092,34.89961],[-115.08485,34.90544],[-115.08364,34.90656],[-115.08251,34.90749],[-115.07391,34.91397],[-115.07269,34.91485],[-115.07135,34.91565],[-115.06515,34.91877],[-115.0633,34.91964],[-115.06162,34.92017],[-115.05703,34.92128],[-115.05592,34.92149],[-115.05488,34.9216],[-115.05395,34.92165],[-115.0527,34.92163],[-114.96252,34.91782],[-114.95943,34.91786],[-114.93038,34.91901],[-114.92955,34.9191],[-114.92836,34.91931],[-114.92688,34.91967],[-114.91642,34.92236],[-114.91454,34.92291],[-114.91247,34.92372],[-114.89793,34.92989],[-114.89642,34.93041],[-114.89185,34.93178],[-114.89069,34.9321],[-114.88934,34.93233],[-114.88229,34.933],[-114.8807,34.93325],[-114.87977,34.93347],[-114.87884,34.93376],[-114.87531,34.93512],[-114.87382,34.93558],[-114.87282,34.93577],[-114.87215,34.93585],[-114.85979,34.93719],[-114.85849,34.93727],[-114.85363,34.93737],[-114.85229,34.93747],[-114.85108,34.93764],[-114.8492,34.93801],[-114.83563,34.94097],[-114.82543,34.94275],[-114.82442,34.94289],[-114.81084,34.94521],[-114.80993,34.94533],[-114.80896,34.94542],[-114.80795,34.94546],[-114.80586,34.94542],[-114.80401,34.94523],[-114.80212,34.94489],[-114.80028,34.94439],[-114.79821,34.94361],[-114.7962,34.94259],[-114.79527,34.94201],[-114.79448,34.94145],[-114.79287,34.94025],[-114.7835,34.93233],[-114.78204,34.93098],[-114.7808,34.9296],[-114.77059,34.91696],[-114.77012,34.91624],[-114.76964,34.91534],[-114.76926,34.91436],[-114.769,34.9134],[-114.76883,34.91232],[-114.76753,34.90211],[-114.76741,34.90147],[-114.76723,34.90093],[-114.76698,34.90044],[-114.7632,34.89493],[-114.76251,34.89402],[-114.76209,34.89355],[-114.76155,34.8931],[-114.75942,34.89162],[-114.75791,34.8907],[-114.75675,34.89029],[-114.74962,34.88875],[-114.74856,34.88858],[-114.74729,34.88856],[-114.7449,34.88893],[-114.74368,34.88895],[-114.74273,34.88881],[-114.73985,34.88813],[-114.73532,34.88763],[-114.73413,34.88756],[-114.72772,34.88746],[-114.72282,34.88694],[-114.72196,34.88688],[-114.72092,34.88689],[-114.72012,34.88697],[-114.71926,34.88712],[-114.71828,34.88737],[-114.70747,34.89138],[-114.70642,34.89168],[-114.7054,34.89183],[-114.70421,34.89182],[-114.70304,34.89163],[-114.69449,34.88913],[-114.69355,34.88869],[-114.68966,34.88659],[-114.68892,34.88612],[-114.68842,34.88568],[-114.68776,34.88487],[-114.68419,34.87943],[-114.68356,34.87869],[-114.68301,34.87818],[-114.6825,34.87779],[-114.67835,34.87529],[-114.67788,34.87493],[-114.67741,34.87447],[-114.67685,34.87367],[-114.67445,34.86947],[-114.67382,34.86866],[-114.67327,34.86816],[-114.67278,34.86782],[-114.67214,34.86748],[-114.66767,34.86564],[-114.66644,34.86501],[-114.65299,34.85627],[-114.65141,34.85529],[-114.65011,34.85461],[-114.64891,34.85408],[-114.63962,34.85041],[-114.63919,34.8502],[-114.63767,34.84971],[-114.63617,34.84934],[-114.62328,34.84711],[-114.61661,34.84582],[-114.61577,34.84559],[-114.61507,34.84534],[-114.60427,34.84023],[-114.6029,34.83948],[-114.60157,34.83859],[-114.5945,34.8332]]},"properties":{"routeId":"51","name":"Southwest Chief","shortName":"","color":"#B5451B","textColor":"#ffffff","system":"swchief"}}]}