{"type":"FeatureCollection","features":[{"type":"Feature","geometry":{"type":"Point","coordinates":[-117.92285,33.86897]},"properties":{"name":"Fullerton","stopId":"FUL","system":"swchief","routes":["51"],"colors":["#B5451B"]}},{"type":"Feature","geometry":{"type":"Point","coordinates":[-117.36999,33.97567]},"properties":{"name":"Riverside","stopId":"RIV","system":"swchief","routes":["51"],"colors":["#B5451B"]}},{"type":"Feature","geometry":{"type":"Point","coordinates":[-118.23678,34.05618]},"properties":{"name":"Los Angeles","stopId":"LAX","system":"swchief","routes":["51"],"colors":["#B5451B"]}},{"type":"Feature","geometry":{"type":"Point","coordinates":[-117.31066,34.10411]},"properties":{"name":"San Bernardino","stopId":"SNB","system":"swchief","routes":["51"],"colors":["#B5451B"]}},{"type":"Feature","geometry":{"type":"Point","coordinates":[-117.29296,34.5372]},"properties":{"name":"Victorville","stopId":"VRV","system":"swchief","routes":["51"],"colors":["#B5451B"]}},{"type":"Feature","geometry":{"type":"Point","coordinates":[-114.60619,34.84062]},"properties":{"name":"Needles","stopId":"NDL","system":"swchief","routes":["51"],"colors":["#B5451B"]}},{"type":"Feature","geometry":{"type":"Point","coordinates":[-117.02544,34.90482]},"properties":{"name":"Barstow","stopId":"BAR","system":"swchief","routes":["51"],"colors":["#B5451B"]}},{"type":"Feature","geometry":{"type":"Point","coordinates":[-110.69498,35.02167]},"properties":{"name":"Winslow","stopId":"WLO","system":"swchief","routes":["51"],"colors":["#B5451B"]}},{"type":"Feature","geometry":{"type":"Point","coordinates":[-114.05282,35.18828]},"properties":{"name":"Kingman","stopId":"KNG","system":"swchief","routes":["51"],"colors":["#B5451B"]}}]}