{"type":"FeatureCollection","features":[{"type":"Feature","geometry":{"type":"LineString","coordinates":[[-121.94148,37.40938],[-121.94179,37.40924],[-121.94254,37.40882],[-121.94355,37.40834],[-121.94367,37.40829],[-121.94327,37.40869],[-121.94315,37.40897],[-121.94317,37.40923],[-121.94324,37.40941],[-121.94317,37.40858],[-121.94329,37.40869],[-121.94339,37.40943],[-121.94331,37.40922],[-121.94287,37.40859],[-121.94123,37.40626],[-121.93905,37.40329],[-121.93795,37.40165],[-121.93398,37.39612],[-121.93289,37.39453],[-121.92892,37.38908],[-121.92785,37.38762],[-121.92503,37.3838],[-121.92392,37.38234],[-121.9197,37.37662],[-121.91852,37.375],[-121.91816,37.37448],[-121.91781,37.374],[-121.91741,37.37348],[-121.9167,37.37252],[-121.91532,37.37067],[-121.91409,37.36902],[-121.90949,37.36288],[-121.90831,37.36129],[-121.90777,37.36059],[-121.90733,37.36],[-121.90579,37.35794],[-121.90544,37.35746],[-121.90424,37.35575],[-121.90383,37.35517],[-121.9017,37.35236],[-121.90122,37.35173],[-121.89684,37.34591],[-121.8964,37.34531],[-121.89578,37.34448],[-121.89427,37.34247],[-121.89382,37.34188],[-121.89322,37.34107],[-121.89306,37.34086],[-121.89287,37.34061],[-121.89269,37.34038],[-121.89309,37.34059],[-121.89324,37.34059],[-121.89341,37.34057],[-121.89339,37.34057],[-121.89331,37.34062],[-121.89307,37.34073],[-121.89282,37.34083],[-121.89237,37.34089],[-121.892,37.34082],[-121.8917,37.34069],[-121.89141,37.34044],[-121.88589,37.33305],[-121.88547,37.33252],[-121.88534,37.33205],[-121.88543,37.33175],[-121.88571,37.33141],[-121.88602,37.33124],[-121.88629,37.33111],[-121.88647,37.33101],[-121.88685,37.33083],[-121.88733,37.33061],[-121.88789,37.33034],[-121.88824,37.33017],[-121.88858,37.32997],[-121.88933,37.32961],[-121.89008,37.32923],[-121.89032,37.32912],[-121.89072,37.32895],[-121.89119,37.32875],[-121.89145,37.32864],[-121.89201,37.32839],[-121.89315,37.32785],[-121.89324,37.32781],[-121.89321,37.32783],[-121.89313,37.32791],[-121.89308,37.32803],[-121.89306,37.32812],[-121.89307,37.32817],[-121.89306,37.32815],[-121.89311,37.32823],[-121.89317,37.32832],[-121.89303,37.32816],[-121.89248,37.32762],[-121.89238,37.32749],[-121.89233,37.3274],[-121.89228,37.3273],[-121.89225,37.32719],[-121.89222,37.32702],[-121.89224,37.32685],[-121.8923,37.32673],[-121.89238,37.32663],[-121.89247,37.32653],[-121.89256,37.32646],[-121.89268,37.3263],[-121.89279,37.32625],[-121.89292,37.32608],[-121.89303,37.32595],[-121.8931,37.32587],[-121.89316,37.32576],[-121.89322,37.32572],[-121.89324,37.32566],[-121.89326,37.32561],[-121.89327,37.32555],[-121.89325,37.32545],[-121.89324,37.32538],[-121.8932,37.32532],[-121.89317,37.32524],[-121.8931,37.32515],[-121.89294,37.3249],[-121.89286,37.32478],[-121.89276,37.32463],[-121.89243,37.32413],[-121.89239,37.32408],[-121.89233,37.32398],[-121.89226,37.32388],[-121.89219,37.32376],[-121.89212,37.32367],[-121.89208,37.3236],[-121.89205,37.32355],[-121.89182,37.32319],[-121.89153,37.32277],[-121.89104,37.32201],[-121.89083,37.32167],[-121.89075,37.32153],[-121.89066,37.32135],[-121.89059,37.32117],[-121.8905,37.32098],[-121.89041,37.32075],[-121.89034,37.32054],[-121.89026,37.32029],[-121.8902,37.32007],[-121.89013,37.31982],[-121.88995,37.31916],[-121.88976,37.31847],[-121.88969,37.31827],[-121.88963,37.31799],[-121.88959,37.31789],[-121.88953,37.31776],[-121.88951,37.3177],[-121.88945,37.31757],[-121.88942,37.31746],[-121.88937,37.31738],[-121.88919,37.31698],[-121.88904,37.3167],[-121.88893,37.31652],[-121.88882,37.31633],[-121.88866,37.3161],[-121.88863,37.31605],[-121.88838,37.31571],[-121.88815,37.31544],[-121.88806,37.31534],[-121.88798,37.31525],[-121.88791,37.31517],[-121.88774,37.31499],[-121.88765,37.31491],[-121.88758,37.31484],[-121.88711,37.31437],[-121.88597,37.31323],[-121.88567,37.31293],[-121.88544,37.31266],[-121.88534,37.31255],[-121.88523,37.31244],[-121.88516,37.31235],[-121.88512,37.31231],[-121.88505,37.31222],[-121.88497,37.31212],[-121.88481,37.31193],[-121.8843,37.31126],[-121.88378,37.31059],[-121.88341,37.31013],[-121.88335,37.31005],[-121.88327,37.30996],[-121.88271,37.30926],[-121.88233,37.30878],[-121.88161,37.30785],[-121.88155,37.30777],[-121.88149,37.30771],[-121.88073,37.30674],[-121.88022,37.30608],[-121.87971,37.30544],[-121.87875,37.30423],[-121.8787,37.30416],[-121.87864,37.3041],[-121.87857,37.304],[-121.87799,37.30326],[-121.87778,37.30301],[-121.87766,37.30285],[-121.87737,37.30247],[-121.87713,37.30217],[-121.87679,37.30172],[-121.87611,37.30087],[-121.87573,37.30038],[-121.87544,37.29994],[-121.87521,37.29959],[-121.87495,37.29916],[-121.87478,37.29885],[-121.87451,37.29834],[-121.87435,37.29799],[-121.87308,37.29485],[-121.87296,37.29455],[-121.87293,37.29449],[-121.87291,37.29443],[-121.87288,37.29436],[-121.87273,37.29399],[-121.87263,37.29375],[-121.87234,37.29304],[-121.8722,37.29269],[-121.87177,37.29164],[-121.87175,37.29158],[-121.87172,37.29152],[-121.87113,37.29006],[-121.87107,37.28991],[-121.87104,37.28985],[-121.87102,37.28979],[-121.8709,37.28954],[-121.87077,37.28927],[-121.8706,37.28894],[-121.87035,37.28849],[-121.87017,37.2882],[-121.86997,37.28791],[-121.86977,37.28762],[-121.86961,37.28737],[-121.86909,37.28666],[-121.86877,37.28623],[-121.86745,37.28442],[-121.86713,37.28398],[-121.86703,37.28384],[-121.86675,37.28347],[-121.86657,37.2832],[-121.86639,37.28292],[-121.86628,37.28274],[-121.86614,37.28248],[-121.86604,37.28228],[-121.86597,37.28211],[-121.8656,37.2813],[-121.86528,37.28058],[-121.86497,37.27987],[-121.86492,37.27977],[-121.86488,37.27967],[-121.86462,37.2791],[-121.86426,37.27831],[-121.86397,37.27762],[-121.86371,37.27692],[-121.86362,37.27664],[-121.86349,37.27621],[-121.86341,37.27584],[-121.86328,37.27529],[-121.86315,37.27472],[-121.86312,37.27457],[-121.86309,37.27448],[-121.86301,37.27409],[-121.86297,37.2739],[-121.86292,37.27376],[-121.86285,37.27349],[-121.86279,37.2733],[-121.86271,37.27303],[-121.86262,37.2728],[-121.86254,37.2726],[-121.86242,37.27235],[-121.86234,37.27218],[-121.86226,37.27202],[-121.86219,37.27189],[-121.86208,37.2717],[-121.86198,37.27156],[-121.86189,37.2714],[-121.86178,37.27125],[-121.86169,37.27113],[-121.86157,37.27096],[-121.86136,37.27069],[-121.86092,37.27012],[-121.86053,37.26961],[-121.8604,37.2694],[-121.86028,37.26925],[-121.86015,37.26903],[-121.86001,37.26879],[-121.85993,37.26864],[-121.85986,37.26849],[-121.85972,37.26821],[-121.85966,37.26806],[-121.8596,37.26795],[-121.85954,37.26774],[-121.85946,37.26749],[-121.85938,37.26728],[-121.85934,37.26715],[-121.85925,37.26681],[-121.85921,37.26657],[-121.85916,37.26641],[-121.85908,37.2661],[-121.85907,37.26598],[-121.85906,37.26589],[-121.85898,37.26539],[-121.85895,37.26514],[-121.85893,37.26487],[-121.85891,37.26462],[-121.8589,37.26405],[-121.85888,37.26304],[-121.85888,37.26181],[-121.85886,37.2607],[-121.85885,37.25999],[-121.85886,37.25979],[-121.85887,37.25969],[-121.85889,37.25959],[-121.85891,37.25951],[-121.85892,37.25944],[-121.85895,37.25938],[-121.85897,37.25932],[-121.85904,37.25919],[-121.85912,37.25903],[-121.85921,37.25886],[-121.85932,37.25864],[-121.85938,37.25857],[-121.8595,37.25839],[-121.85976,37.25803],[-121.86021,37.25738],[-121.86034,37.2572],[-121.8604,37.2571],[-121.86052,37.25697],[-121.86063,37.2567],[-121.86066,37.25659],[-121.86066,37.25652],[-121.86067,37.25643],[-121.86067,37.25636],[-121.86067,37.25629],[-121.86066,37.25622],[-121.86063,37.25616],[-121.8606,37.25608],[-121.86056,37.25602],[-121.86052,37.25595],[-121.86046,37.25589],[-121.8604,37.25582],[-121.86032,37.25575],[-121.86027,37.25571],[-121.86015,37.25564],[-121.8601,37.25561],[-121.86001,37.25557],[-121.85995,37.25555],[-121.8599,37.25554],[-121.85986,37.25552],[-121.8598,37.25551],[-121.85978,37.25551],[-121.85972,37.2555],[-121.85968,37.25549],[-121.85963,37.25549],[-121.85954,37.25549],[-121.8594,37.25548],[-121.85901,37.25548],[-121.85892,37.25548],[-121.8588,37.25548],[-121.85866,37.25548],[-121.8573,37.25549],[-121.85711,37.25549],[-121.85643,37.25549],[-121.85587,37.25548],[-121.85468,37.25546],[-121.85332,37.25541],[-121.85294,37.25539],[-121.84927,37.2553],[-121.84904,37.2553],[-121.84885,37.25529],[-121.84813,37.25526],[-121.84801,37.25525],[-121.84797,37.25525],[-121.84784,37.25524],[-121.84766,37.25523],[-121.84755,37.25521],[-121.84743,37.2552],[-121.84708,37.25513],[-121.84674,37.25508],[-121.84673,37.25507],[-121.84652,37.25503],[-121.84628,37.25498],[-121.84608,37.25493],[-121.84595,37.2549],[-121.84557,37.2548],[-121.84541,37.25475],[-121.84528,37.25471],[-121.84512,37.25465],[-121.84468,37.2545],[-121.84448,37.25442],[-121.8443,37.25434],[-121.84389,37.25416],[-121.84358,37.254],[-121.84247,37.25347],[-121.84246,37.25346],[-121.84181,37.25314],[-121.84103,37.25276],[-121.83766,37.25112],[-121.83707,37.25083],[-121.83693,37.25077],[-121.83678,37.25069],[-121.83604,37.25033],[-121.83493,37.24979],[-121.83134,37.24804],[-121.83054,37.24765],[-121.82999,37.24738],[-121.82995,37.24736],[-121.82523,37.24504],[-121.82511,37.24499],[-121.82499,37.24493],[-121.8248,37.24484],[-121.82468,37.24478],[-121.82413,37.24452],[-121.82387,37.2444],[-121.82363,37.24431],[-121.82349,37.24425],[-121.82309,37.2441],[-121.82293,37.24405],[-121.82277,37.24399],[-121.82219,37.24382],[-121.82185,37.24374],[-121.8217,37.2437],[-121.82147,37.24364],[-121.82104,37.24355],[-121.82077,37.24351],[-121.82059,37.24348],[-121.82039,37.24344],[-121.82023,37.24342],[-121.81988,37.24338],[-121.81959,37.24335],[-121.81938,37.24334],[-121.81926,37.24333],[-121.81912,37.24332],[-121.8186,37.24331],[-121.81766,37.24329],[-121.81681,37.24327],[-121.81487,37.24326],[-121.8144,37.24324],[-121.81234,37.24322],[-121.81171,37.24322],[-121.80736,37.24317],[-121.80701,37.24316],[-121.80662,37.24315],[-121.80637,37.24313],[-121.80579,37.2431],[-121.80529,37.24305],[-121.80502,37.24303],[-121.80481,37.243],[-121.80457,37.24297],[-121.80423,37.24292],[-121.80405,37.24289],[-121.80392,37.24287],[-121.80377,37.24285],[-121.80317,37.24273],[-121.80279,37.24265],[-121.80246,37.24256],[-121.80225,37.2425],[-121.80196,37.24244],[-121.8017,37.24237],[-121.80063,37.24208],[-121.79929,37.24173],[-121.79913,37.24168],[-121.79449,37.24045],[-121.79388,37.24029],[-121.79234,37.23988],[-121.79205,37.23981],[-121.79185,37.23977],[-121.79161,37.2397],[-121.79154,37.23968],[-121.79147,37.23966],[-121.79143,37.23964],[-121.79137,37.23962],[-121.79129,37.23957],[-121.79118,37.23952],[-121.79098,37.2394],[-121.79086,37.23932],[-121.79078,37.23927],[-121.79064,37.23915],[-121.78988,37.23858],[-121.78944,37.23825],[-121.78932,37.23817],[-121.78913,37.23798],[-121.78905,37.23786],[-121.78898,37.23772],[-121.78893,37.23759],[-121.78891,37.23746],[-121.78892,37.23729],[-121.78893,37.23713],[-121.789,37.23697],[-121.78915,37.23667],[-121.78949,37.23595]]},"properties":{"routeId":"Blue","name":"Baypointe - Santa Teresa","shortName":"Blue Line","color":"#007ACC","textColor":"#000000","system":"vta"}},{"type":"Feature","geometry":{"type":"LineString","coordinates":[[-121.97886,37.40265],[-121.97805,37.40266],[-121.97731,37.40267],[-121.97642,37.40267],[-121.97589,37.40268],[-121.97545,37.40271],[-121.97479,37.40279],[-121.9745,37.40282],[-121.97391,37.40289],[-121.97354,37.40295],[-121.97324,37.40299],[-121.97292,37.40306],[-121.97261,37.40313],[-121.97216,37.40327],[-121.97173,37.40341],[-121.97134,37.40355],[-121.97081,37.40376],[-121.96756,37.40527],[-121.9666,37.40568],[-121.96641,37.40575],[-121.96597,37.40593],[-121.96557,37.4061],[-121.96485,37.40639],[-121.96329,37.40697],[-121.96297,37.40708],[-121.96258,37.40722],[-121.96183,37.40752],[-121.96164,37.40759],[-121.96145,37.40769],[-121.96131,37.40775],[-121.96111,37.40787],[-121.96102,37.40793],[-121.9608,37.40809],[-121.96053,37.40833],[-121.9603,37.40854],[-121.96006,37.40884],[-121.95988,37.40908],[-121.95954,37.40956],[-121.95945,37.40967],[-121.95942,37.40971],[-121.95928,37.40983],[-121.95917,37.40994],[-121.95905,37.41003],[-121.95894,37.4101],[-121.95881,37.41019],[-121.95865,37.41028],[-121.95851,37.41034],[-121.95839,37.4104],[-121.95825,37.41046],[-121.95808,37.4105],[-121.958,37.41053],[-121.95783,37.41057],[-121.95768,37.4106],[-121.95761,37.41061],[-121.95744,37.41063],[-121.9573,37.41064],[-121.9572,37.41065],[-121.95701,37.41065],[-121.95681,37.41064],[-121.95658,37.41062],[-121.95635,37.41058],[-121.95612,37.41052],[-121.95596,37.41047],[-121.95583,37.41042],[-121.95569,37.41036],[-121.95556,37.4103],[-121.95545,37.41025],[-121.95533,37.41018],[-121.95503,37.41],[-121.95469,37.40979],[-121.95442,37.40962],[-121.95398,37.40935],[-121.95359,37.40912],[-121.95331,37.40894],[-121.95316,37.40885],[-121.95281,37.40864],[-121.95241,37.4084],[-121.95207,37.4082],[-121.95175,37.40799],[-121.95154,37.40788],[-121.95135,37.40777],[-121.95118,37.40768],[-121.95095,37.40757],[-121.95072,37.40749],[-121.95061,37.40745],[-121.95041,37.40738],[-121.95019,37.40734],[-121.95002,37.4073],[-121.94976,37.40725],[-121.94945,37.40722],[-121.94925,37.40721],[-121.94894,37.40722],[-121.94858,37.40725],[-121.94819,37.4073],[-121.94787,37.40739],[-121.94766,37.40746],[-121.94742,37.40757],[-121.94719,37.40769],[-121.94682,37.40788],[-121.9463,37.40817],[-121.94585,37.40843],[-121.9454,37.40868],[-121.94523,37.4088],[-121.94497,37.40892],[-121.94496,37.40894],[-121.94496,37.40893],[-121.94492,37.40892],[-121.9449,37.40889],[-121.9449,37.40885],[-121.94488,37.40876],[-121.94477,37.40853],[-121.94434,37.4079],[-121.94269,37.40558],[-121.94051,37.4026],[-121.93942,37.40098],[-121.93545,37.39544],[-121.93436,37.39385],[-121.93038,37.38839],[-121.92931,37.38693],[-121.92648,37.3831],[-121.92537,37.38165],[-121.92116,37.37593],[-121.91998,37.37432],[-121.91962,37.37381],[-121.91926,37.37331],[-121.91886,37.37278],[-121.91816,37.37184],[-121.91678,37.36999],[-121.91555,37.36834],[-121.91095,37.3622],[-121.90977,37.36061],[-121.90923,37.35989],[-121.90879,37.35932],[-121.90725,37.35726],[-121.90692,37.3568],[-121.90572,37.35509],[-121.90529,37.35449],[-121.90316,37.35166],[-121.90268,37.35103],[-121.8983,37.34521],[-121.89786,37.34463],[-121.89724,37.3438],[-121.89573,37.34177],[-121.89528,37.34118],[-121.89468,37.34039],[-121.89452,37.34016],[-121.89431,37.33989],[-121.89401,37.33952],[-121.89343,37.33927],[-121.8931,37.33925],[-121.89279,37.33931],[-121.89257,37.33939],[-121.89239,37.33948],[-121.89223,37.33957],[-121.89222,37.33957],[-121.89247,37.33955],[-121.8926,37.33956],[-121.89274,37.33963],[-121.89287,37.33974],[-121.88735,37.33235],[-121.88695,37.33186],[-121.88704,37.33211],[-121.88701,37.33223],[-121.88683,37.33241],[-121.8869,37.3324],[-121.88721,37.33225],[-121.88739,37.33215],[-121.88771,37.33199],[-121.88819,37.33177],[-121.88877,37.3315],[-121.88918,37.33129],[-121.8895,37.33111],[-121.89023,37.33075],[-121.89098,37.33037],[-121.89112,37.3303],[-121.8915,37.33015],[-121.89199,37.32995],[-121.89229,37.32982],[-121.89287,37.32955],[-121.89402,37.32901],[-121.89416,37.32893],[-121.89441,37.32882],[-121.89461,37.32871],[-121.89463,37.32868],[-121.89459,37.32868],[-121.89466,37.32866],[-121.89475,37.32863],[-121.89503,37.32855],[-121.89531,37.32839],[-121.89555,37.32824],[-121.89552,37.32821],[-121.89547,37.32817],[-121.89543,37.32813],[-121.89546,37.32809],[-121.89548,37.32804],[-121.8955,37.328],[-121.89555,37.32798],[-121.8956,37.32798],[-121.89622,37.32873],[-121.89652,37.32907],[-121.89658,37.32912],[-121.89666,37.32921],[-121.89671,37.32928],[-121.89675,37.32935],[-121.89678,37.32943],[-121.8968,37.32955],[-121.89693,37.33028],[-121.89696,37.33033],[-121.89699,37.33038],[-121.89701,37.3304],[-121.89703,37.33043],[-121.89707,37.33045],[-121.89711,37.33048],[-121.89718,37.33052],[-121.89723,37.33054],[-121.89733,37.33055],[-121.8974,37.33056],[-121.89747,37.33056],[-121.89813,37.33041],[-121.89902,37.33021],[-121.89959,37.33008],[-121.8997,37.33007],[-121.89978,37.33006],[-121.89991,37.33005],[-121.90076,37.33001],[-121.90121,37.32999],[-121.90147,37.32998],[-121.9016,37.32998],[-121.90173,37.32998],[-121.90186,37.33],[-121.90194,37.33002],[-121.90201,37.33004],[-121.90211,37.33008],[-121.9022,37.33013],[-121.90224,37.33015],[-121.9023,37.33018],[-121.9025,37.33031],[-121.90273,37.33044],[-121.90284,37.33051],[-121.90292,37.33054],[-121.90302,37.33057],[-121.90308,37.33059],[-121.90315,37.33059],[-121.9032,37.33059],[-121.90325,37.33058],[-121.90331,37.33057],[-121.90334,37.33056],[-121.90339,37.33054],[-121.90342,37.33052],[-121.90345,37.33051],[-121.90349,37.33048],[-121.90351,37.33046],[-121.90353,37.33044],[-121.90356,37.33042],[-121.90358,37.33039],[-121.90362,37.33033],[-121.90364,37.3303],[-121.90365,37.33026],[-121.90366,37.33023],[-121.90366,37.33017],[-121.90362,37.32973],[-121.90359,37.32943],[-121.90356,37.32894],[-121.90353,37.32857],[-121.9035,37.32819],[-121.9035,37.32813],[-121.90347,37.32781],[-121.90349,37.32766],[-121.90347,37.32737],[-121.90344,37.32725],[-121.90342,37.32715],[-121.9034,37.32706],[-121.90327,37.32667],[-121.90307,37.32605],[-121.90302,37.32591],[-121.90299,37.32583],[-121.90297,37.32572],[-121.90295,37.3256],[-121.90293,37.32544],[-121.9029,37.32497],[-121.90289,37.32484],[-121.90289,37.32477],[-121.90289,37.32472],[-121.90291,37.32465],[-121.90293,37.32453],[-121.90298,37.32442],[-121.90302,37.32436],[-121.90306,37.32428],[-121.90314,37.32416],[-121.90324,37.32402],[-121.90334,37.32391],[-121.90343,37.32381],[-121.90355,37.32371],[-121.90376,37.32353],[-121.90388,37.32343],[-121.90411,37.32322],[-121.90475,37.32264],[-121.90636,37.32117],[-121.90736,37.32027],[-121.90765,37.32],[-121.90804,37.31965],[-121.90922,37.31858],[-121.90969,37.31815],[-121.90988,37.31798],[-121.91033,37.31757],[-121.91077,37.31717],[-121.91126,37.31672],[-121.91164,37.31638],[-121.91286,37.31525],[-121.91346,37.31471],[-121.91385,37.31437],[-121.91423,37.31403],[-121.91438,37.3139],[-121.91461,37.31368],[-121.91527,37.31308],[-121.91545,37.31292],[-121.91563,37.31275],[-121.91582,37.31257],[-121.916,37.3124],[-121.91676,37.31171],[-121.91711,37.31136],[-121.91758,37.31091],[-121.91803,37.3105],[-121.91846,37.31011],[-121.91869,37.30991],[-121.91919,37.30946],[-121.91963,37.30907],[-121.92,37.30875],[-121.9204,37.30838],[-121.92072,37.3081],[-121.92091,37.30793],[-121.92192,37.307],[-121.92255,37.30643],[-121.92417,37.30495],[-121.9258,37.30346],[-121.92742,37.30201],[-121.92789,37.30158],[-121.92828,37.30124],[-121.9286,37.30095],[-121.92896,37.30066],[-121.92924,37.30041],[-121.92978,37.29994],[-121.92986,37.29986],[-121.9303,37.29946],[-121.93052,37.29926],[-121.93103,37.29874],[-121.93201,37.29785],[-121.93362,37.29639],[-121.93526,37.29491],[-121.93619,37.29408],[-121.9364,37.29388],[-121.93659,37.2937],[-121.93703,37.29332],[-121.93715,37.29322],[-121.93728,37.29312],[-121.93738,37.29302],[-121.9376,37.2928],[-121.93791,37.29248],[-121.93829,37.29206],[-121.93842,37.29191],[-121.93859,37.29172],[-121.93875,37.29152],[-121.939,37.29122],[-121.93912,37.29106],[-121.93955,37.2905],[-121.94067,37.28906],[-121.94182,37.28757],[-121.94238,37.28685],[-121.94289,37.28611],[-121.94305,37.2859],[-121.94338,37.28547],[-121.944,37.28469],[-121.94515,37.2832],[-121.94627,37.28173],[-121.9473,37.28041],[-121.94792,37.27963],[-121.94829,37.27917]]},"properties":{"routeId":"Green","name":"Old Ironsides - Winchester","shortName":"Green Line","color":"#379400","textColor":"#000000","system":"vta"}},{"type":"Feature","geometry":{"type":"LineString","coordinates":[[-122.0776,37.39528],[-122.07677,37.39495],[-122.07567,37.3945],[-122.07526,37.39437],[-122.07472,37.39418],[-122.07394,37.39386],[-122.07289,37.39342],[-122.07216,37.39311],[-122.06992,37.39215],[-122.06908,37.39181],[-122.06841,37.39155],[-122.06675,37.39089],[-122.06591,37.39056],[-122.06522,37.39028],[-122.06397,37.38976],[-122.06359,37.3896],[-122.06328,37.38948],[-122.06282,37.3893],[-122.06257,37.38921],[-122.06245,37.38917],[-122.0623,37.38914],[-122.06216,37.38911],[-122.06207,37.3891],[-122.06199,37.38909],[-122.0619,37.38909],[-122.06181,37.38909],[-122.06176,37.38909],[-122.0617,37.3891],[-122.06158,37.38911],[-122.06151,37.38913],[-122.06148,37.38913],[-122.06143,37.38915],[-122.06139,37.38916],[-122.06136,37.38917],[-122.0613,37.38919],[-122.06124,37.38922],[-122.06116,37.38925],[-122.06109,37.38929],[-122.061,37.38933],[-122.06095,37.38936],[-122.06088,37.38941],[-122.06079,37.3895],[-122.06074,37.38955],[-122.06069,37.38959],[-122.06065,37.38964],[-122.06053,37.38983],[-122.0605,37.3899],[-122.06048,37.38995],[-122.06046,37.39],[-122.06045,37.39007],[-122.06039,37.39021],[-122.0603,37.39047],[-122.06017,37.39078],[-122.06009,37.3909],[-122.06001,37.39105],[-122.05992,37.39115],[-122.05988,37.3912],[-122.05984,37.39122],[-122.05972,37.39131],[-122.05961,37.39137],[-122.05948,37.39145],[-122.05898,37.39175],[-122.05823,37.39222],[-122.05801,37.39235],[-122.05721,37.39287],[-122.05711,37.39293],[-122.05704,37.39297],[-122.05695,37.39302],[-122.05686,37.39307],[-122.05672,37.39313],[-122.05657,37.39318],[-122.05646,37.39321],[-122.05634,37.39323],[-122.0552,37.39354],[-122.05389,37.3939],[-122.0536,37.39398],[-122.05335,37.39407],[-122.05324,37.39412],[-122.05314,37.39417],[-122.05308,37.39421],[-122.05302,37.39425],[-122.05299,37.39427],[-122.05293,37.39431],[-122.05286,37.39436],[-122.05276,37.39445],[-122.05269,37.39452],[-122.05263,37.39459],[-122.05257,37.39466],[-122.05252,37.39473],[-122.05247,37.39479],[-122.05244,37.39485],[-122.05241,37.39494],[-122.05238,37.395],[-122.05236,37.39506],[-122.05234,37.39509],[-122.05221,37.39544],[-122.05197,37.3961],[-122.05147,37.39743],[-122.05134,37.39774],[-122.05109,37.39844],[-122.05043,37.40022],[-122.05004,37.40129],[-122.04993,37.4016],[-122.04987,37.4018],[-122.04985,37.40187],[-122.04984,37.40196],[-122.04984,37.40204],[-122.04984,37.40212],[-122.04983,37.40216],[-122.04984,37.40221],[-122.04985,37.40228],[-122.04987,37.40234],[-122.04989,37.4024],[-122.04991,37.40247],[-122.04996,37.40254],[-122.05001,37.40262],[-122.05007,37.40269],[-122.05015,37.40276],[-122.05025,37.40285],[-122.05038,37.40296],[-122.05045,37.40302],[-122.05071,37.40321],[-122.05084,37.40332],[-122.05091,37.40339],[-122.05097,37.40345],[-122.05103,37.40358],[-122.05106,37.40362],[-122.0511,37.40383],[-122.05113,37.40402],[-122.05116,37.40421],[-122.05119,37.40435],[-122.05119,37.40444],[-122.05119,37.40451],[-122.05118,37.40455],[-122.05118,37.4046],[-122.05116,37.40464],[-122.05112,37.40468],[-122.0511,37.40472],[-122.05107,37.40475],[-122.05103,37.40479],[-122.05096,37.40483],[-122.05088,37.40487],[-122.0508,37.40488],[-122.05072,37.40488],[-122.05058,37.40488],[-122.05048,37.40486],[-122.05035,37.40482],[-122.05012,37.40473],[-122.05,37.40468],[-122.04976,37.40458],[-122.04951,37.40448],[-122.04948,37.40446],[-122.04916,37.40434],[-122.04902,37.40429],[-122.04863,37.40412],[-122.04816,37.40394],[-122.04798,37.40388],[-122.04765,37.40376],[-122.04729,37.40365],[-122.04686,37.40353],[-122.04649,37.40345],[-122.04613,37.40337],[-122.04527,37.40318],[-122.04411,37.40293],[-122.04235,37.40254],[-122.04089,37.40223],[-122.03964,37.40195],[-122.03905,37.40183],[-122.03882,37.40179],[-122.03851,37.40176],[-122.03837,37.40175],[-122.03822,37.40176],[-122.03804,37.40177],[-122.0378,37.4018],[-122.03761,37.40183],[-122.03746,37.40187],[-122.03722,37.40194],[-122.0371,37.40196],[-122.0368,37.40206],[-122.03642,37.40219],[-122.03609,37.40228],[-122.03588,37.40232],[-122.03571,37.40235],[-122.03556,37.40236],[-122.03542,37.40236],[-122.03511,37.40237],[-122.03433,37.40239],[-122.03348,37.40241],[-122.03315,37.40243],[-122.03223,37.40245],[-122.03192,37.40247],[-122.03165,37.4025],[-122.0313,37.40253],[-122.03098,37.40258],[-122.03074,37.40262],[-122.03049,37.40268],[-122.03021,37.40273],[-122.02991,37.4028],[-122.02959,37.40289],[-122.02941,37.40295],[-122.02914,37.40303],[-122.02891,37.40311],[-122.02883,37.40314],[-122.02854,37.40325],[-122.02811,37.40344],[-122.02755,37.4037],[-122.02708,37.40392],[-122.02682,37.40406],[-122.02673,37.40413],[-122.02665,37.4042],[-122.0266,37.40427],[-122.02655,37.40435],[-122.02648,37.40453],[-122.02644,37.40466],[-122.02641,37.40478],[-122.02638,37.40491],[-122.02636,37.40504],[-122.02632,37.40522],[-122.02629,37.40548],[-122.02631,37.40578],[-122.02637,37.40615],[-122.02646,37.4064],[-122.02654,37.4066],[-122.02666,37.40686],[-122.02708,37.40783],[-122.02722,37.40815],[-122.02728,37.40839],[-122.0273,37.40857],[-122.02729,37.40877],[-122.02728,37.40892],[-122.02724,37.40907],[-122.02719,37.40923],[-122.02713,37.4094],[-122.02689,37.41005],[-122.0266,37.41095],[-122.0261,37.41243],[-122.0257,37.41366],[-122.02564,37.41381],[-122.0256,37.41388],[-122.02553,37.41394],[-122.02549,37.41399],[-122.02543,37.41404],[-122.02531,37.4141],[-122.02523,37.41413],[-122.02513,37.41416],[-122.02505,37.41418],[-122.02493,37.41418],[-122.02482,37.41418],[-122.02467,37.41416],[-122.02451,37.41413],[-122.02434,37.41409],[-122.02415,37.41403],[-122.02398,37.41396],[-122.02383,37.41391],[-122.0237,37.41384],[-122.02341,37.41369],[-122.02326,37.41358],[-122.02313,37.41349],[-122.023,37.41338],[-122.02284,37.41325],[-122.02269,37.41312],[-122.0225,37.41297],[-122.02235,37.41286],[-122.02224,37.41278],[-122.02213,37.41271],[-122.02203,37.41265],[-122.02187,37.41258],[-122.02174,37.41252],[-122.0215,37.41243],[-122.02121,37.41233],[-122.02101,37.41229],[-122.02068,37.41222],[-122.02031,37.41214],[-122.01994,37.41206],[-122.01933,37.41193],[-122.01809,37.41167],[-122.01735,37.41151],[-122.01669,37.41137],[-122.01625,37.41128],[-122.01531,37.41108],[-122.01469,37.41095],[-122.01416,37.41084],[-122.01385,37.41077],[-122.01371,37.41074],[-122.01357,37.41069],[-122.0134,37.41064],[-122.01328,37.41059],[-122.01315,37.41053],[-122.01297,37.41046],[-122.01275,37.41034],[-122.01245,37.41015],[-122.0122,37.40996],[-122.01202,37.4098],[-122.0117,37.40945],[-122.01138,37.40908],[-122.01118,37.40885],[-122.01093,37.40855],[-122.01073,37.40835],[-122.01054,37.40811],[-122.01042,37.40795],[-122.01018,37.40763],[-122.00998,37.40733],[-122.00983,37.40702],[-122.0097,37.40673],[-122.00965,37.40651],[-122.00961,37.40632],[-122.0096,37.40614],[-122.00959,37.40594],[-122.00959,37.40576],[-122.00961,37.40557],[-122.00966,37.40532],[-122.00973,37.40506],[-122.00983,37.40469],[-122.00996,37.40424],[-122.01004,37.40395],[-122.01012,37.40371],[-122.01018,37.40346],[-122.01022,37.40331],[-122.01022,37.40316],[-122.01019,37.40308],[-122.01016,37.40301],[-122.0101,37.40297],[-122.01006,37.40292],[-122.00991,37.40285],[-122.00975,37.4028],[-122.00956,37.40276],[-122.00935,37.40273],[-122.00864,37.40257],[-122.00838,37.40252],[-122.00781,37.4024],[-122.00752,37.40236],[-122.00724,37.40237],[-122.00702,37.4024],[-122.00684,37.40244],[-122.00667,37.40249],[-122.00653,37.40254],[-122.00615,37.40272],[-122.00579,37.4029],[-122.00555,37.40303],[-122.00531,37.40314],[-122.00513,37.4032],[-122.00498,37.40323],[-122.00479,37.40327],[-122.0046,37.40328],[-122.00417,37.40329],[-122.00337,37.40331],[-122.0023,37.40332],[-122.00087,37.40335],[-121.99989,37.40336],[-121.99915,37.40337],[-121.99825,37.40339],[-121.99786,37.4034],[-121.99763,37.40341],[-121.9973,37.40343],[-121.99659,37.40344],[-121.99624,37.40343],[-121.99573,37.40342],[-121.99542,37.4034],[-121.99504,37.40339],[-121.99463,37.4034],[-121.99422,37.4034],[-121.99404,37.4034],[-121.99384,37.40339],[-121.99286,37.40335],[-121.99226,37.40334],[-121.99149,37.40333],[-121.99117,37.40334],[-121.99098,37.40337],[-121.99076,37.4034],[-121.99055,37.40344],[-121.99011,37.40351],[-121.98966,37.40354],[-121.98867,37.40355],[-121.98741,37.40357],[-121.98614,37.4036],[-121.98533,37.40362],[-121.98505,37.40362],[-121.98486,37.40363],[-121.98465,37.40364],[-121.98424,37.40364],[-121.9831,37.40357],[-121.98267,37.40359],[-121.98224,37.40361],[-121.98153,37.40365],[-121.97984,37.40367],[-121.97888,37.40373],[-121.97807,37.40378],[-121.97732,37.40383],[-121.97644,37.40387],[-121.97598,37.40391],[-121.97566,37.40396],[-121.97502,37.40407],[-121.97474,37.40411],[-121.97418,37.4042],[-121.97384,37.40426],[-121.97362,37.4043],[-121.97338,37.40435],[-121.97317,37.4044],[-121.97278,37.40453],[-121.97239,37.40465],[-121.97206,37.40477],[-121.97165,37.40492],[-121.9684,37.40643],[-121.9674,37.40688],[-121.96717,37.40695],[-121.96677,37.40713],[-121.96635,37.4073],[-121.96559,37.40761],[-121.96401,37.40819],[-121.96365,37.40832],[-121.9633,37.40844],[-121.96257,37.40872],[-121.9625,37.40875],[-121.96235,37.40883],[-121.96227,37.40887],[-121.96217,37.40893],[-121.96212,37.40897],[-121.962,37.40903],[-121.96181,37.40921],[-121.96166,37.40934],[-121.96152,37.40952],[-121.96136,37.40976],[-121.961,37.41024],[-121.96087,37.41041],[-121.96074,37.41055],[-121.96058,37.41071],[-121.96041,37.41086],[-121.96019,37.41103],[-121.96002,37.41114],[-121.95985,37.41125],[-121.95959,37.4114],[-121.95939,37.4115],[-121.95919,37.4116],[-121.95889,37.4117],[-121.9587,37.41176],[-121.95856,37.41181],[-121.95829,37.41187],[-121.95806,37.41192],[-121.95785,37.41195],[-121.95762,37.41197],[-121.95744,37.41198],[-121.95726,37.41199],[-121.95697,37.41199],[-121.95665,37.41198],[-121.9563,37.41194],[-121.95591,37.41188],[-121.95554,37.41178],[-121.95532,37.41171],[-121.95509,37.41164],[-121.95487,37.41154],[-121.95468,37.41146],[-121.95449,37.41135],[-121.95433,37.41126],[-121.95401,37.41108],[-121.95365,37.41085],[-121.9534,37.4107],[-121.95294,37.41043],[-121.95255,37.41018],[-121.95229,37.41002],[-121.95212,37.40993],[-121.95177,37.4097],[-121.95139,37.40948],[-121.95103,37.40926],[-121.95071,37.40907],[-121.95054,37.40896],[-121.95039,37.40887],[-121.95032,37.40884],[-121.95015,37.40877],[-121.95002,37.40871],[-121.94993,37.40869],[-121.94981,37.40864],[-121.94974,37.40863],[-121.94955,37.4086],[-121.94939,37.40857],[-121.9492,37.40855],[-121.94908,37.40855],[-121.94894,37.40856],[-121.94868,37.40859],[-121.94843,37.40863],[-121.94822,37.4087],[-121.94807,37.40875],[-121.948,37.40881],[-121.94787,37.40888],[-121.9476,37.40901],[-121.9471,37.40927],[-121.94665,37.4095],[-121.94618,37.40972],[-121.94596,37.40982],[-121.94501,37.41025],[-121.94404,37.41068],[-121.9433,37.41105],[-121.94283,37.41122],[-121.94242,37.41135],[-121.94197,37.41149],[-121.94151,37.41161],[-121.94126,37.41162],[-121.94116,37.41158],[-121.94105,37.41154],[-121.94059,37.41168],[-121.9399,37.41193],[-121.93939,37.4121],[-121.93902,37.41221],[-121.9388,37.41226],[-121.93854,37.41232],[-121.93832,37.41234],[-121.93808,37.41237],[-121.93785,37.4124],[-121.93704,37.41257],[-121.93678,37.41261],[-121.93608,37.41276],[-121.93543,37.41289],[-121.93501,37.41298],[-121.9338,37.41325],[-121.93348,37.41331],[-121.93311,37.41338],[-121.93291,37.41341],[-121.9327,37.41344],[-121.93246,37.41344],[-121.93217,37.41344],[-121.9319,37.41342],[-121.93168,37.4134],[-121.93146,37.41337],[-121.93121,37.41333],[-121.93085,37.41325],[-121.9304,37.4131],[-121.92907,37.41264],[-121.92876,37.41253],[-121.9283,37.41237],[-121.92759,37.41211],[-121.92683,37.41183],[-121.92632,37.41165],[-121.92584,37.41148],[-121.92553,37.41137],[-121.92532,37.41131],[-121.92513,37.41125],[-121.9248,37.41117],[-121.92455,37.41112],[-121.92429,37.41108],[-121.92404,37.41105],[-121.92381,37.41103],[-121.92355,37.41102],[-121.9232,37.41102],[-121.92284,37.41104],[-121.92207,37.4111],[-121.92157,37.41115],[-121.9214,37.41117],[-121.92127,37.4112],[-121.92096,37.41125],[-121.92065,37.41133],[-121.92034,37.41143],[-121.91996,37.41156],[-121.91978,37.41164],[-121.91965,37.41171],[-121.91942,37.41181],[-121.91908,37.41201],[-121.91888,37.41213],[-121.9187,37.41226],[-121.91855,37.41238],[-121.91797,37.41287],[-121.91769,37.41311],[-121.9174,37.41336],[-121.91714,37.41358],[-121.91689,37.4138],[-121.91664,37.41401],[-121.91644,37.41417],[-121.91623,37.41433],[-121.91594,37.41451],[-121.91566,37.41466],[-121.91537,37.41479],[-121.91508,37.41492],[-121.91476,37.41503],[-121.9143,37.41516],[-121.91398,37.41525],[-121.91344,37.41539],[-121.91248,37.41562],[-121.91208,37.41569],[-121.91171,37.41574],[-121.91138,37.41578],[-121.91109,37.41579],[-121.91093,37.41579],[-121.91054,37.41579],[-121.91015,37.41579],[-121.90947,37.41578],[-121.90878,37.41576],[-121.90811,37.41575],[-121.90775,37.41575],[-121.90715,37.41574],[-121.90642,37.41572],[-121.90605,37.41571],[-121.90568,37.4157],[-121.90533,37.41567],[-121.90502,37.41563],[-121.90469,37.41557],[-121.90442,37.4155],[-121.90417,37.41542],[-121.90392,37.41533],[-121.90363,37.41521],[-121.90338,37.41509],[-121.90313,37.41494],[-121.9023,37.41447],[-121.90214,37.41438],[-121.90176,37.41414],[-121.90141,37.41395],[-121.90115,37.41378],[-121.9005,37.41341],[-121.9003,37.4133],[-121.90004,37.41317],[-121.89981,37.41305],[-121.8995,37.41289],[-121.89909,37.41268],[-121.89783,37.41205],[-121.89714,37.41172],[-121.89665,37.41148],[-121.8961,37.41122],[-121.89526,37.41082],[-121.89472,37.41056],[-121.89388,37.41016],[-121.89324,37.40985],[-121.89223,37.40936],[-121.89136,37.40894],[-121.8906,37.40857],[-121.89014,37.40834],[-121.88972,37.40812],[-121.8895,37.408],[-121.88928,37.40787],[-121.88866,37.40748],[-121.88802,37.40707],[-121.88763,37.40683],[-121.88681,37.4063],[-121.88621,37.4059],[-121.88558,37.40548],[-121.88497,37.40509],[-121.88459,37.40487],[-121.88422,37.40464],[-121.88368,37.40433],[-121.8831,37.40398],[-121.88231,37.40348],[-121.88176,37.40313],[-121.88103,37.40268],[-121.88074,37.4025],[-121.88055,37.40237],[-121.88036,37.40224],[-121.88019,37.40212],[-121.88,37.40199],[-121.87968,37.40174],[-121.87955,37.40167],[-121.87924,37.40147],[-121.87884,37.40121],[-121.87786,37.4006],[-121.87621,37.39957],[-121.87542,37.39907],[-121.87421,37.3983],[-121.87315,37.39761],[-121.87278,37.39736],[-121.87216,37.39693],[-121.87133,37.39634],[-121.87031,37.39563],[-121.8696,37.39514],[-121.86912,37.39482],[-121.86871,37.39457],[-121.86829,37.39429],[-121.8681,37.39411],[-121.86781,37.39381],[-121.86756,37.39355],[-121.86713,37.39309],[-121.86653,37.39244],[-121.86559,37.39144],[-121.86536,37.39121],[-121.86504,37.39088],[-121.8642,37.39008],[-121.86314,37.38905],[-121.86204,37.38798],[-121.86143,37.38741],[-121.85979,37.38585],[-121.85889,37.38503],[-121.85747,37.38377],[-121.85607,37.38253],[-121.85438,37.38099],[-121.85265,37.37944],[-121.85172,37.37857],[-121.85057,37.37755],[-121.84958,37.37665],[-121.84916,37.37627],[-121.84869,37.37584],[-121.84832,37.37547],[-121.8479,37.37503],[-121.84727,37.37442],[-121.84691,37.37404],[-121.84666,37.37379],[-121.84619,37.37331],[-121.8455,37.37262],[-121.844,37.37108],[-121.84256,37.36961],[-121.84209,37.36914],[-121.84148,37.36852],[-121.84086,37.3679],[-121.84045,37.36748],[-121.83997,37.36701],[-121.8396,37.36666],[-121.83938,37.36644],[-121.83861,37.36568],[-121.83786,37.36493],[-121.83732,37.36437],[-121.8368,37.36384],[-121.83569,37.36274],[-121.83511,37.36215],[-121.83451,37.36151],[-121.83422,37.3612],[-121.83402,37.36097],[-121.83385,37.36073],[-121.83369,37.3605],[-121.83294,37.35942],[-121.83277,37.35915],[-121.83252,37.35878],[-121.83223,37.35837],[-121.83207,37.35815]]},"properties":{"routeId":"Ornge","name":"Mountain View - Alum Rock","shortName":"Orange Line","color":"#CC6600","textColor":"#000000","system":"vta"}}]}