{"type":"FeatureCollection","features":[{"type":"Feature","geometry":{"type":"Point","coordinates":[-121.91712,37.41357]},"properties":{"name":"Alder","stopId":"PS_ALDR","system":"vta","routes":["Ornge"],"colors":["#CC6600"]}},{"type":"Feature","geometry":{"type":"Point","coordinates":[-121.83232,37.35843]},"properties":{"name":"Alum Rock","stopId":"PS_ALUM","system":"vta","routes":["Ornge"],"colors":["#CC6600"]}},{"type":"Feature","geometry":{"type":"Point","coordinates":[-121.92983,37.29985]},"properties":{"name":"Bascom","stopId":"PS_BASC","system":"vta","routes":["Green"],"colors":["#379400"]}},{"type":"Feature","geometry":{"type":"Point","coordinates":[-121.94231,37.41044]},"properties":{"name":"Baypointe","stopId":"PS_BAYP","system":"vta","routes":["Ornge","Blue","Green"],"colors":["#CC6600","#007ACC","#379400"]}},{"type":"Feature","geometry":{"type":"Point","coordinates":[-121.84109,37.25279]},"properties":{"name":"Blossom Hill","stopId":"PS_BLSM","system":"vta","routes":["Blue"],"colors":["#007ACC"]}},{"type":"Feature","geometry":{"type":"Point","coordinates":[-121.9293,37.38805]},"properties":{"name":"Bonaventura","stopId":"PS_BONA","system":"vta","routes":["Blue","Green"],"colors":["#007ACC","#379400"]}},{"type":"Feature","geometry":{"type":"Point","coordinates":[-122.01803,37.41166]},"properties":{"name":"Borregas","stopId":"PS_BORR","system":"vta","routes":["Ornge"],"colors":["#CC6600"]}},{"type":"Feature","geometry":{"type":"Point","coordinates":[-121.85926,37.26676]},"properties":{"name":"Branham","stopId":"PS_BRNM","system":"vta","routes":["Blue"],"colors":["#007ACC"]}},{"type":"Feature","geometry":{"type":"Point","coordinates":[-121.86231,37.38824]},"properties":{"name":"Berryessa","stopId":"PS_BRRS","system":"vta","routes":["Ornge"],"colors":["#CC6600"]}},{"type":"Feature","geometry":{"type":"Point","coordinates":[-121.89366,37.32776]},"properties":{"name":"Children's Discovery Museum","stopId":"PS_CDMS","system":"vta","routes":["Blue"],"colors":["#007ACC"]}},{"type":"Feature","geometry":{"type":"Point","coordinates":[-121.95194,37.4089]},"properties":{"name":"Champion","stopId":"PS_CHMP","system":"vta","routes":["Green","Ornge"],"colors":["#379400","#CC6600"]}},{"type":"Feature","geometry":{"type":"Point","coordinates":[-121.92831,37.41235]},"properties":{"name":"Cisco","stopId":"PS_CISC","system":"vta","routes":["Ornge"],"colors":["#CC6600"]}},{"type":"Feature","geometry":{"type":"Point","coordinates":[-121.90196,37.35138]},"properties":{"name":"Civic Center","stopId":"PS_CIVC","system":"vta","routes":["Blue","Green"],"colors":["#007ACC","#379400"]}},{"type":"Feature","geometry":{"type":"Point","coordinates":[-121.94303,37.2859]},"properties":{"name":"Campbell","stopId":"PS_CMBL","system":"vta","routes":["Green"],"colors":["#379400"]}},{"type":"Feature","geometry":{"type":"Point","coordinates":[-121.92534,37.38278]},"properties":{"name":"Component","stopId":"PS_COMP","system":"vta","routes":["Blue","Green"],"colors":["#007ACC","#379400"]}},{"type":"Feature","geometry":{"type":"Point","coordinates":[-121.88975,37.33017]},"properties":{"name":"Convention Center","stopId":"PS_CONV","system":"vta","routes":["Blue","Green"],"colors":["#007ACC","#379400"]}},{"type":"Feature","geometry":{"type":"Point","coordinates":[-121.88208,37.40333]},"properties":{"name":"Cropley","stopId":"PS_CROP","system":"vta","routes":["Ornge"],"colors":["#CC6600"]}},{"type":"Feature","geometry":{"type":"Point","coordinates":[-122.01118,37.40884]},"properties":{"name":"Crossman","stopId":"PS_CRSS","system":"vta","routes":["Ornge"],"colors":["#CC6600"]}},{"type":"Feature","geometry":{"type":"Point","coordinates":[-121.80298,37.24268]},"properties":{"name":"Cottle","stopId":"PS_CTTL","system":"vta","routes":["Blue"],"colors":["#007ACC"]}},{"type":"Feature","geometry":{"type":"Point","coordinates":[-121.9035,37.32871]},"properties":{"name":"Diridon","stopId":"PS_DIRD","system":"vta","routes":["Green"],"colors":["#379400"]}},{"type":"Feature","geometry":{"type":"Point","coordinates":[-122.00864,37.40258]},"properties":{"name":"Fair Oaks","stopId":"PS_FAIR","system":"vta","routes":["Ornge"],"colors":["#CC6600"]}},{"type":"Feature","geometry":{"type":"Point","coordinates":[-121.91802,37.31048]},"properties":{"name":"Fruitdale","stopId":"PS_FRTD","system":"vta","routes":["Green"],"colors":["#379400"]}},{"type":"Feature","geometry":{"type":"Point","coordinates":[-121.90964,37.36173]},"properties":{"name":"Gish","stopId":"PS_GISH","system":"vta","routes":["Blue","Green"],"colors":["#007ACC","#379400"]}},{"type":"Feature","geometry":{"type":"Point","coordinates":[-121.97491,37.40347]},"properties":{"name":"Great America","stopId":"PS_GRAM","system":"vta","routes":["Green","Ornge"],"colors":["#379400","#CC6600"]}},{"type":"Feature","geometry":{"type":"Point","coordinates":[-121.90212,37.41439]},"properties":{"name":"Great Mall","stopId":"PS_GRML","system":"vta","routes":["Ornge"],"colors":["#CC6600"]}},{"type":"Feature","geometry":{"type":"Point","coordinates":[-121.93658,37.29369]},"properties":{"name":"Hamilton","stopId":"PS_HAML","system":"vta","routes":["Green"],"colors":["#379400"]}},{"type":"Feature","geometry":{"type":"Point","coordinates":[-121.86963,37.39512]},"properties":{"name":"Hostetter","stopId":"PS_HOST","system":"vta","routes":["Ornge"],"colors":["#CC6600"]}},{"type":"Feature","geometry":{"type":"Point","coordinates":[-121.89712,37.34496]},"properties":{"name":"Japantown/Ayer","stopId":"PS_JAPN","system":"vta","routes":["Blue","Green"],"colors":["#007ACC","#379400"]}},{"type":"Feature","geometry":{"type":"Point","coordinates":[-121.91987,37.37542]},"properties":{"name":"Karina","stopId":"PS_KRNA","system":"vta","routes":["Blue","Green"],"colors":["#007ACC","#379400"]}},{"type":"Feature","geometry":{"type":"Point","coordinates":[-121.96292,37.4078]},"properties":{"name":"Lick Mill","stopId":"PS_LICK","system":"vta","routes":["Green","Ornge"],"colors":["#379400","#CC6600"]}},{"type":"Feature","geometry":{"type":"Point","coordinates":[-122.02702,37.40977]},"properties":{"name":"Lockheed Martin","stopId":"PS_LOCK","system":"vta","routes":["Ornge"],"colors":["#CC6600"]}},{"type":"Feature","geometry":{"type":"Point","coordinates":[-121.91545,37.36951]},"properties":{"name":"Metro/Airport","stopId":"PS_METR","system":"vta","routes":["Blue","Green"],"colors":["#007ACC","#379400"]}},{"type":"Feature","geometry":{"type":"Point","coordinates":[-122.05221,37.39543]},"properties":{"name":"Middlefield","stopId":"PS_MIDD","system":"vta","routes":["Ornge"],"colors":["#CC6600"]}},{"type":"Feature","geometry":{"type":"Point","coordinates":[-121.89101,37.40876]},"properties":{"name":"Milpitas","stopId":"PS_MILP","system":"vta","routes":["Ornge"],"colors":["#CC6600"]}},{"type":"Feature","geometry":{"type":"Point","coordinates":[-121.84478,37.37185]},"properties":{"name":"Mckee","stopId":"PS_MKEE","system":"vta","routes":["Ornge"],"colors":["#CC6600"]}},{"type":"Feature","geometry":{"type":"Point","coordinates":[-122.03346,37.40237]},"properties":{"name":"Moffett Park","stopId":"PS_MOFF","system":"vta","routes":["Ornge"],"colors":["#CC6600"]}},{"type":"Feature","geometry":{"type":"Point","coordinates":[-122.07719,37.39511]},"properties":{"name":"Mountain View","stopId":"PS_MVTC","system":"vta","routes":["Ornge"],"colors":["#CC6600"]}},{"type":"Feature","geometry":{"type":"Point","coordinates":[-122.04917,37.40433]},"properties":{"name":"Bayshore Nasa","stopId":"PS_NASA","system":"vta","routes":["Ornge"],"colors":["#CC6600"]}},{"type":"Feature","geometry":{"type":"Point","coordinates":[-121.97986,37.40333]},"properties":{"name":"Old Ironsides","stopId":"PS_OLDI","system":"vta","routes":["Green","Ornge"],"colors":["#379400","#CC6600"]}},{"type":"Feature","geometry":{"type":"Point","coordinates":[-121.93436,37.39491]},"properties":{"name":"Orchard","stopId":"PS_ORCH","system":"vta","routes":["Blue","Green"],"colors":["#007ACC","#379400"]}},{"type":"Feature","geometry":{"type":"Point","coordinates":[-121.85522,37.38174]},"properties":{"name":"Penitencia Creek","stopId":"PS_PENC","system":"vta","routes":["Ornge"],"colors":["#CC6600"]}},{"type":"Feature","geometry":{"type":"Point","coordinates":[-121.91075,37.31715]},"properties":{"name":"Race","stopId":"PS_RACE","system":"vta","routes":["Green"],"colors":["#379400"]}},{"type":"Feature","geometry":{"type":"Point","coordinates":[-121.98856,37.40355]},"properties":{"name":"Reamwood","stopId":"PS_REAM","system":"vta","routes":["Ornge"],"colors":["#CC6600"]}},{"type":"Feature","geometry":{"type":"Point","coordinates":[-121.93951,37.40201]},"properties":{"name":"River Oaks","stopId":"PS_ROAK","system":"vta","routes":["Blue","Green"],"colors":["#007ACC","#379400"]}},{"type":"Feature","geometry":{"type":"Point","coordinates":[-121.89812,37.33037]},"properties":{"name":"San Fernando","stopId":"PS_SFND","system":"vta","routes":["Green"],"colors":["#379400"]}},{"type":"Feature","geometry":{"type":"Point","coordinates":[-121.83097,37.24785]},"properties":{"name":"Snell","stopId":"PS_SNLL","system":"vta","routes":["Blue"],"colors":["#007ACC"]}},{"type":"Feature","geometry":{"type":"Point","coordinates":[-121.88459,37.31162]},"properties":{"name":"Tamien","stopId":"PS_TAMN","system":"vta","routes":["Blue"],"colors":["#007ACC"]}},{"type":"Feature","geometry":{"type":"Point","coordinates":[-121.94446,37.40867]},"properties":{"name":"Tasman","stopId":"PS_TASM","system":"vta","routes":["Blue","Green"],"colors":["#007ACC","#379400"]}},{"type":"Feature","geometry":{"type":"Point","coordinates":[-121.99959,37.40338]},"properties":{"name":"Vienna","stopId":"PS_VIEN","system":"vta","routes":["Ornge"],"colors":["#CC6600"]}},{"type":"Feature","geometry":{"type":"Point","coordinates":[-121.8901,37.31983]},"properties":{"name":"Virginia","stopId":"PS_VIRG","system":"vta","routes":["Blue"],"colors":["#007ACC"]}},{"type":"Feature","geometry":{"type":"Point","coordinates":[-122.05822,37.3922]},"properties":{"name":"Whisman","stopId":"PS_WHIS","system":"vta","routes":["Ornge"],"colors":["#CC6600"]}},{"type":"Feature","geometry":{"type":"Point","coordinates":[-121.94798,37.27961]},"properties":{"name":"Winchester","stopId":"PS_WINC","system":"vta","routes":["Green"],"colors":["#379400"]}},{"type":"Feature","geometry":{"type":"Point","coordinates":[-121.88798,37.33278]},"properties":{"name":"San Antonio","stopId":"4747","system":"vta","routes":["Blue","Green"],"colors":["#007ACC","#379400"]}},{"type":"Feature","geometry":{"type":"Point","coordinates":[-121.89035,37.33592]},"properties":{"name":"Santa Clara","stopId":"4748","system":"vta","routes":["Blue","Green"],"colors":["#007ACC","#379400"]}},{"type":"Feature","geometry":{"type":"Point","coordinates":[-121.89218,37.3384]},"properties":{"name":"Saint James","stopId":"4749","system":"vta","routes":["Blue","Green"],"colors":["#007ACC","#379400"]}},{"type":"Feature","geometry":{"type":"Point","coordinates":[-121.98425,37.40349]},"properties":{"name":"Patrick Henry Pocket Track (NOT A PUBLIC STOP)","stopId":"5866","system":"vta","routes":["Green"],"colors":["#379400"]}}]}